{
"type": "FeatureCollection",
"name": "barra-funda",
"crs": { "type": "name", "properties": { "name": "urn:ogc:def:crs:OGC:1.3:CRS84" } },
"xy_coordinate_resolution": 1e-06,
"features": [
{ "type": "Feature", "properties": { "CD_SETOR": "355030806000001", "faces": 71, "pavimentada": 100.0, "bueiro": 100.0, "iluminacao": 100.0, "onibus": 28.17, "ciclovia": 12.68, "calcada": 100.0, "obstaculo": 57.75, "rampa": 18.31, "rampa_faces": 18.31, "sem_calcada": 0.0, "sem_arvore": 4.23, "muitas_arvores": 88.73, "vao": 81.69, "V05400": 71, "V05421": 71, "V05406": 71, "V05412": 71, "V05422": 0, "V05424": 41, "V05427": 13, "V05409": 71, "V05415": 20, "V05418": 9, "V05430": 3, "V05433": 63, "criancas_0a4": 87, "em_favela": false }, "geometry": { "type": "Polygon", "coordinates": [ [ [ -46.676968, -23.513943 ], [ -46.666765, -23.51521 ], [ -46.667518, -23.520274 ], [ -46.667929, -23.520775 ], [ -46.668114, -23.520891 ], [ -46.668312, -23.521252 ], [ -46.668243, -23.521418 ], [ -46.668352, -23.521956 ], [ -46.671212, -23.525138 ], [ -46.677615, -23.524592 ], [ -46.679461, -23.524051 ], [ -46.680209, -23.523679 ], [ -46.679897, -23.523285 ], [ -46.679641, -23.522852 ], [ -46.67946, -23.522437 ], [ -46.679305, -23.521811 ], [ -46.679335, -23.520865 ], [ -46.679246, -23.520119 ], [ -46.679235, -23.518983 ], [ -46.679353, -23.518678 ], [ -46.679458, -23.518127 ], [ -46.679384, -23.517666 ], [ -46.679152, -23.517033 ], [ -46.679001, -23.513271 ], [ -46.678051, -23.51367 ], [ -46.676968, -23.513943 ] ] ] } },
{ "type": "Feature", "properties": { "CD_SETOR": "355030806000007", "faces": 4, "pavimentada": 100.0, "bueiro": 50.0, "iluminacao": 75.0, "onibus": 0.0, "ciclovia": 0.0, "calcada": 0.0, "obstaculo": null, "rampa": null, "rampa_faces": 0.0, "sem_calcada": 100.0, "sem_arvore": 50.0, "muitas_arvores": 25.0, "vao": 100.0, "V05400": 4, "V05421": 0, "V05406": 4, "V05412": 3, "V05422": 4, "V05424": 0, "V05427": 0, "V05409": 2, "V05415": 0, "V05418": 0, "V05430": 2, "V05433": 1, "criancas_0a4": 38, "em_favela": false }, "geometry": { "type": "Polygon", "coordinates": [ [ [ -46.686135, -23.512792 ], [ -46.686691, -23.512756 ], [ -46.686634, -23.511608 ], [ -46.686071, -23.511807 ], [ -46.686135, -23.512792 ] ] ] } },
{ "type": "Feature", "properties": { "CD_SETOR": "355030806000008", "faces": 23, "pavimentada": 91.3, "bueiro": 13.04, "iluminacao": 69.57, "onibus": 0.0, "ciclovia": 0.0, "calcada": 17.39, "obstaculo": 75.0, "rampa": 25.0, "rampa_faces": 4.35, "sem_calcada": 73.91, "sem_arvore": 82.61, "muitas_arvores": 4.35, "vao": 86.96, "V05400": 23, "V05421": 4, "V05406": 21, "V05412": 16, "V05422": 17, "V05424": 3, "V05427": 1, "V05409": 3, "V05415": 0, "V05418": 0, "V05430": 19, "V05433": 1, "criancas_0a4": 70, "em_favela": true }, "geometry": { "type": "Polygon", "coordinates": [ [ [ -46.686135, -23.512792 ], [ -46.686231, -23.513861 ], [ -46.686199, -23.51438 ], [ -46.686244, -23.514392 ], [ -46.686523, -23.514284 ], [ -46.686578, -23.51431 ], [ -46.686904, -23.513996 ], [ -46.687024, -23.513804 ], [ -46.687382, -23.512867 ], [ -46.686995, -23.512897 ], [ -46.686735, -23.513152 ], [ -46.686691, -23.512756 ], [ -46.686135, -23.512792 ] ] ] } },
{ "type": "Feature", "properties": { "CD_SETOR": "355030806000010", "faces": 16, "pavimentada": 100.0, "bueiro": 18.75, "iluminacao": 100.0, "onibus": 25.0, "ciclovia": 0.0, "calcada": 100.0, "obstaculo": 25.0, "rampa": 43.75, "rampa_faces": 43.75, "sem_calcada": 0.0, "sem_arvore": 18.75, "muitas_arvores": 50.0, "vao": 56.25, "V05400": 16, "V05421": 16, "V05406": 16, "V05412": 16, "V05422": 0, "V05424": 4, "V05427": 7, "V05409": 3, "V05415": 4, "V05418": 0, "V05430": 3, "V05433": 8, "criancas_0a4": 6, "em_favela": false }, "geometry": { "type": "Polygon", "coordinates": [ [ [ -46.66334, -23.529521 ], [ -46.662353, -23.530275 ], [ -46.662733, -23.530687 ], [ -46.661633, -23.531363 ], [ -46.661857, -23.531853 ], [ -46.661821, -23.531967 ], [ -46.661883, -23.531977 ], [ -46.662028, -23.532156 ], [ -46.662282, -23.532192 ], [ -46.663338, -23.532075 ], [ -46.663724, -23.531921 ], [ -46.663062, -23.531043 ], [ -46.664107, -23.530236 ], [ -46.66334, -23.529521 ] ] ] } },
{ "type": "Feature", "properties": { "CD_SETOR": "355030806000011", "faces": 6, "pavimentada": 100.0, "bueiro": 100.0, "iluminacao": 100.0, "onibus": 66.67, "ciclovia": 0.0, "calcada": 100.0, "obstaculo": 0.0, "rampa": 50.0, "rampa_faces": 50.0, "sem_calcada": 0.0, "sem_arvore": 16.67, "muitas_arvores": 33.33, "vao": 50.0, "V05400": 6, "V05421": 6, "V05406": 6, "V05412": 6, "V05422": 0, "V05424": 0, "V05427": 3, "V05409": 6, "V05415": 4, "V05418": 0, "V05430": 1, "V05433": 2, "criancas_0a4": 3, "em_favela": false }, "geometry": { "type": "Polygon", "coordinates": [ [ [ -46.660935, -23.530149 ], [ -46.660944, -23.532099 ], [ -46.66122, -23.532653 ], [ -46.661866, -23.532394 ], [ -46.662086, -23.532258 ], [ -46.661883, -23.531977 ], [ -46.661821, -23.531967 ], [ -46.661861, -23.531901 ], [ -46.661838, -23.531804 ], [ -46.661095, -23.530218 ], [ -46.660935, -23.530149 ] ] ] } },
{ "type": "Feature", "properties": { "CD_SETOR": "355030806000017", "faces": 10, "pavimentada": 100.0, "bueiro": 50.0, "iluminacao": 100.0, "onibus": 20.0, "ciclovia": 20.0, "calcada": 70.0, "obstaculo": 28.57, "rampa": 57.14, "rampa_faces": 40.0, "sem_calcada": 30.0, "sem_arvore": 40.0, "muitas_arvores": 60.0, "vao": 60.0, "V05400": 10, "V05421": 7, "V05406": 10, "V05412": 10, "V05422": 3, "V05424": 2, "V05427": 4, "V05409": 5, "V05415": 2, "V05418": 2, "V05430": 4, "V05433": 6, "criancas_0a4": 3, "em_favela": false }, "geometry": { "type": "Polygon", "coordinates": [ [ [ -46.675104, -23.530182 ], [ -46.674901, -23.530415 ], [ -46.673482, -23.531589 ], [ -46.673634, -23.531816 ], [ -46.676301, -23.530285 ], [ -46.677356, -23.52963 ], [ -46.676964, -23.529435 ], [ -46.676036, -23.528732 ], [ -46.675929, -23.528808 ], [ -46.675104, -23.530182 ] ] ] } },
{ "type": "Feature", "properties": { "CD_SETOR": "355030806000018", "faces": 14, "pavimentada": 100.0, "bueiro": 35.71, "iluminacao": 100.0, "onibus": 35.71, "ciclovia": 14.29, "calcada": 100.0, "obstaculo": 35.71, "rampa": 85.71, "rampa_faces": 85.71, "sem_calcada": 0.0, "sem_arvore": 7.14, "muitas_arvores": 42.86, "vao": 14.29, "V05400": 14, "V05421": 14, "V05406": 14, "V05412": 14, "V05422": 0, "V05424": 5, "V05427": 12, "V05409": 5, "V05415": 5, "V05418": 2, "V05430": 1, "V05433": 6, "criancas_0a4": 4, "em_favela": false }, "geometry": { "type": "Polygon", "coordinates": [ [ [ -46.681617, -23.52545 ], [ -46.68014, -23.525525 ], [ -46.676555, -23.526002 ], [ -46.676559, -23.526623 ], [ -46.675737, -23.52768 ], [ -46.67679, -23.528345 ], [ -46.676553, -23.528881 ], [ -46.676437, -23.52903 ], [ -46.676964, -23.529435 ], [ -46.677356, -23.52963 ], [ -46.678802, -23.528895 ], [ -46.679535, -23.528444 ], [ -46.681318, -23.527159 ], [ -46.682264, -23.526348 ], [ -46.681617, -23.52545 ] ] ] } },
{ "type": "Feature", "properties": { "CD_SETOR": "355030806000023", "faces": 4, "pavimentada": 100.0, "bueiro": 25.0, "iluminacao": 100.0, "onibus": 50.0, "ciclovia": 25.0, "calcada": 100.0, "obstaculo": 25.0, "rampa": 75.0, "rampa_faces": 75.0, "sem_calcada": 0.0, "sem_arvore": 0.0, "muitas_arvores": 50.0, "vao": 25.0, "V05400": 4, "V05421": 4, "V05406": 4, "V05412": 4, "V05422": 0, "V05424": 1, "V05427": 3, "V05409": 1, "V05415": 2, "V05418": 1, "V05430": 0, "V05433": 2, "criancas_0a4": 6, "em_favela": false }, "geometry": { "type": "Polygon", "coordinates": [ [ [ -46.675305, -23.528236 ], [ -46.676437, -23.52903 ], [ -46.676553, -23.528881 ], [ -46.67679, -23.528345 ], [ -46.675737, -23.52768 ], [ -46.675305, -23.528236 ] ] ] } },
{ "type": "Feature", "properties": { "CD_SETOR": "355030806000025", "faces": 8, "pavimentada": 100.0, "bueiro": 87.5, "iluminacao": 100.0, "onibus": 12.5, "ciclovia": 37.5, "calcada": 100.0, "obstaculo": 25.0, "rampa": 75.0, "rampa_faces": 75.0, "sem_calcada": 0.0, "sem_arvore": 12.5, "muitas_arvores": 75.0, "vao": 25.0, "V05400": 8, "V05421": 8, "V05406": 8, "V05412": 8, "V05422": 0, "V05424": 2, "V05427": 6, "V05409": 7, "V05415": 1, "V05418": 3, "V05430": 1, "V05433": 6, "criancas_0a4": 20, "em_favela": false }, "geometry": { "type": "Polygon", "coordinates": [ [ [ -46.661901, -23.534014 ], [ -46.663152, -23.536506 ], [ -46.663427, -23.537046 ], [ -46.663581, -23.536822 ], [ -46.663903, -23.535942 ], [ -46.663427, -23.534989 ], [ -46.664315, -23.534433 ], [ -46.66362, -23.533264 ], [ -46.661901, -23.534014 ] ] ] } },
{ "type": "Feature", "properties": { "CD_SETOR": "355030806000029", "faces": 1, "pavimentada": 100.0, "bueiro": 100.0, "iluminacao": 100.0, "onibus": 0.0, "ciclovia": 0.0, "calcada": 100.0, "obstaculo": 0.0, "rampa": 0.0, "rampa_faces": 0.0, "sem_calcada": 0.0, "sem_arvore": 0.0, "muitas_arvores": 100.0, "vao": 100.0, "V05400": 1, "V05421": 1, "V05406": 1, "V05412": 1, "V05422": 0, "V05424": 0, "V05427": 0, "V05409": 1, "V05415": 0, "V05418": 0, "V05430": 0, "V05433": 1, "criancas_0a4": 11, "em_favela": false }, "geometry": { "type": "Polygon", "coordinates": [ [ [ -46.682802, -23.523539 ], [ -46.683598, -23.523158 ], [ -46.683489, -23.522881 ], [ -46.682604, -23.523198 ], [ -46.682802, -23.523539 ] ] ] } },
{ "type": "Feature", "properties": { "CD_SETOR": "355030806000030", "faces": 1, "pavimentada": 100.0, "bueiro": 100.0, "iluminacao": 100.0, "onibus": 0.0, "ciclovia": 0.0, "calcada": 0.0, "obstaculo": null, "rampa": null, "rampa_faces": 0.0, "sem_calcada": 100.0, "sem_arvore": 0.0, "muitas_arvores": 0.0, "vao": 100.0, "V05400": 1, "V05421": 0, "V05406": 1, "V05412": 1, "V05422": 1, "V05424": 0, "V05427": 0, "V05409": 1, "V05415": 0, "V05418": 0, "V05430": 0, "V05433": 0, "criancas_0a4": 10, "em_favela": false }, "geometry": { "type": "Polygon", "coordinates": [ [ [ -46.682802, -23.523539 ], [ -46.682604, -23.523198 ], [ -46.683489, -23.522881 ], [ -46.683439, -23.522756 ], [ -46.682493, -23.523006 ], [ -46.681723, -23.523371 ], [ -46.682109, -23.523869 ], [ -46.682802, -23.523539 ] ] ] } },
{ "type": "Feature", "properties": { "CD_SETOR": "355030806000035", "faces": 2, "pavimentada": 100.0, "bueiro": 0.0, "iluminacao": 100.0, "onibus": 0.0, "ciclovia": 0.0, "calcada": 100.0, "obstaculo": 0.0, "rampa": 0.0, "rampa_faces": 0.0, "sem_calcada": 0.0, "sem_arvore": 0.0, "muitas_arvores": 0.0, "vao": 100.0, "V05400": 2, "V05421": 2, "V05406": 2, "V05412": 2, "V05422": 0, "V05424": 0, "V05427": 0, "V05409": 0, "V05415": 0, "V05418": 0, "V05430": 0, "V05433": 0, "criancas_0a4": 15, "em_favela": false }, "geometry": { "type": "Polygon", "coordinates": [ [ [ -46.662806, -23.529929 ], [ -46.663044, -23.529747 ], [ -46.662852, -23.529542 ], [ -46.662792, -23.52959 ], [ -46.662656, -23.529453 ], [ -46.662971, -23.529177 ], [ -46.662771, -23.528991 ], [ -46.662394, -23.529347 ], [ -46.662522, -23.529465 ], [ -46.662438, -23.529536 ], [ -46.662806, -23.529929 ] ] ] } },
{ "type": "Feature", "properties": { "CD_SETOR": "355030806000036", "faces": 1, "pavimentada": 100.0, "bueiro": 100.0, "iluminacao": 100.0, "onibus": 0.0, "ciclovia": 0.0, "calcada": 100.0, "obstaculo": 0.0, "rampa": 0.0, "rampa_faces": 0.0, "sem_calcada": 0.0, "sem_arvore": 0.0, "muitas_arvores": 0.0, "vao": 100.0, "V05400": 1, "V05421": 1, "V05406": 1, "V05412": 1, "V05422": 0, "V05424": 0, "V05427": 0, "V05409": 1, "V05415": 0, "V05418": 0, "V05430": 0, "V05433": 0, "criancas_0a4": 13, "em_favela": false }, "geometry": { "type": "Polygon", "coordinates": [ [ [ -46.6635, -23.527868 ], [ -46.663155, -23.527536 ], [ -46.662763, -23.527895 ], [ -46.663093, -23.528232 ], [ -46.6635, -23.527868 ] ] ] } },
{ "type": "Feature", "properties": { "CD_SETOR": "355030806000037", "faces": 2, "pavimentada": 100.0, "bueiro": 0.0, "iluminacao": 100.0, "onibus": 0.0, "ciclovia": 0.0, "calcada": 100.0, "obstaculo": 0.0, "rampa": 100.0, "rampa_faces": 100.0, "sem_calcada": 0.0, "sem_arvore": 50.0, "muitas_arvores": 50.0, "vao": 0.0, "V05400": 2, "V05421": 2, "V05406": 2, "V05412": 2, "V05422": 0, "V05424": 0, "V05427": 2, "V05409": 0, "V05415": 0, "V05418": 0, "V05430": 1, "V05433": 1, "criancas_0a4": 9, "em_favela": false }, "geometry": { "type": "Polygon", "coordinates": [ [ [ -46.663342, -23.531422 ], [ -46.66393, -23.530961 ], [ -46.663678, -23.530567 ], [ -46.663062, -23.531043 ], [ -46.663342, -23.531422 ] ] ] } },
{ "type": "Feature", "properties": { "CD_SETOR": "355030806000038", "faces": 8, "pavimentada": 100.0, "bueiro": 62.5, "iluminacao": 100.0, "onibus": 12.5, "ciclovia": 25.0, "calcada": 100.0, "obstaculo": 0.0, "rampa": 100.0, "rampa_faces": 100.0, "sem_calcada": 0.0, "sem_arvore": 62.5, "muitas_arvores": 25.0, "vao": 0.0, "V05400": 8, "V05421": 8, "V05406": 8, "V05412": 8, "V05422": 0, "V05424": 0, "V05427": 8, "V05409": 5, "V05415": 1, "V05418": 2, "V05430": 5, "V05433": 2, "criancas_0a4": 0, "em_favela": false }, "geometry": { "type": "Polygon", "coordinates": [ [ [ -46.660924, -23.529147 ], [ -46.660935, -23.530149 ], [ -46.662462, -23.528703 ], [ -46.66257, -23.528804 ], [ -46.663167, -23.528287 ], [ -46.663824, -23.528917 ], [ -46.664227, -23.52856 ], [ -46.6635, -23.527868 ], [ -46.663093, -23.528232 ], [ -46.662763, -23.527895 ], [ -46.663155, -23.527536 ], [ -46.663001, -23.527388 ], [ -46.662338, -23.527767 ], [ -46.661952, -23.528067 ], [ -46.661348, -23.528648 ], [ -46.661106, -23.528991 ], [ -46.660968, -23.529153 ], [ -46.660924, -23.529147 ] ] ] } },
{ "type": "Feature", "properties": { "CD_SETOR": "355030806000039", "faces": 1, "pavimentada": 100.0, "bueiro": 0.0, "iluminacao": 100.0, "onibus": 0.0, "ciclovia": 0.0, "calcada": 100.0, "obstaculo": 0.0, "rampa": 0.0, "rampa_faces": 0.0, "sem_calcada": 0.0, "sem_arvore": 100.0, "muitas_arvores": 0.0, "vao": 100.0, "V05400": 1, "V05421": 1, "V05406": 1, "V05412": 1, "V05422": 0, "V05424": 0, "V05427": 0, "V05409": 0, "V05415": 0, "V05418": 0, "V05430": 1, "V05433": 0, "criancas_0a4": 0, "em_favela": false }, "geometry": { "type": "Polygon", "coordinates": [ [ [ -46.663664, -23.529823 ], [ -46.663772, -23.529924 ], [ -46.664085, -23.529637 ], [ -46.663973, -23.529534 ], [ -46.663664, -23.529823 ] ] ] } },
{ "type": "Feature", "properties": { "CD_SETOR": "355030806000040", "faces": 1, "pavimentada": 100.0, "bueiro": 0.0, "iluminacao": 100.0, "onibus": 0.0, "ciclovia": 0.0, "calcada": 100.0, "obstaculo": 0.0, "rampa": 0.0, "rampa_faces": 0.0, "sem_calcada": 0.0, "sem_arvore": 100.0, "muitas_arvores": 0.0, "vao": 100.0, "V05400": 1, "V05421": 1, "V05406": 1, "V05412": 1, "V05422": 0, "V05424": 0, "V05427": 0, "V05409": 0, "V05415": 0, "V05418": 0, "V05430": 1, "V05433": 0, "criancas_0a4": 0, "em_favela": false }, "geometry": { "type": "Polygon", "coordinates": [ [ [ -46.663631, -23.529793 ], [ -46.663664, -23.529823 ], [ -46.663973, -23.529534 ], [ -46.664085, -23.529637 ], [ -46.664323, -23.529419 ], [ -46.664173, -23.529286 ], [ -46.663631, -23.529793 ] ] ] } },
{ "type": "Feature", "properties": { "CD_SETOR": "355030806000041", "faces": 1, "pavimentada": 100.0, "bueiro": 0.0, "iluminacao": 100.0, "onibus": 0.0, "ciclovia": 0.0, "calcada": 100.0, "obstaculo": 0.0, "rampa": 0.0, "rampa_faces": 0.0, "sem_calcada": 0.0, "sem_arvore": 0.0, "muitas_arvores": 0.0, "vao": 100.0, "V05400": 1, "V05421": 1, "V05406": 1, "V05412": 1, "V05422": 0, "V05424": 0, "V05427": 0, "V05409": 0, "V05415": 0, "V05418": 0, "V05430": 0, "V05433": 0, "criancas_0a4": 0, "em_favela": false }, "geometry": { "type": "Polygon", "coordinates": [ [ [ -46.662771, -23.528991 ], [ -46.663021, -23.529224 ], [ -46.6636, -23.528719 ], [ -46.663371, -23.528493 ], [ -46.662771, -23.528991 ] ] ] } },
{ "type": "Feature", "properties": { "CD_SETOR": "355030806000042", "faces": 1, "pavimentada": 100.0, "bueiro": 0.0, "iluminacao": 100.0, "onibus": 0.0, "ciclovia": 0.0, "calcada": 100.0, "obstaculo": 0.0, "rampa": 0.0, "rampa_faces": 0.0, "sem_calcada": 0.0, "sem_arvore": 0.0, "muitas_arvores": 0.0, "vao": 100.0, "V05400": 1, "V05421": 1, "V05406": 1, "V05412": 1, "V05422": 0, "V05424": 0, "V05427": 0, "V05409": 0, "V05415": 0, "V05418": 0, "V05430": 0, "V05433": 0, "criancas_0a4": 0, "em_favela": false }, "geometry": { "type": "Polygon", "coordinates": [ [ [ -46.66257, -23.528804 ], [ -46.662771, -23.528991 ], [ -46.663371, -23.528493 ], [ -46.663167, -23.528287 ], [ -46.66257, -23.528804 ] ] ] } },
{ "type": "Feature", "properties": { "CD_SETOR": "355030806000043", "faces": 1, "pavimentada": 100.0, "bueiro": 100.0, "iluminacao": 100.0, "onibus": 0.0, "ciclovia": 0.0, "calcada": 100.0, "obstaculo": 0.0, "rampa": 100.0, "rampa_faces": 100.0, "sem_calcada": 0.0, "sem_arvore": 0.0, "muitas_arvores": 100.0, "vao": 0.0, "V05400": 1, "V05421": 1, "V05406": 1, "V05412": 1, "V05422": 0, "V05424": 0, "V05427": 1, "V05409": 1, "V05415": 0, "V05418": 0, "V05430": 0, "V05433": 1, "criancas_0a4": 0, "em_favela": false }, "geometry": { "type": "Polygon", "coordinates": [ [ [ -46.663824, -23.528917 ], [ -46.66397, -23.529054 ], [ -46.664364, -23.528691 ], [ -46.664227, -23.52856 ], [ -46.663824, -23.528917 ] ] ] } },
{ "type": "Feature", "properties": { "CD_SETOR": "355030806000044", "faces": 1, "pavimentada": 100.0, "bueiro": 100.0, "iluminacao": 100.0, "onibus": 0.0, "ciclovia": 0.0, "calcada": 100.0, "obstaculo": 0.0, "rampa": 100.0, "rampa_faces": 100.0, "sem_calcada": 0.0, "sem_arvore": 0.0, "muitas_arvores": 100.0, "vao": 0.0, "V05400": 1, "V05421": 1, "V05406": 1, "V05412": 1, "V05422": 0, "V05424": 0, "V05427": 1, "V05409": 1, "V05415": 0, "V05418": 0, "V05430": 0, "V05433": 1, "criancas_0a4": 7, "em_favela": false }, "geometry": { "type": "Polygon", "coordinates": [ [ [ -46.66397, -23.529054 ], [ -46.664145, -23.529219 ], [ -46.664548, -23.528867 ], [ -46.664364, -23.528691 ], [ -46.66397, -23.529054 ] ] ] } },
{ "type": "Feature", "properties": { "CD_SETOR": "355030806000046", "faces": 8, "pavimentada": 100.0, "bueiro": 100.0, "iluminacao": 100.0, "onibus": 0.0, "ciclovia": 0.0, "calcada": 100.0, "obstaculo": 37.5, "rampa": 75.0, "rampa_faces": 75.0, "sem_calcada": 0.0, "sem_arvore": 0.0, "muitas_arvores": 50.0, "vao": 25.0, "V05400": 8, "V05421": 8, "V05406": 8, "V05412": 8, "V05422": 0, "V05424": 3, "V05427": 6, "V05409": 8, "V05415": 0, "V05418": 0, "V05430": 0, "V05433": 4, "criancas_0a4": 12, "em_favela": false }, "geometry": { "type": "Polygon", "coordinates": [ [ [ -46.673718, -23.529239 ], [ -46.672399, -23.529963 ], [ -46.673482, -23.531589 ], [ -46.674597, -23.530671 ], [ -46.673718, -23.529239 ] ] ] } },
{ "type": "Feature", "properties": { "CD_SETOR": "355030806000048", "faces": 2, "pavimentada": 100.0, "bueiro": 100.0, "iluminacao": 100.0, "onibus": 0.0, "ciclovia": 0.0, "calcada": 100.0, "obstaculo": 0.0, "rampa": 100.0, "rampa_faces": 100.0, "sem_calcada": 0.0, "sem_arvore": 50.0, "muitas_arvores": 50.0, "vao": 0.0, "V05400": 2, "V05421": 2, "V05406": 2, "V05412": 2, "V05422": 0, "V05424": 0, "V05427": 2, "V05409": 2, "V05415": 0, "V05418": 0, "V05430": 1, "V05433": 1, "criancas_0a4": 21, "em_favela": false }, "geometry": { "type": "Polygon", "coordinates": [ [ [ -46.680585, -23.5255 ], [ -46.681468, -23.52545 ], [ -46.681617, -23.52545 ], [ -46.681175, -23.524886 ], [ -46.680497, -23.524954 ], [ -46.680585, -23.5255 ] ] ] } },
{ "type": "Feature", "properties": { "CD_SETOR": "355030806000049", "faces": 2, "pavimentada": 100.0, "bueiro": 100.0, "iluminacao": 100.0, "onibus": 0.0, "ciclovia": 0.0, "calcada": 100.0, "obstaculo": 0.0, "rampa": 0.0, "rampa_faces": 0.0, "sem_calcada": 0.0, "sem_arvore": 0.0, "muitas_arvores": 0.0, "vao": 100.0, "V05400": 2, "V05421": 2, "V05406": 2, "V05412": 2, "V05422": 0, "V05424": 0, "V05427": 0, "V05409": 2, "V05415": 0, "V05418": 0, "V05430": 0, "V05433": 0, "criancas_0a4": 17, "em_favela": false }, "geometry": { "type": "Polygon", "coordinates": [ [ [ -46.68014, -23.524255 ], [ -46.680354, -23.525512 ], [ -46.680585, -23.5255 ], [ -46.680497, -23.524954 ], [ -46.681175, -23.524886 ], [ -46.680517, -23.524066 ], [ -46.68014, -23.524255 ] ] ] } },
{ "type": "Feature", "properties": { "CD_SETOR": "355030806000050", "faces": 1, "pavimentada": 100.0, "bueiro": 100.0, "iluminacao": 100.0, "onibus": 100.0, "ciclovia": 0.0, "calcada": 100.0, "obstaculo": 0.0, "rampa": 100.0, "rampa_faces": 100.0, "sem_calcada": 0.0, "sem_arvore": 0.0, "muitas_arvores": 100.0, "vao": 0.0, "V05400": 1, "V05421": 1, "V05406": 1, "V05412": 1, "V05422": 0, "V05424": 0, "V05427": 1, "V05409": 1, "V05415": 1, "V05418": 0, "V05430": 0, "V05433": 1, "criancas_0a4": 24, "em_favela": false }, "geometry": { "type": "Polygon", "coordinates": [ [ [ -46.679866, -23.524383 ], [ -46.679959, -23.525018 ], [ -46.679895, -23.525025 ], [ -46.679989, -23.525545 ], [ -46.680354, -23.525512 ], [ -46.68014, -23.524255 ], [ -46.679866, -23.524383 ] ] ] } },
{ "type": "Feature", "properties": { "CD_SETOR": "355030806000051", "faces": 1, "pavimentada": 100.0, "bueiro": 100.0, "iluminacao": 100.0, "onibus": 100.0, "ciclovia": 0.0, "calcada": 100.0, "obstaculo": 0.0, "rampa": 100.0, "rampa_faces": 100.0, "sem_calcada": 0.0, "sem_arvore": 0.0, "muitas_arvores": 100.0, "vao": 0.0, "V05400": 1, "V05421": 1, "V05406": 1, "V05412": 1, "V05422": 0, "V05424": 0, "V05427": 1, "V05409": 1, "V05415": 1, "V05418": 0, "V05430": 0, "V05433": 1, "criancas_0a4": 14, "em_favela": false }, "geometry": { "type": "Polygon", "coordinates": [ [ [ -46.679629, -23.525592 ], [ -46.679989, -23.525545 ], [ -46.679895, -23.525025 ], [ -46.679959, -23.525018 ], [ -46.679866, -23.524383 ], [ -46.679411, -23.524575 ], [ -46.679629, -23.525592 ] ] ] } },
{ "type": "Feature", "properties": { "CD_SETOR": "355030806000052", "faces": 21, "pavimentada": 100.0, "bueiro": 61.9, "iluminacao": 100.0, "onibus": 19.05, "ciclovia": 9.52, "calcada": 95.24, "obstaculo": 35.0, "rampa": 60.0, "rampa_faces": 57.14, "sem_calcada": 4.76, "sem_arvore": 42.86, "muitas_arvores": 19.05, "vao": 42.86, "V05400": 21, "V05421": 20, "V05406": 21, "V05412": 21, "V05422": 1, "V05424": 7, "V05427": 12, "V05409": 13, "V05415": 4, "V05418": 2, "V05430": 9, "V05433": 4, "criancas_0a4": 18, "em_favela": false }, "geometry": { "type": "Polygon", "coordinates": [ [ [ -46.687838, -23.521451 ], [ -46.685374, -23.521609 ], [ -46.684499, -23.521826 ], [ -46.683453, -23.522285 ], [ -46.680355, -23.523864 ], [ -46.681484, -23.525264 ], [ -46.682264, -23.526348 ], [ -46.682305, -23.526314 ], [ -46.682456, -23.525255 ], [ -46.682533, -23.525002 ], [ -46.682965, -23.52468 ], [ -46.683609, -23.524312 ], [ -46.684723, -23.523931 ], [ -46.684436, -23.523299 ], [ -46.683765, -23.523568 ], [ -46.683598, -23.523158 ], [ -46.682109, -23.523869 ], [ -46.681723, -23.523371 ], [ -46.682493, -23.523006 ], [ -46.683485, -23.522744 ], [ -46.684094, -23.522644 ], [ -46.685661, -23.522547 ], [ -46.685674, -23.522708 ], [ -46.685907, -23.522696 ], [ -46.686172, -23.522899 ], [ -46.68668, -23.522518 ], [ -46.686889, -23.52225 ], [ -46.687285, -23.521879 ], [ -46.687555, -23.521642 ], [ -46.687775, -23.521555 ], [ -46.687838, -23.521451 ] ] ] } },
{ "type": "Feature", "properties": { "CD_SETOR": "355030806000053", "faces": 1, "pavimentada": 100.0, "bueiro": 100.0, "iluminacao": 100.0, "onibus": 0.0, "ciclovia": 0.0, "calcada": 100.0, "obstaculo": 0.0, "rampa": 100.0, "rampa_faces": 100.0, "sem_calcada": 0.0, "sem_arvore": 0.0, "muitas_arvores": 100.0, "vao": 0.0, "V05400": 1, "V05421": 1, "V05406": 1, "V05412": 1, "V05422": 0, "V05424": 0, "V05427": 1, "V05409": 1, "V05415": 0, "V05418": 0, "V05430": 0, "V05433": 1, "criancas_0a4": 16, "em_favela": false }, "geometry": { "type": "Polygon", "coordinates": [ [ [ -46.685447, -23.523165 ], [ -46.684733, -23.523202 ], [ -46.685222, -23.5237 ], [ -46.685628, -23.52336 ], [ -46.685447, -23.523165 ] ] ] } },
{ "type": "Feature", "properties": { "CD_SETOR": "355030806000054", "faces": 2, "pavimentada": 100.0, "bueiro": 100.0, "iluminacao": 100.0, "onibus": 0.0, "ciclovia": 0.0, "calcada": 100.0, "obstaculo": 0.0, "rampa": 0.0, "rampa_faces": 0.0, "sem_calcada": 0.0, "sem_arvore": 0.0, "muitas_arvores": 0.0, "vao": 100.0, "V05400": 2, "V05421": 2, "V05406": 2, "V05412": 2, "V05422": 0, "V05424": 0, "V05427": 0, "V05409": 2, "V05415": 0, "V05418": 0, "V05430": 0, "V05433": 0, "criancas_0a4": 14, "em_favela": false }, "geometry": { "type": "Polygon", "coordinates": [ [ [ -46.684436, -23.523299 ], [ -46.684723, -23.523931 ], [ -46.685091, -23.52381 ], [ -46.685222, -23.5237 ], [ -46.684733, -23.523202 ], [ -46.684632, -23.52319 ], [ -46.684436, -23.523299 ] ] ] } },
{ "type": "Feature", "properties": { "CD_SETOR": "355030806000055", "faces": 1, "pavimentada": 100.0, "bueiro": 0.0, "iluminacao": 100.0, "onibus": 0.0, "ciclovia": 0.0, "calcada": 100.0, "obstaculo": 0.0, "rampa": 0.0, "rampa_faces": 0.0, "sem_calcada": 0.0, "sem_arvore": 0.0, "muitas_arvores": 0.0, "vao": 100.0, "V05400": 1, "V05421": 1, "V05406": 1, "V05412": 1, "V05422": 0, "V05424": 0, "V05427": 0, "V05409": 0, "V05415": 0, "V05418": 0, "V05430": 0, "V05433": 0, "criancas_0a4": 30, "em_favela": false }, "geometry": { "type": "Polygon", "coordinates": [ [ [ -46.683546, -23.523028 ], [ -46.683765, -23.523568 ], [ -46.684228, -23.523405 ], [ -46.684005, -23.522889 ], [ -46.683546, -23.523028 ] ] ] } },
{ "type": "Feature", "properties": { "CD_SETOR": "355030806000056", "faces": 2, "pavimentada": 100.0, "bueiro": 100.0, "iluminacao": 100.0, "onibus": 0.0, "ciclovia": 0.0, "calcada": 100.0, "obstaculo": 0.0, "rampa": 0.0, "rampa_faces": 0.0, "sem_calcada": 0.0, "sem_arvore": 0.0, "muitas_arvores": 50.0, "vao": 100.0, "V05400": 2, "V05421": 2, "V05406": 2, "V05412": 2, "V05422": 0, "V05424": 0, "V05427": 0, "V05409": 2, "V05415": 0, "V05418": 0, "V05430": 0, "V05433": 1, "criancas_0a4": 20, "em_favela": false }, "geometry": { "type": "Polygon", "coordinates": [ [ [ -46.683439, -23.522756 ], [ -46.683496, -23.522901 ], [ -46.683977, -23.522777 ], [ -46.685005, -23.522737 ], [ -46.685021, -23.523187 ], [ -46.685447, -23.523165 ], [ -46.685628, -23.52336 ], [ -46.686172, -23.522899 ], [ -46.685907, -23.522696 ], [ -46.685674, -23.522708 ], [ -46.685661, -23.522547 ], [ -46.684094, -23.522644 ], [ -46.683439, -23.522756 ] ] ] } },
{ "type": "Feature", "properties": { "CD_SETOR": "355030806000057", "faces": 1, "pavimentada": 100.0, "bueiro": 100.0, "iluminacao": 100.0, "onibus": 0.0, "ciclovia": 0.0, "calcada": 100.0, "obstaculo": 0.0, "rampa": 0.0, "rampa_faces": 0.0, "sem_calcada": 0.0, "sem_arvore": 0.0, "muitas_arvores": 0.0, "vao": 100.0, "V05400": 1, "V05421": 1, "V05406": 1, "V05412": 1, "V05422": 0, "V05424": 0, "V05427": 0, "V05409": 1, "V05415": 0, "V05418": 0, "V05430": 0, "V05433": 0, "criancas_0a4": 25, "em_favela": false }, "geometry": { "type": "Polygon", "coordinates": [ [ [ -46.683496, -23.522901 ], [ -46.683546, -23.523028 ], [ -46.684005, -23.522889 ], [ -46.68422, -23.523385 ], [ -46.684632, -23.52319 ], [ -46.685021, -23.523187 ], [ -46.685005, -23.522737 ], [ -46.683977, -23.522777 ], [ -46.683496, -23.522901 ] ] ] } },
{ "type": "Feature", "properties": { "CD_SETOR": "355030806000058", "faces": 1, "pavimentada": 100.0, "bueiro": 100.0, "iluminacao": 100.0, "onibus": 0.0, "ciclovia": 0.0, "calcada": 100.0, "obstaculo": 0.0, "rampa": 0.0, "rampa_faces": 0.0, "sem_calcada": 0.0, "sem_arvore": 100.0, "muitas_arvores": 0.0, "vao": 100.0, "V05400": 1, "V05421": 1, "V05406": 1, "V05412": 1, "V05422": 0, "V05424": 0, "V05427": 0, "V05409": 1, "V05415": 0, "V05418": 0, "V05430": 1, "V05433": 0, "criancas_0a4": 19, "em_favela": false }, "geometry": { "type": "Polygon", "coordinates": [ [ [ -46.688049, -23.512472 ], [ -46.687719, -23.513158 ], [ -46.688003, -23.513278 ], [ -46.688303, -23.512676 ], [ -46.689337, -23.51312 ], [ -46.689373, -23.513132 ], [ -46.689409, -23.513058 ], [ -46.688049, -23.512472 ] ] ] } },
{ "type": "Feature", "properties": { "CD_SETOR": "355030806000059", "faces": 1, "pavimentada": 100.0, "bueiro": 100.0, "iluminacao": 100.0, "onibus": 0.0, "ciclovia": 0.0, "calcada": 100.0, "obstaculo": 0.0, "rampa": 0.0, "rampa_faces": 0.0, "sem_calcada": 0.0, "sem_arvore": 100.0, "muitas_arvores": 0.0, "vao": 100.0, "V05400": 1, "V05421": 1, "V05406": 1, "V05412": 1, "V05422": 0, "V05424": 0, "V05427": 0, "V05409": 1, "V05415": 0, "V05418": 0, "V05430": 1, "V05433": 0, "criancas_0a4": 0, "em_favela": false }, "geometry": { "type": "Polygon", "coordinates": [ [ [ -46.688003, -23.513278 ], [ -46.688283, -23.513396 ], [ -46.688541, -23.512873 ], [ -46.68933, -23.513219 ], [ -46.689373, -23.513132 ], [ -46.688303, -23.512676 ], [ -46.688003, -23.513278 ] ] ] } },
{ "type": "Feature", "properties": { "CD_SETOR": "355030806000060", "faces": 1, "pavimentada": 100.0, "bueiro": 100.0, "iluminacao": 100.0, "onibus": 0.0, "ciclovia": 0.0, "calcada": 100.0, "obstaculo": 0.0, "rampa": 0.0, "rampa_faces": 0.0, "sem_calcada": 0.0, "sem_arvore": 0.0, "muitas_arvores": 0.0, "vao": 100.0, "V05400": 1, "V05421": 1, "V05406": 1, "V05412": 1, "V05422": 0, "V05424": 0, "V05427": 0, "V05409": 1, "V05415": 0, "V05418": 0, "V05430": 0, "V05433": 0, "criancas_0a4": 40, "em_favela": false }, "geometry": { "type": "Polygon", "coordinates": [ [ [ -46.688283, -23.513396 ], [ -46.68909, -23.513708 ], [ -46.68933, -23.513219 ], [ -46.688541, -23.512873 ], [ -46.688283, -23.513396 ] ] ] } },
{ "type": "Feature", "properties": { "CD_SETOR": "355030806000061", "faces": 1, "pavimentada": 100.0, "bueiro": 100.0, "iluminacao": 100.0, "onibus": 0.0, "ciclovia": 0.0, "calcada": 100.0, "obstaculo": 0.0, "rampa": 0.0, "rampa_faces": 0.0, "sem_calcada": 0.0, "sem_arvore": 100.0, "muitas_arvores": 0.0, "vao": 100.0, "V05400": 1, "V05421": 1, "V05406": 1, "V05412": 1, "V05422": 0, "V05424": 0, "V05427": 0, "V05409": 1, "V05415": 0, "V05418": 0, "V05430": 1, "V05433": 0, "criancas_0a4": 7, "em_favela": false }, "geometry": { "type": "Polygon", "coordinates": [ [ [ -46.688, -23.513797 ], [ -46.688378, -23.513951 ], [ -46.688557, -23.513574 ], [ -46.689065, -23.513759 ], [ -46.688174, -23.513419 ], [ -46.688, -23.513797 ] ] ] } },
{ "type": "Feature", "properties": { "CD_SETOR": "355030806000062", "faces": 1, "pavimentada": 100.0, "bueiro": 100.0, "iluminacao": 100.0, "onibus": 0.0, "ciclovia": 0.0, "calcada": 100.0, "obstaculo": 0.0, "rampa": 100.0, "rampa_faces": 100.0, "sem_calcada": 0.0, "sem_arvore": 100.0, "muitas_arvores": 0.0, "vao": 0.0, "V05400": 1, "V05421": 1, "V05406": 1, "V05412": 1, "V05422": 0, "V05424": 0, "V05427": 1, "V05409": 1, "V05415": 0, "V05418": 0, "V05430": 1, "V05433": 0, "criancas_0a4": 11, "em_favela": false }, "geometry": { "type": "Polygon", "coordinates": [ [ [ -46.687741, -23.513692 ], [ -46.688, -23.513797 ], [ -46.688174, -23.513419 ], [ -46.689077, -23.513734 ], [ -46.687945, -23.513289 ], [ -46.687741, -23.513692 ] ] ] } },
{ "type": "Feature", "properties": { "CD_SETOR": "355030806000063", "faces": 1, "pavimentada": 100.0, "bueiro": 100.0, "iluminacao": 100.0, "onibus": 0.0, "ciclovia": 0.0, "calcada": 100.0, "obstaculo": 0.0, "rampa": 100.0, "rampa_faces": 100.0, "sem_calcada": 0.0, "sem_arvore": 100.0, "muitas_arvores": 0.0, "vao": 0.0, "V05400": 1, "V05421": 1, "V05406": 1, "V05412": 1, "V05422": 0, "V05424": 0, "V05427": 1, "V05409": 1, "V05415": 0, "V05418": 0, "V05430": 1, "V05433": 0, "criancas_0a4": 0, "em_favela": false }, "geometry": { "type": "Polygon", "coordinates": [ [ [ -46.687719, -23.513158 ], [ -46.687508, -23.513597 ], [ -46.687741, -23.513692 ], [ -46.687945, -23.513289 ], [ -46.688457, -23.513511 ], [ -46.688473, -23.513478 ], [ -46.689077, -23.513734 ], [ -46.68909, -23.513708 ], [ -46.687719, -23.513158 ] ] ] } },
{ "type": "Feature", "properties": { "CD_SETOR": "355030806000064", "faces": 35, "pavimentada": 91.43, "bueiro": 85.71, "iluminacao": 94.29, "onibus": 17.14, "ciclovia": 11.43, "calcada": 91.43, "obstaculo": 34.38, "rampa": 12.5, "rampa_faces": 11.43, "sem_calcada": 8.57, "sem_arvore": 17.14, "muitas_arvores": 71.43, "vao": 80.0, "V05400": 35, "V05421": 32, "V05406": 32, "V05412": 33, "V05422": 3, "V05424": 11, "V05427": 4, "V05409": 30, "V05415": 6, "V05418": 4, "V05430": 6, "V05433": 25, "criancas_0a4": 0, "em_favela": false }, "geometry": { "type": "Polygon", "coordinates": [ [ [ -46.693467, -23.508283 ], [ -46.684807, -23.509945 ], [ -46.68376, -23.510218 ], [ -46.683265, -23.510407 ], [ -46.682111, -23.511033 ], [ -46.680043, -23.512642 ], [ -46.67959, -23.512962 ], [ -46.679001, -23.513271 ], [ -46.679152, -23.517033 ], [ -46.679384, -23.517666 ], [ -46.68034, -23.517669 ], [ -46.686628, -23.515941 ], [ -46.686537, -23.514363 ], [ -46.686578, -23.51431 ], [ -46.686523, -23.514284 ], [ -46.686199, -23.51438 ], [ -46.686231, -23.513861 ], [ -46.686071, -23.511807 ], [ -46.686521, -23.511626 ], [ -46.686634, -23.511608 ], [ -46.686652, -23.511995 ], [ -46.687111, -23.511974 ], [ -46.687248, -23.512135 ], [ -46.689409, -23.513058 ], [ -46.688242, -23.515484 ], [ -46.690043, -23.51501 ], [ -46.690833, -23.514972 ], [ -46.691259, -23.515092 ], [ -46.692403, -23.513281 ], [ -46.692588, -23.512779 ], [ -46.692637, -23.512069 ], [ -46.692908, -23.511626 ], [ -46.692571, -23.511451 ], [ -46.69182, -23.511235 ], [ -46.692128, -23.510468 ], [ -46.693257, -23.511064 ], [ -46.693658, -23.510417 ], [ -46.69369, -23.510145 ], [ -46.693605, -23.509744 ], [ -46.693645, -23.50916 ], [ -46.693467, -23.508283 ] ] ] } },
{ "type": "Feature", "properties": { "CD_SETOR": "355030806000065", "faces": 2, "pavimentada": 100.0, "bueiro": 100.0, "iluminacao": 100.0, "onibus": 0.0, "ciclovia": 50.0, "calcada": 100.0, "obstaculo": 0.0, "rampa": 50.0, "rampa_faces": 50.0, "sem_calcada": 0.0, "sem_arvore": 50.0, "muitas_arvores": 0.0, "vao": 50.0, "V05400": 2, "V05421": 2, "V05406": 2, "V05412": 2, "V05422": 0, "V05424": 0, "V05427": 1, "V05409": 2, "V05415": 0, "V05418": 1, "V05430": 1, "V05433": 0, "criancas_0a4": 47, "em_favela": false }, "geometry": { "type": "Polygon", "coordinates": [ [ [ -46.68803, -23.515552 ], [ -46.688242, -23.515484 ], [ -46.68852, -23.514901 ], [ -46.687734, -23.514579 ], [ -46.687418, -23.515231 ], [ -46.687999, -23.515461 ], [ -46.68803, -23.515552 ] ] ] } },
{ "type": "Feature", "properties": { "CD_SETOR": "355030806000066", "faces": 1, "pavimentada": 100.0, "bueiro": 100.0, "iluminacao": 100.0, "onibus": 0.0, "ciclovia": 100.0, "calcada": 100.0, "obstaculo": 0.0, "rampa": 100.0, "rampa_faces": 100.0, "sem_calcada": 0.0, "sem_arvore": 0.0, "muitas_arvores": 0.0, "vao": 0.0, "V05400": 1, "V05421": 1, "V05406": 1, "V05412": 1, "V05422": 0, "V05424": 0, "V05427": 1, "V05409": 1, "V05415": 0, "V05418": 1, "V05430": 0, "V05433": 0, "criancas_0a4": 28, "em_favela": false }, "geometry": { "type": "Polygon", "coordinates": [ [ [ -46.686786, -23.51507 ], [ -46.687945, -23.51558 ], [ -46.68799, -23.515564 ], [ -46.687964, -23.515501 ], [ -46.687358, -23.515256 ], [ -46.687512, -23.51494 ], [ -46.686962, -23.514719 ], [ -46.686786, -23.51507 ] ] ] } },
{ "type": "Feature", "properties": { "CD_SETOR": "355030806000067", "faces": 1, "pavimentada": 100.0, "bueiro": 100.0, "iluminacao": 100.0, "onibus": 0.0, "ciclovia": 100.0, "calcada": 100.0, "obstaculo": 0.0, "rampa": 100.0, "rampa_faces": 100.0, "sem_calcada": 0.0, "sem_arvore": 0.0, "muitas_arvores": 0.0, "vao": 0.0, "V05400": 1, "V05421": 1, "V05406": 1, "V05412": 1, "V05422": 0, "V05424": 0, "V05427": 1, "V05409": 1, "V05415": 0, "V05418": 1, "V05430": 0, "V05433": 0, "criancas_0a4": 17, "em_favela": false }, "geometry": { "type": "Polygon", "coordinates": [ [ [ -46.687152, -23.51434 ], [ -46.686962, -23.514719 ], [ -46.687512, -23.51494 ], [ -46.687358, -23.515256 ], [ -46.68803, -23.515552 ], [ -46.687999, -23.515461 ], [ -46.687418, -23.515231 ], [ -46.687734, -23.514579 ], [ -46.687152, -23.51434 ] ] ] } },
{ "type": "Feature", "properties": { "CD_SETOR": "355030806000068", "faces": 1, "pavimentada": 100.0, "bueiro": 100.0, "iluminacao": 100.0, "onibus": 0.0, "ciclovia": 0.0, "calcada": 100.0, "obstaculo": 0.0, "rampa": 100.0, "rampa_faces": 100.0, "sem_calcada": 0.0, "sem_arvore": 0.0, "muitas_arvores": 0.0, "vao": 0.0, "V05400": 1, "V05421": 1, "V05406": 1, "V05412": 1, "V05422": 0, "V05424": 0, "V05427": 1, "V05409": 1, "V05415": 0, "V05418": 0, "V05430": 0, "V05433": 0, "criancas_0a4": 13, "em_favela": false }, "geometry": { "type": "Polygon", "coordinates": [ [ [ -46.693076, -23.51135 ], [ -46.693257, -23.511064 ], [ -46.692942, -23.510899 ], [ -46.692758, -23.511192 ], [ -46.693076, -23.51135 ] ] ] } },
{ "type": "Feature", "properties": { "CD_SETOR": "355030806000069", "faces": 1, "pavimentada": 100.0, "bueiro": 100.0, "iluminacao": 100.0, "onibus": 0.0, "ciclovia": 0.0, "calcada": 100.0, "obstaculo": 0.0, "rampa": 100.0, "rampa_faces": 100.0, "sem_calcada": 0.0, "sem_arvore": 0.0, "muitas_arvores": 0.0, "vao": 0.0, "V05400": 1, "V05421": 1, "V05406": 1, "V05412": 1, "V05422": 0, "V05424": 0, "V05427": 1, "V05409": 1, "V05415": 0, "V05418": 0, "V05430": 0, "V05433": 0, "criancas_0a4": 18, "em_favela": false }, "geometry": { "type": "Polygon", "coordinates": [ [ [ -46.692981, -23.511507 ], [ -46.693076, -23.51135 ], [ -46.692758, -23.511192 ], [ -46.692942, -23.510899 ], [ -46.692592, -23.510714 ], [ -46.692312, -23.51122 ], [ -46.692981, -23.511507 ] ] ] } },
{ "type": "Feature", "properties": { "CD_SETOR": "355030806000070", "faces": 1, "pavimentada": 100.0, "bueiro": 100.0, "iluminacao": 100.0, "onibus": 0.0, "ciclovia": 0.0, "calcada": 100.0, "obstaculo": 0.0, "rampa": 100.0, "rampa_faces": 100.0, "sem_calcada": 0.0, "sem_arvore": 0.0, "muitas_arvores": 0.0, "vao": 0.0, "V05400": 1, "V05421": 1, "V05406": 1, "V05412": 1, "V05422": 0, "V05424": 0, "V05427": 1, "V05409": 1, "V05415": 0, "V05418": 0, "V05430": 0, "V05433": 0, "criancas_0a4": 17, "em_favela": false }, "geometry": { "type": "Polygon", "coordinates": [ [ [ -46.692908, -23.511626 ], [ -46.692981, -23.511507 ], [ -46.692312, -23.51122 ], [ -46.692592, -23.510714 ], [ -46.692128, -23.510468 ], [ -46.69182, -23.511235 ], [ -46.692571, -23.511451 ], [ -46.692908, -23.511626 ] ] ] } },
{ "type": "Feature", "properties": { "CD_SETOR": "355030806000071", "faces": 1, "pavimentada": 100.0, "bueiro": 100.0, "iluminacao": 100.0, "onibus": 0.0, "ciclovia": 0.0, "calcada": 100.0, "obstaculo": 0.0, "rampa": 0.0, "rampa_faces": 0.0, "sem_calcada": 0.0, "sem_arvore": 0.0, "muitas_arvores": 0.0, "vao": 100.0, "V05400": 1, "V05421": 1, "V05406": 1, "V05412": 1, "V05422": 0, "V05424": 0, "V05427": 0, "V05409": 1, "V05415": 0, "V05418": 0, "V05430": 0, "V05433": 0, "criancas_0a4": 7, "em_favela": false }, "geometry": { "type": "Polygon", "coordinates": [ [ [ -46.665497, -23.530181 ], [ -46.665284, -23.53036 ], [ -46.665621, -23.530902 ], [ -46.665875, -23.530762 ], [ -46.665497, -23.530181 ] ] ] } },
{ "type": "Feature", "properties": { "CD_SETOR": "355030806000072", "faces": 2, "pavimentada": 100.0, "bueiro": 0.0, "iluminacao": 100.0, "onibus": 0.0, "ciclovia": 0.0, "calcada": 100.0, "obstaculo": 0.0, "rampa": 0.0, "rampa_faces": 0.0, "sem_calcada": 0.0, "sem_arvore": 50.0, "muitas_arvores": 0.0, "vao": 100.0, "V05400": 2, "V05421": 2, "V05406": 2, "V05412": 2, "V05422": 0, "V05424": 0, "V05427": 0, "V05409": 0, "V05415": 0, "V05418": 0, "V05430": 1, "V05433": 0, "criancas_0a4": 3, "em_favela": false }, "geometry": { "type": "Polygon", "coordinates": [ [ [ -46.66393, -23.530961 ], [ -46.663342, -23.531422 ], [ -46.663724, -23.531921 ], [ -46.665176, -23.53118 ], [ -46.664799, -23.530564 ], [ -46.664246, -23.530921 ], [ -46.664218, -23.53088 ], [ -46.664135, -23.530929 ], [ -46.664211, -23.53104 ], [ -46.664081, -23.531111 ], [ -46.66393, -23.530961 ] ] ] } },
{ "type": "Feature", "properties": { "CD_SETOR": "355030806000073", "faces": 6, "pavimentada": 100.0, "bueiro": 0.0, "iluminacao": 100.0, "onibus": 0.0, "ciclovia": 0.0, "calcada": 100.0, "obstaculo": 50.0, "rampa": 0.0, "rampa_faces": 0.0, "sem_calcada": 0.0, "sem_arvore": 0.0, "muitas_arvores": 50.0, "vao": 100.0, "V05400": 6, "V05421": 6, "V05406": 6, "V05412": 6, "V05422": 0, "V05424": 3, "V05427": 0, "V05409": 0, "V05415": 0, "V05418": 0, "V05430": 0, "V05433": 3, "criancas_0a4": 16, "em_favela": false }, "geometry": { "type": "Polygon", "coordinates": [ [ [ -46.664951, -23.529611 ], [ -46.663678, -23.530567 ], [ -46.663889, -23.530879 ], [ -46.663865, -23.5309 ], [ -46.664081, -23.531111 ], [ -46.664211, -23.53104 ], [ -46.664135, -23.530929 ], [ -46.664218, -23.53088 ], [ -46.664246, -23.530921 ], [ -46.664799, -23.530564 ], [ -46.665176, -23.53118 ], [ -46.665621, -23.530902 ], [ -46.665284, -23.53036 ], [ -46.665412, -23.530286 ], [ -46.665358, -23.530263 ], [ -46.664951, -23.529611 ] ] ] } },
{ "type": "Feature", "properties": { "CD_SETOR": "355030806000074", "faces": 1, "pavimentada": 100.0, "bueiro": 0.0, "iluminacao": 100.0, "onibus": 0.0, "ciclovia": 0.0, "calcada": 100.0, "obstaculo": 0.0, "rampa": 0.0, "rampa_faces": 0.0, "sem_calcada": 0.0, "sem_arvore": 0.0, "muitas_arvores": 0.0, "vao": 100.0, "V05400": 1, "V05421": 1, "V05406": 1, "V05412": 1, "V05422": 0, "V05424": 0, "V05427": 0, "V05409": 0, "V05415": 0, "V05418": 0, "V05430": 0, "V05433": 0, "criancas_0a4": 15, "em_favela": false }, "geometry": { "type": "Polygon", "coordinates": [ [ [ -46.66527, -23.529376 ], [ -46.664951, -23.529611 ], [ -46.665358, -23.530263 ], [ -46.665497, -23.530181 ], [ -46.665453, -23.530108 ], [ -46.665661, -23.529984 ], [ -46.66527, -23.529376 ] ] ] } },
{ "type": "Feature", "properties": { "CD_SETOR": "355030806000075", "faces": 9, "pavimentada": 100.0, "bueiro": 88.89, "iluminacao": 100.0, "onibus": 44.44, "ciclovia": 33.33, "calcada": 100.0, "obstaculo": 0.0, "rampa": 100.0, "rampa_faces": 100.0, "sem_calcada": 0.0, "sem_arvore": 22.22, "muitas_arvores": 33.33, "vao": 0.0, "V05400": 9, "V05421": 9, "V05406": 9, "V05412": 9, "V05422": 0, "V05424": 0, "V05427": 9, "V05409": 8, "V05415": 4, "V05418": 3, "V05430": 2, "V05433": 3, "criancas_0a4": 14, "em_favela": false }, "geometry": { "type": "Polygon", "coordinates": [ [ [ -46.667267, -23.529994 ], [ -46.665336, -23.531076 ], [ -46.665536, -23.531088 ], [ -46.665693, -23.531315 ], [ -46.666062, -23.531117 ], [ -46.666101, -23.531187 ], [ -46.66622, -23.531124 ], [ -46.666322, -23.531287 ], [ -46.665839, -23.531541 ], [ -46.666127, -23.531991 ], [ -46.667901, -23.531015 ], [ -46.667267, -23.529994 ] ] ] } },
{ "type": "Feature", "properties": { "CD_SETOR": "355030806000076", "faces": 1, "pavimentada": 100.0, "bueiro": 100.0, "iluminacao": 100.0, "onibus": 0.0, "ciclovia": 0.0, "calcada": 100.0, "obstaculo": 0.0, "rampa": 0.0, "rampa_faces": 0.0, "sem_calcada": 0.0, "sem_arvore": 0.0, "muitas_arvores": 0.0, "vao": 100.0, "V05400": 1, "V05421": 1, "V05406": 1, "V05412": 1, "V05422": 0, "V05424": 0, "V05427": 0, "V05409": 1, "V05415": 0, "V05418": 0, "V05430": 0, "V05433": 0, "criancas_0a4": 0, "em_favela": false }, "geometry": { "type": "Polygon", "coordinates": [ [ [ -46.665693, -23.531315 ], [ -46.665839, -23.531541 ], [ -46.666322, -23.531287 ], [ -46.66622, -23.531124 ], [ -46.666101, -23.531187 ], [ -46.666062, -23.531117 ], [ -46.665693, -23.531315 ] ] ] } },
{ "type": "Feature", "properties": { "CD_SETOR": "355030806000077", "faces": 8, "pavimentada": 100.0, "bueiro": 87.5, "iluminacao": 100.0, "onibus": 37.5, "ciclovia": 12.5, "calcada": 100.0, "obstaculo": 12.5, "rampa": 100.0, "rampa_faces": 100.0, "sem_calcada": 0.0, "sem_arvore": 12.5, "muitas_arvores": 62.5, "vao": 0.0, "V05400": 8, "V05421": 8, "V05406": 8, "V05412": 8, "V05422": 0, "V05424": 1, "V05427": 8, "V05409": 7, "V05415": 3, "V05418": 1, "V05430": 1, "V05433": 5, "criancas_0a4": 0, "em_favela": false }, "geometry": { "type": "Polygon", "coordinates": [ [ [ -46.667267, -23.529994 ], [ -46.66919, -23.533003 ], [ -46.67288, -23.532284 ], [ -46.673634, -23.531816 ], [ -46.671032, -23.527913 ], [ -46.667267, -23.529994 ] ] ] } },
{ "type": "Feature", "properties": { "CD_SETOR": "355030806000078", "faces": 3, "pavimentada": 100.0, "bueiro": 66.67, "iluminacao": 100.0, "onibus": 33.33, "ciclovia": 33.33, "calcada": 100.0, "obstaculo": 66.67, "rampa": 100.0, "rampa_faces": 100.0, "sem_calcada": 0.0, "sem_arvore": 0.0, "muitas_arvores": 0.0, "vao": 0.0, "V05400": 3, "V05421": 3, "V05406": 3, "V05412": 3, "V05422": 0, "V05424": 2, "V05427": 3, "V05409": 2, "V05415": 1, "V05418": 1, "V05430": 0, "V05433": 0, "criancas_0a4": 4, "em_favela": false }, "geometry": { "type": "Polygon", "coordinates": [ [ [ -46.668171, -23.532301 ], [ -46.668317, -23.532552 ], [ -46.667847, -23.532781 ], [ -46.668126, -23.533222 ], [ -46.66919, -23.533003 ], [ -46.66859, -23.53208 ], [ -46.668171, -23.532301 ] ] ] } },
{ "type": "Feature", "properties": { "CD_SETOR": "355030806000079", "faces": 2, "pavimentada": 100.0, "bueiro": 50.0, "iluminacao": 100.0, "onibus": 0.0, "ciclovia": 50.0, "calcada": 100.0, "obstaculo": 100.0, "rampa": 100.0, "rampa_faces": 100.0, "sem_calcada": 0.0, "sem_arvore": 50.0, "muitas_arvores": 50.0, "vao": 0.0, "V05400": 2, "V05421": 2, "V05406": 2, "V05412": 2, "V05422": 0, "V05424": 2, "V05427": 2, "V05409": 1, "V05415": 0, "V05418": 1, "V05430": 1, "V05433": 1, "criancas_0a4": 18, "em_favela": false }, "geometry": { "type": "Polygon", "coordinates": [ [ [ -46.667029, -23.531496 ], [ -46.667847, -23.532781 ], [ -46.668317, -23.532552 ], [ -46.667991, -23.532003 ], [ -46.667894, -23.532057 ], [ -46.667761, -23.531821 ], [ -46.667838, -23.531779 ], [ -46.667751, -23.531631 ], [ -46.667462, -23.531779 ], [ -46.667226, -23.531388 ], [ -46.667029, -23.531496 ] ] ] } },
{ "type": "Feature", "properties": { "CD_SETOR": "355030806000080", "faces": 1, "pavimentada": 100.0, "bueiro": 100.0, "iluminacao": 100.0, "onibus": 100.0, "ciclovia": 100.0, "calcada": 100.0, "obstaculo": 0.0, "rampa": 0.0, "rampa_faces": 0.0, "sem_calcada": 0.0, "sem_arvore": 0.0, "muitas_arvores": 0.0, "vao": 100.0, "V05400": 1, "V05421": 1, "V05406": 1, "V05412": 1, "V05422": 0, "V05424": 0, "V05427": 0, "V05409": 1, "V05415": 1, "V05418": 1, "V05430": 0, "V05433": 0, "criancas_0a4": 3, "em_favela": false }, "geometry": { "type": "Polygon", "coordinates": [ [ [ -46.667786, -23.531688 ], [ -46.667838, -23.531779 ], [ -46.667761, -23.531821 ], [ -46.667894, -23.532057 ], [ -46.667991, -23.532003 ], [ -46.668171, -23.532301 ], [ -46.66859, -23.53208 ], [ -46.668196, -23.531472 ], [ -46.667786, -23.531688 ] ] ] } },
{ "type": "Feature", "properties": { "CD_SETOR": "355030806000081", "faces": 2, "pavimentada": 100.0, "bueiro": 100.0, "iluminacao": 100.0, "onibus": 50.0, "ciclovia": 100.0, "calcada": 100.0, "obstaculo": 100.0, "rampa": 100.0, "rampa_faces": 100.0, "sem_calcada": 0.0, "sem_arvore": 0.0, "muitas_arvores": 100.0, "vao": 0.0, "V05400": 2, "V05421": 2, "V05406": 2, "V05412": 2, "V05422": 0, "V05424": 2, "V05427": 2, "V05409": 2, "V05415": 1, "V05418": 2, "V05430": 0, "V05433": 2, "criancas_0a4": 10, "em_favela": false }, "geometry": { "type": "Polygon", "coordinates": [ [ [ -46.667226, -23.531388 ], [ -46.667462, -23.531779 ], [ -46.667751, -23.531631 ], [ -46.667786, -23.531688 ], [ -46.668196, -23.531472 ], [ -46.667901, -23.531015 ], [ -46.667226, -23.531388 ] ] ] } },
{ "type": "Feature", "properties": { "CD_SETOR": "355030806000082", "faces": 5, "pavimentada": 100.0, "bueiro": 100.0, "iluminacao": 100.0, "onibus": 0.0, "ciclovia": 0.0, "calcada": 100.0, "obstaculo": 20.0, "rampa": 60.0, "rampa_faces": 60.0, "sem_calcada": 0.0, "sem_arvore": 0.0, "muitas_arvores": 80.0, "vao": 40.0, "V05400": 5, "V05421": 5, "V05406": 5, "V05412": 5, "V05422": 0, "V05424": 1, "V05427": 3, "V05409": 5, "V05415": 0, "V05418": 0, "V05430": 0, "V05433": 4, "criancas_0a4": 26, "em_favela": false }, "geometry": { "type": "Polygon", "coordinates": [ [ [ -46.67312, -23.529568 ], [ -46.674303, -23.528918 ], [ -46.673648, -23.527889 ], [ -46.672459, -23.528513 ], [ -46.67312, -23.529568 ] ] ] } },
{ "type": "Feature", "properties": { "CD_SETOR": "355030806000083", "faces": 4, "pavimentada": 100.0, "bueiro": 100.0, "iluminacao": 100.0, "onibus": 0.0, "ciclovia": 0.0, "calcada": 100.0, "obstaculo": 25.0, "rampa": 50.0, "rampa_faces": 50.0, "sem_calcada": 0.0, "sem_arvore": 0.0, "muitas_arvores": 50.0, "vao": 50.0, "V05400": 4, "V05421": 4, "V05406": 4, "V05412": 4, "V05422": 0, "V05424": 1, "V05427": 2, "V05409": 4, "V05415": 0, "V05418": 0, "V05430": 0, "V05433": 2, "criancas_0a4": 0, "em_favela": false }, "geometry": { "type": "Polygon", "coordinates": [ [ [ -46.673718, -23.529239 ], [ -46.674597, -23.530671 ], [ -46.675104, -23.530182 ], [ -46.674303, -23.528918 ], [ -46.673718, -23.529239 ] ] ] } },
{ "type": "Feature", "properties": { "CD_SETOR": "355030806000084", "faces": 8, "pavimentada": 100.0, "bueiro": 87.5, "iluminacao": 100.0, "onibus": 0.0, "ciclovia": 25.0, "calcada": 100.0, "obstaculo": 37.5, "rampa": 50.0, "rampa_faces": 50.0, "sem_calcada": 0.0, "sem_arvore": 37.5, "muitas_arvores": 37.5, "vao": 50.0, "V05400": 8, "V05421": 8, "V05406": 8, "V05412": 8, "V05422": 0, "V05424": 3, "V05427": 4, "V05409": 7, "V05415": 0, "V05418": 2, "V05430": 3, "V05433": 3, "criancas_0a4": 9, "em_favela": false }, "geometry": { "type": "Polygon", "coordinates": [ [ [ -46.673854, -23.528211 ], [ -46.674303, -23.528918 ], [ -46.675104, -23.530182 ], [ -46.675929, -23.528808 ], [ -46.676036, -23.528732 ], [ -46.675181, -23.528156 ], [ -46.674579, -23.527814 ], [ -46.673854, -23.528211 ] ] ] } },
{ "type": "Feature", "properties": { "CD_SETOR": "355030806000085", "faces": 9, "pavimentada": 100.0, "bueiro": 88.89, "iluminacao": 100.0, "onibus": 33.33, "ciclovia": 22.22, "calcada": 100.0, "obstaculo": 33.33, "rampa": 88.89, "rampa_faces": 88.89, "sem_calcada": 0.0, "sem_arvore": 33.33, "muitas_arvores": 55.56, "vao": 11.11, "V05400": 9, "V05421": 9, "V05406": 9, "V05412": 9, "V05422": 0, "V05424": 3, "V05427": 8, "V05409": 8, "V05415": 3, "V05418": 2, "V05430": 3, "V05433": 5, "criancas_0a4": 7, "em_favela": false }, "geometry": { "type": "Polygon", "coordinates": [ [ [ -46.663164, -23.532095 ], [ -46.663447, -23.532567 ], [ -46.66316, -23.532699 ], [ -46.662858, -23.532132 ], [ -46.662282, -23.532192 ], [ -46.662028, -23.532156 ], [ -46.662086, -23.532258 ], [ -46.661866, -23.532394 ], [ -46.66122, -23.532653 ], [ -46.661901, -23.534014 ], [ -46.664463, -23.532889 ], [ -46.663724, -23.531921 ], [ -46.663338, -23.532075 ], [ -46.663164, -23.532095 ] ] ] } },
{ "type": "Feature", "properties": { "CD_SETOR": "355030806000086", "faces": 1, "pavimentada": 100.0, "bueiro": 0.0, "iluminacao": 100.0, "onibus": 0.0, "ciclovia": 0.0, "calcada": 100.0, "obstaculo": 0.0, "rampa": 0.0, "rampa_faces": 0.0, "sem_calcada": 0.0, "sem_arvore": 100.0, "muitas_arvores": 0.0, "vao": 100.0, "V05400": 1, "V05421": 1, "V05406": 1, "V05412": 1, "V05422": 0, "V05424": 0, "V05427": 0, "V05409": 0, "V05415": 0, "V05418": 0, "V05430": 1, "V05433": 0, "criancas_0a4": 0, "em_favela": false }, "geometry": { "type": "Polygon", "coordinates": [ [ [ -46.662858, -23.532132 ], [ -46.66316, -23.532699 ], [ -46.663447, -23.532567 ], [ -46.663164, -23.532095 ], [ -46.662858, -23.532132 ] ] ] } },
{ "type": "Feature", "properties": { "CD_SETOR": "355030806000087", "faces": 5, "pavimentada": 100.0, "bueiro": 60.0, "iluminacao": 100.0, "onibus": 20.0, "ciclovia": 20.0, "calcada": 100.0, "obstaculo": 0.0, "rampa": 100.0, "rampa_faces": 100.0, "sem_calcada": 0.0, "sem_arvore": 40.0, "muitas_arvores": 0.0, "vao": 0.0, "V05400": 5, "V05421": 5, "V05406": 5, "V05412": 5, "V05422": 0, "V05424": 0, "V05427": 5, "V05409": 3, "V05415": 1, "V05418": 1, "V05430": 2, "V05433": 0, "criancas_0a4": 10, "em_favela": false }, "geometry": { "type": "Polygon", "coordinates": [ [ [ -46.665336, -23.531076 ], [ -46.664819, -23.531349 ], [ -46.665131, -23.531876 ], [ -46.664989, -23.531947 ], [ -46.664664, -23.531418 ], [ -46.663724, -23.531921 ], [ -46.664463, -23.532889 ], [ -46.666127, -23.531991 ], [ -46.665536, -23.531088 ], [ -46.665336, -23.531076 ] ] ] } },
{ "type": "Feature", "properties": { "CD_SETOR": "355030806000088", "faces": 1, "pavimentada": 100.0, "bueiro": 0.0, "iluminacao": 100.0, "onibus": 0.0, "ciclovia": 0.0, "calcada": 100.0, "obstaculo": 0.0, "rampa": 0.0, "rampa_faces": 0.0, "sem_calcada": 0.0, "sem_arvore": 0.0, "muitas_arvores": 0.0, "vao": 100.0, "V05400": 1, "V05421": 1, "V05406": 1, "V05412": 1, "V05422": 0, "V05424": 0, "V05427": 0, "V05409": 0, "V05415": 0, "V05418": 0, "V05430": 0, "V05433": 0, "criancas_0a4": 0, "em_favela": false }, "geometry": { "type": "Polygon", "coordinates": [ [ [ -46.664664, -23.531418 ], [ -46.664989, -23.531947 ], [ -46.665131, -23.531876 ], [ -46.664819, -23.531349 ], [ -46.664664, -23.531418 ] ] ] } },
{ "type": "Feature", "properties": { "CD_SETOR": "355030806000089", "faces": 4, "pavimentada": 100.0, "bueiro": 75.0, "iluminacao": 100.0, "onibus": 75.0, "ciclovia": 25.0, "calcada": 100.0, "obstaculo": 0.0, "rampa": 100.0, "rampa_faces": 100.0, "sem_calcada": 0.0, "sem_arvore": 0.0, "muitas_arvores": 50.0, "vao": 0.0, "V05400": 4, "V05421": 4, "V05406": 4, "V05412": 4, "V05422": 0, "V05424": 0, "V05427": 4, "V05409": 3, "V05415": 3, "V05418": 1, "V05430": 0, "V05433": 2, "criancas_0a4": 0, "em_favela": false }, "geometry": { "type": "Polygon", "coordinates": [ [ [ -46.664463, -23.532889 ], [ -46.665223, -23.533878 ], [ -46.665923, -23.533703 ], [ -46.665829, -23.533324 ], [ -46.66528, -23.532455 ], [ -46.664463, -23.532889 ] ] ] } },
{ "type": "Feature", "properties": { "CD_SETOR": "355030806000090", "faces": 4, "pavimentada": 100.0, "bueiro": 75.0, "iluminacao": 100.0, "onibus": 50.0, "ciclovia": 25.0, "calcada": 100.0, "obstaculo": 25.0, "rampa": 100.0, "rampa_faces": 100.0, "sem_calcada": 0.0, "sem_arvore": 0.0, "muitas_arvores": 50.0, "vao": 0.0, "V05400": 4, "V05421": 4, "V05406": 4, "V05412": 4, "V05422": 0, "V05424": 1, "V05427": 4, "V05409": 3, "V05415": 2, "V05418": 1, "V05430": 0, "V05433": 2, "criancas_0a4": 12, "em_favela": false }, "geometry": { "type": "Polygon", "coordinates": [ [ [ -46.66362, -23.533264 ], [ -46.664315, -23.534433 ], [ -46.665223, -23.533878 ], [ -46.664463, -23.532889 ], [ -46.66362, -23.533264 ] ] ] } },
{ "type": "Feature", "properties": { "CD_SETOR": "355030806000091", "faces": 5, "pavimentada": 100.0, "bueiro": 80.0, "iluminacao": 100.0, "onibus": 40.0, "ciclovia": 60.0, "calcada": 100.0, "obstaculo": 80.0, "rampa": 100.0, "rampa_faces": 100.0, "sem_calcada": 0.0, "sem_arvore": 0.0, "muitas_arvores": 60.0, "vao": 0.0, "V05400": 5, "V05421": 5, "V05406": 5, "V05412": 5, "V05422": 0, "V05424": 4, "V05427": 5, "V05409": 4, "V05415": 2, "V05418": 3, "V05430": 0, "V05433": 3, "criancas_0a4": 0, "em_favela": false }, "geometry": { "type": "Polygon", "coordinates": [ [ [ -46.66528, -23.532455 ], [ -46.665829, -23.533324 ], [ -46.665923, -23.533703 ], [ -46.667055, -23.533458 ], [ -46.666706, -23.532905 ], [ -46.666361, -23.533101 ], [ -46.666314, -23.53302 ], [ -46.666243, -23.533055 ], [ -46.66593, -23.532531 ], [ -46.66634, -23.532325 ], [ -46.666127, -23.531991 ], [ -46.66528, -23.532455 ] ] ] } },
{ "type": "Feature", "properties": { "CD_SETOR": "355030806000092", "faces": 1, "pavimentada": 100.0, "bueiro": 100.0, "iluminacao": 100.0, "onibus": 0.0, "ciclovia": 100.0, "calcada": 100.0, "obstaculo": 100.0, "rampa": 0.0, "rampa_faces": 0.0, "sem_calcada": 0.0, "sem_arvore": 0.0, "muitas_arvores": 100.0, "vao": 100.0, "V05400": 1, "V05421": 1, "V05406": 1, "V05412": 1, "V05422": 0, "V05424": 1, "V05427": 0, "V05409": 1, "V05415": 0, "V05418": 1, "V05430": 0, "V05433": 1, "criancas_0a4": 6, "em_favela": false }, "geometry": { "type": "Polygon", "coordinates": [ [ [ -46.666706, -23.532905 ], [ -46.66634, -23.532325 ], [ -46.66593, -23.532531 ], [ -46.666243, -23.533055 ], [ -46.666314, -23.53302 ], [ -46.666361, -23.533101 ], [ -46.666706, -23.532905 ] ] ] } },
{ "type": "Feature", "properties": { "CD_SETOR": "355030806000093", "faces": 3, "pavimentada": 100.0, "bueiro": 100.0, "iluminacao": 100.0, "onibus": 0.0, "ciclovia": 66.67, "calcada": 100.0, "obstaculo": 33.33, "rampa": 100.0, "rampa_faces": 100.0, "sem_calcada": 0.0, "sem_arvore": 0.0, "muitas_arvores": 100.0, "vao": 0.0, "V05400": 3, "V05421": 3, "V05406": 3, "V05412": 3, "V05422": 0, "V05424": 1, "V05427": 3, "V05409": 3, "V05415": 0, "V05418": 2, "V05430": 0, "V05433": 3, "criancas_0a4": 15, "em_favela": false }, "geometry": { "type": "Polygon", "coordinates": [ [ [ -46.666127, -23.531991 ], [ -46.666475, -23.532538 ], [ -46.667405, -23.532081 ], [ -46.667029, -23.531496 ], [ -46.666127, -23.531991 ] ] ] } },
{ "type": "Feature", "properties": { "CD_SETOR": "355030806000094", "faces": 3, "pavimentada": 100.0, "bueiro": 100.0, "iluminacao": 100.0, "onibus": 33.33, "ciclovia": 33.33, "calcada": 100.0, "obstaculo": 66.67, "rampa": 100.0, "rampa_faces": 100.0, "sem_calcada": 0.0, "sem_arvore": 0.0, "muitas_arvores": 66.67, "vao": 0.0, "V05400": 3, "V05421": 3, "V05406": 3, "V05412": 3, "V05422": 0, "V05424": 2, "V05427": 3, "V05409": 3, "V05415": 1, "V05418": 1, "V05430": 0, "V05433": 2, "criancas_0a4": 18, "em_favela": false }, "geometry": { "type": "Polygon", "coordinates": [ [ [ -46.666475, -23.532538 ], [ -46.667055, -23.533458 ], [ -46.668126, -23.533222 ], [ -46.667405, -23.532081 ], [ -46.666475, -23.532538 ] ] ] } },
{ "type": "Feature", "properties": { "CD_SETOR": "355030806000095", "faces": 33, "pavimentada": 100.0, "bueiro": 87.88, "iluminacao": 93.94, "onibus": 18.18, "ciclovia": 30.3, "calcada": 100.0, "obstaculo": 66.67, "rampa": 27.27, "rampa_faces": 27.27, "sem_calcada": 0.0, "sem_arvore": 3.03, "muitas_arvores": 72.73, "vao": 72.73, "V05400": 33, "V05421": 33, "V05406": 33, "V05412": 31, "V05422": 0, "V05424": 22, "V05427": 9, "V05409": 29, "V05415": 6, "V05418": 10, "V05430": 1, "V05433": 24, "criancas_0a4": 0, "em_favela": false }, "geometry": { "type": "Polygon", "coordinates": [ [ [ -46.666765, -23.51521 ], [ -46.653948, -23.516764 ], [ -46.654092, -23.517781 ], [ -46.65536, -23.518365 ], [ -46.655884, -23.518785 ], [ -46.658592, -23.521519 ], [ -46.659173, -23.52222 ], [ -46.659381, -23.522584 ], [ -46.666924, -23.521409 ], [ -46.667171, -23.521252 ], [ -46.667269, -23.521028 ], [ -46.667473, -23.520871 ], [ -46.667929, -23.520775 ], [ -46.667518, -23.520274 ], [ -46.666765, -23.51521 ] ], [ [ -46.665365, -23.517579 ], [ -46.665436, -23.518008 ], [ -46.664219, -23.518175 ], [ -46.664097, -23.517213 ], [ -46.665365, -23.517579 ] ], [ [ -46.667216, -23.519977 ], [ -46.66691, -23.520171 ], [ -46.66693, -23.520361 ], [ -46.666795, -23.520379 ], [ -46.666822, -23.52057 ], [ -46.666449, -23.520623 ], [ -46.666465, -23.520762 ], [ -46.665864, -23.520827 ], [ -46.66562, -23.519255 ], [ -46.666846, -23.519091 ], [ -46.667131, -23.5193 ], [ -46.667216, -23.519977 ] ], [ [ -46.661331, -23.520862 ], [ -46.661292, -23.521281 ], [ -46.660987, -23.521345 ], [ -46.660719, -23.521542 ], [ -46.660739, -23.521294 ], [ -46.660015, -23.521267 ], [ -46.660157, -23.520787 ], [ -46.661331, -23.520862 ] ] ] } },
{ "type": "Feature", "properties": { "CD_SETOR": "355030806000096", "faces": 61, "pavimentada": 98.36, "bueiro": 93.44, "iluminacao": 98.36, "onibus": 40.98, "ciclovia": 36.07, "calcada": 98.36, "obstaculo": 66.67, "rampa": 15.0, "rampa_faces": 14.75, "sem_calcada": 0.0, "sem_arvore": 13.11, "muitas_arvores": 32.79, "vao": 83.61, "V05400": 61, "V05421": 60, "V05406": 60, "V05412": 60, "V05422": 0, "V05424": 40, "V05427": 9, "V05409": 57, "V05415": 25, "V05418": 22, "V05430": 8, "V05433": 20, "criancas_0a4": 3, "em_favela": false }, "geometry": { "type": "Polygon", "coordinates": [ [ [ -46.659381, -23.522584 ], [ -46.659798, -23.523571 ], [ -46.660433, -23.52598 ], [ -46.671212, -23.525138 ], [ -46.668352, -23.521956 ], [ -46.668243, -23.521418 ], [ -46.668312, -23.521252 ], [ -46.668114, -23.520891 ], [ -46.667929, -23.520775 ], [ -46.667473, -23.520871 ], [ -46.667269, -23.521028 ], [ -46.667171, -23.521252 ], [ -46.666924, -23.521409 ], [ -46.659381, -23.522584 ] ] ] } },
{ "type": "Feature", "properties": { "CD_SETOR": "355030806000097", "faces": 1, "pavimentada": 100.0, "bueiro": 100.0, "iluminacao": 100.0, "onibus": 0.0, "ciclovia": 0.0, "calcada": 100.0, "obstaculo": 0.0, "rampa": 100.0, "rampa_faces": 100.0, "sem_calcada": 0.0, "sem_arvore": 0.0, "muitas_arvores": 0.0, "vao": 0.0, "V05400": 1, "V05421": 1, "V05406": 1, "V05412": 1, "V05422": 0, "V05424": 0, "V05427": 1, "V05409": 1, "V05415": 0, "V05418": 0, "V05430": 0, "V05433": 0, "criancas_0a4": 17, "em_favela": false }, "geometry": { "type": "Polygon", "coordinates": [ [ [ -46.664759, -23.518102 ], [ -46.665436, -23.518008 ], [ -46.665387, -23.517711 ], [ -46.664707, -23.517773 ], [ -46.664759, -23.518102 ] ] ] } },
{ "type": "Feature", "properties": { "CD_SETOR": "355030806000098", "faces": 1, "pavimentada": 100.0, "bueiro": 100.0, "iluminacao": 100.0, "onibus": 0.0, "ciclovia": 0.0, "calcada": 100.0, "obstaculo": 0.0, "rampa": 100.0, "rampa_faces": 100.0, "sem_calcada": 0.0, "sem_arvore": 0.0, "muitas_arvores": 0.0, "vao": 0.0, "V05400": 1, "V05421": 1, "V05406": 1, "V05412": 1, "V05422": 0, "V05424": 0, "V05427": 1, "V05409": 1, "V05415": 0, "V05418": 0, "V05430": 0, "V05433": 0, "criancas_0a4": 21, "em_favela": false }, "geometry": { "type": "Polygon", "coordinates": [ [ [ -46.664759, -23.518102 ], [ -46.664707, -23.517773 ], [ -46.665387, -23.517711 ], [ -46.665365, -23.517579 ], [ -46.664097, -23.517213 ], [ -46.664219, -23.518175 ], [ -46.664759, -23.518102 ] ] ] } },
{ "type": "Feature", "properties": { "CD_SETOR": "355030806000099", "faces": 1, "pavimentada": 100.0, "bueiro": 100.0, "iluminacao": 100.0, "onibus": 0.0, "ciclovia": 0.0, "calcada": 100.0, "obstaculo": 100.0, "rampa": 0.0, "rampa_faces": 0.0, "sem_calcada": 0.0, "sem_arvore": 0.0, "muitas_arvores": 0.0, "vao": 100.0, "V05400": 1, "V05421": 1, "V05406": 1, "V05412": 1, "V05422": 0, "V05424": 1, "V05427": 0, "V05409": 1, "V05415": 0, "V05418": 0, "V05430": 0, "V05433": 0, "criancas_0a4": 33, "em_favela": false }, "geometry": { "type": "Polygon", "coordinates": [ [ [ -46.665626, -23.519291 ], [ -46.665668, -23.519565 ], [ -46.666503, -23.519461 ], [ -46.666462, -23.519185 ], [ -46.665626, -23.519291 ] ] ] } },
{ "type": "Feature", "properties": { "CD_SETOR": "355030806000100", "faces": 1, "pavimentada": 100.0, "bueiro": 100.0, "iluminacao": 100.0, "onibus": 0.0, "ciclovia": 0.0, "calcada": 100.0, "obstaculo": 100.0, "rampa": 0.0, "rampa_faces": 0.0, "sem_calcada": 0.0, "sem_arvore": 0.0, "muitas_arvores": 0.0, "vao": 100.0, "V05400": 1, "V05421": 1, "V05406": 1, "V05412": 1, "V05422": 0, "V05424": 1, "V05427": 0, "V05409": 1, "V05415": 0, "V05418": 0, "V05430": 0, "V05433": 0, "criancas_0a4": 30, "em_favela": false }, "geometry": { "type": "Polygon", "coordinates": [ [ [ -46.665626, -23.519291 ], [ -46.666462, -23.519185 ], [ -46.666503, -23.519461 ], [ -46.666764, -23.519428 ], [ -46.666735, -23.519657 ], [ -46.666673, -23.519667 ], [ -46.666818, -23.519955 ], [ -46.666852, -23.519943 ], [ -46.667018, -23.520104 ], [ -46.667216, -23.519977 ], [ -46.667131, -23.5193 ], [ -46.666846, -23.519091 ], [ -46.665658, -23.519248 ], [ -46.665626, -23.519291 ] ] ] } },
{ "type": "Feature", "properties": { "CD_SETOR": "355030806000101", "faces": 1, "pavimentada": 100.0, "bueiro": 100.0, "iluminacao": 100.0, "onibus": 0.0, "ciclovia": 0.0, "calcada": 100.0, "obstaculo": 100.0, "rampa": 0.0, "rampa_faces": 0.0, "sem_calcada": 0.0, "sem_arvore": 0.0, "muitas_arvores": 0.0, "vao": 100.0, "V05400": 1, "V05421": 1, "V05406": 1, "V05412": 1, "V05422": 0, "V05424": 1, "V05427": 0, "V05409": 1, "V05415": 0, "V05418": 0, "V05430": 0, "V05433": 0, "criancas_0a4": 0, "em_favela": false }, "geometry": { "type": "Polygon", "coordinates": [ [ [ -46.666795, -23.520379 ], [ -46.665821, -23.520511 ], [ -46.665845, -23.520686 ], [ -46.666822, -23.52057 ], [ -46.666795, -23.520379 ] ] ] } },
{ "type": "Feature", "properties": { "CD_SETOR": "355030806000102", "faces": 1, "pavimentada": 100.0, "bueiro": 100.0, "iluminacao": 100.0, "onibus": 0.0, "ciclovia": 0.0, "calcada": 100.0, "obstaculo": 0.0, "rampa": 0.0, "rampa_faces": 0.0, "sem_calcada": 0.0, "sem_arvore": 0.0, "muitas_arvores": 0.0, "vao": 100.0, "V05400": 1, "V05421": 1, "V05406": 1, "V05412": 1, "V05422": 0, "V05424": 0, "V05427": 0, "V05409": 1, "V05415": 0, "V05418": 0, "V05430": 0, "V05433": 0, "criancas_0a4": 0, "em_favela": false }, "geometry": { "type": "Polygon", "coordinates": [ [ [ -46.665845, -23.520686 ], [ -46.665864, -23.520827 ], [ -46.666465, -23.520762 ], [ -46.666449, -23.520623 ], [ -46.665845, -23.520686 ] ] ] } },
{ "type": "Feature", "properties": { "CD_SETOR": "355030806000103", "faces": 1, "pavimentada": 100.0, "bueiro": 100.0, "iluminacao": 100.0, "onibus": 0.0, "ciclovia": 100.0, "calcada": 100.0, "obstaculo": 0.0, "rampa": 0.0, "rampa_faces": 0.0, "sem_calcada": 0.0, "sem_arvore": 0.0, "muitas_arvores": 0.0, "vao": 100.0, "V05400": 1, "V05421": 1, "V05406": 1, "V05412": 1, "V05422": 0, "V05424": 0, "V05427": 0, "V05409": 1, "V05415": 0, "V05418": 1, "V05430": 0, "V05433": 0, "criancas_0a4": 18, "em_favela": false }, "geometry": { "type": "Polygon", "coordinates": [ [ [ -46.660644, -23.52129 ], [ -46.660739, -23.521294 ], [ -46.660719, -23.521542 ], [ -46.660987, -23.521345 ], [ -46.661292, -23.521281 ], [ -46.661326, -23.520924 ], [ -46.660686, -23.520882 ], [ -46.660644, -23.52129 ] ] ] } },
{ "type": "Feature", "properties": { "CD_SETOR": "355030806000104", "faces": 2, "pavimentada": 50.0, "bueiro": 50.0, "iluminacao": 50.0, "onibus": 0.0, "ciclovia": 50.0, "calcada": 50.0, "obstaculo": 0.0, "rampa": 0.0, "rampa_faces": 0.0, "sem_calcada": 0.0, "sem_arvore": 0.0, "muitas_arvores": 0.0, "vao": 50.0, "V05400": 2, "V05421": 1, "V05406": 1, "V05412": 1, "V05422": 0, "V05424": 0, "V05427": 0, "V05409": 1, "V05415": 0, "V05418": 1, "V05430": 0, "V05433": 0, "criancas_0a4": 11, "em_favela": false }, "geometry": { "type": "Polygon", "coordinates": [ [ [ -46.660644, -23.52129 ], [ -46.660686, -23.520882 ], [ -46.661326, -23.520924 ], [ -46.661331, -23.520862 ], [ -46.660157, -23.520787 ], [ -46.660015, -23.521267 ], [ -46.660644, -23.52129 ] ] ] } },
{ "type": "Feature", "properties": { "CD_SETOR": "355030806000105", "faces": 1, "pavimentada": 100.0, "bueiro": 100.0, "iluminacao": 100.0, "onibus": 0.0, "ciclovia": 0.0, "calcada": 100.0, "obstaculo": 0.0, "rampa": 100.0, "rampa_faces": 100.0, "sem_calcada": 0.0, "sem_arvore": 0.0, "muitas_arvores": 0.0, "vao": 0.0, "V05400": 1, "V05421": 1, "V05406": 1, "V05412": 1, "V05422": 0, "V05424": 0, "V05427": 1, "V05409": 1, "V05415": 0, "V05418": 0, "V05430": 0, "V05433": 0, "criancas_0a4": 22, "em_favela": false }, "geometry": { "type": "Polygon", "coordinates": [ [ [ -46.665772, -23.520152 ], [ -46.665821, -23.520511 ], [ -46.666344, -23.520441 ], [ -46.666284, -23.520077 ], [ -46.665772, -23.520152 ] ] ] } },
{ "type": "Feature", "properties": { "CD_SETOR": "355030806000106", "faces": 1, "pavimentada": 100.0, "bueiro": 100.0, "iluminacao": 100.0, "onibus": 0.0, "ciclovia": 0.0, "calcada": 100.0, "obstaculo": 0.0, "rampa": 100.0, "rampa_faces": 100.0, "sem_calcada": 0.0, "sem_arvore": 0.0, "muitas_arvores": 0.0, "vao": 0.0, "V05400": 1, "V05421": 1, "V05406": 1, "V05412": 1, "V05422": 0, "V05424": 0, "V05427": 1, "V05409": 1, "V05415": 0, "V05418": 0, "V05430": 0, "V05433": 0, "criancas_0a4": 17, "em_favela": false }, "geometry": { "type": "Polygon", "coordinates": [ [ [ -46.665683, -23.519651 ], [ -46.665754, -23.520053 ], [ -46.666246, -23.519978 ], [ -46.666183, -23.519589 ], [ -46.665683, -23.519651 ] ] ] } },
{ "type": "Feature", "properties": { "CD_SETOR": "355030806000107", "faces": 1, "pavimentada": 100.0, "bueiro": 100.0, "iluminacao": 100.0, "onibus": 0.0, "ciclovia": 0.0, "calcada": 100.0, "obstaculo": 0.0, "rampa": 100.0, "rampa_faces": 100.0, "sem_calcada": 0.0, "sem_arvore": 0.0, "muitas_arvores": 100.0, "vao": 0.0, "V05400": 1, "V05421": 1, "V05406": 1, "V05412": 1, "V05422": 0, "V05424": 0, "V05427": 1, "V05409": 1, "V05415": 0, "V05418": 0, "V05430": 0, "V05433": 1, "criancas_0a4": 21, "em_favela": false }, "geometry": { "type": "Polygon", "coordinates": [ [ [ -46.666797, -23.519909 ], [ -46.665754, -23.520053 ], [ -46.665772, -23.520152 ], [ -46.666284, -23.520077 ], [ -46.666344, -23.520441 ], [ -46.66693, -23.520361 ], [ -46.66691, -23.520171 ], [ -46.667018, -23.520104 ], [ -46.666797, -23.519909 ] ] ] } },
{ "type": "Feature", "properties": { "CD_SETOR": "355030806000108", "faces": 1, "pavimentada": 100.0, "bueiro": 100.0, "iluminacao": 100.0, "onibus": 0.0, "ciclovia": 0.0, "calcada": 100.0, "obstaculo": 0.0, "rampa": 100.0, "rampa_faces": 100.0, "sem_calcada": 0.0, "sem_arvore": 0.0, "muitas_arvores": 0.0, "vao": 0.0, "V05400": 1, "V05421": 1, "V05406": 1, "V05412": 1, "V05422": 0, "V05424": 0, "V05427": 1, "V05409": 1, "V05415": 0, "V05418": 0, "V05430": 0, "V05433": 0, "criancas_0a4": 20, "em_favela": false }, "geometry": { "type": "Polygon", "coordinates": [ [ [ -46.666764, -23.519428 ], [ -46.665707, -23.51956 ], [ -46.665668, -23.519565 ], [ -46.665683, -23.519651 ], [ -46.666183, -23.519589 ], [ -46.666246, -23.519978 ], [ -46.666797, -23.519909 ], [ -46.666673, -23.519667 ], [ -46.666735, -23.519657 ], [ -46.666764, -23.519428 ] ] ] } },
{ "type": "Feature", "properties": { "CD_SETOR": "355030806000109", "faces": 28, "pavimentada": 100.0, "bueiro": 82.14, "iluminacao": 100.0, "onibus": 17.86, "ciclovia": 14.29, "calcada": 100.0, "obstaculo": 17.86, "rampa": 89.29, "rampa_faces": 89.29, "sem_calcada": 0.0, "sem_arvore": 3.57, "muitas_arvores": 75.0, "vao": 10.71, "V05400": 28, "V05421": 28, "V05406": 28, "V05412": 28, "V05422": 0, "V05424": 5, "V05427": 25, "V05409": 23, "V05415": 5, "V05418": 4, "V05430": 1, "V05433": 21, "criancas_0a4": 21, "em_favela": false }, "geometry": { "type": "Polygon", "coordinates": [ [ [ -46.679384, -23.517666 ], [ -46.679458, -23.518127 ], [ -46.679353, -23.518678 ], [ -46.679235, -23.518983 ], [ -46.679246, -23.520119 ], [ -46.679335, -23.520865 ], [ -46.679305, -23.521811 ], [ -46.67946, -23.522437 ], [ -46.679641, -23.522852 ], [ -46.679897, -23.523285 ], [ -46.680355, -23.523864 ], [ -46.683453, -23.522285 ], [ -46.684499, -23.521826 ], [ -46.685374, -23.521609 ], [ -46.686101, -23.521535 ], [ -46.686098, -23.52015 ], [ -46.686259, -23.52015 ], [ -46.686239, -23.516051 ], [ -46.68034, -23.517669 ], [ -46.679384, -23.517666 ] ], [ [ -46.684497, -23.51835 ], [ -46.684514, -23.520965 ], [ -46.684167, -23.521089 ], [ -46.683528, -23.520564 ], [ -46.683362, -23.520723 ], [ -46.682983, -23.520405 ], [ -46.683119, -23.520079 ], [ -46.683279, -23.519341 ], [ -46.683297, -23.518728 ], [ -46.683748, -23.518714 ], [ -46.683948, -23.518357 ], [ -46.684497, -23.51835 ] ], [ [ -46.680304, -23.520232 ], [ -46.681453, -23.5203 ], [ -46.681444, -23.521554 ], [ -46.680312, -23.521554 ], [ -46.680304, -23.520232 ] ] ] } },
{ "type": "Feature", "properties": { "CD_SETOR": "355030806000110", "faces": 3, "pavimentada": 100.0, "bueiro": 66.67, "iluminacao": 100.0, "onibus": 0.0, "ciclovia": 0.0, "calcada": 100.0, "obstaculo": 0.0, "rampa": 100.0, "rampa_faces": 100.0, "sem_calcada": 0.0, "sem_arvore": 0.0, "muitas_arvores": 66.67, "vao": 0.0, "V05400": 3, "V05421": 3, "V05406": 3, "V05412": 3, "V05422": 0, "V05424": 0, "V05427": 3, "V05409": 2, "V05415": 0, "V05418": 0, "V05430": 0, "V05433": 2, "criancas_0a4": 35, "em_favela": false }, "geometry": { "type": "Polygon", "coordinates": [ [ [ -46.683281, -23.519293 ], [ -46.683119, -23.520079 ], [ -46.684509, -23.519718 ], [ -46.684505, -23.519276 ], [ -46.683281, -23.519293 ] ] ] } },
{ "type": "Feature", "properties": { "CD_SETOR": "355030806000111", "faces": 2, "pavimentada": 100.0, "bueiro": 100.0, "iluminacao": 100.0, "onibus": 0.0, "ciclovia": 0.0, "calcada": 100.0, "obstaculo": 0.0, "rampa": 0.0, "rampa_faces": 0.0, "sem_calcada": 0.0, "sem_arvore": 0.0, "muitas_arvores": 0.0, "vao": 100.0, "V05400": 2, "V05421": 2, "V05406": 2, "V05412": 2, "V05422": 0, "V05424": 0, "V05427": 0, "V05409": 2, "V05415": 0, "V05418": 0, "V05430": 0, "V05433": 0, "criancas_0a4": 34, "em_favela": false }, "geometry": { "type": "Polygon", "coordinates": [ [ [ -46.683293, -23.518868 ], [ -46.683281, -23.519293 ], [ -46.684505, -23.519276 ], [ -46.684502, -23.518855 ], [ -46.683293, -23.518868 ] ] ] } },
{ "type": "Feature", "properties": { "CD_SETOR": "355030806000112", "faces": 2, "pavimentada": 100.0, "bueiro": 100.0, "iluminacao": 100.0, "onibus": 0.0, "ciclovia": 0.0, "calcada": 100.0, "obstaculo": 0.0, "rampa": 0.0, "rampa_faces": 0.0, "sem_calcada": 0.0, "sem_arvore": 0.0, "muitas_arvores": 50.0, "vao": 100.0, "V05400": 2, "V05421": 2, "V05406": 2, "V05412": 2, "V05422": 0, "V05424": 0, "V05427": 0, "V05409": 2, "V05415": 0, "V05418": 0, "V05430": 0, "V05433": 1, "criancas_0a4": 48, "em_favela": false }, "geometry": { "type": "Polygon", "coordinates": [ [ [ -46.683293, -23.518868 ], [ -46.684502, -23.518855 ], [ -46.684497, -23.51835 ], [ -46.683948, -23.518357 ], [ -46.683748, -23.518714 ], [ -46.683297, -23.518728 ], [ -46.683293, -23.518868 ] ] ] } },
{ "type": "Feature", "properties": { "CD_SETOR": "355030806000113", "faces": 2, "pavimentada": 100.0, "bueiro": 50.0, "iluminacao": 100.0, "onibus": 0.0, "ciclovia": 0.0, "calcada": 100.0, "obstaculo": 0.0, "rampa": 100.0, "rampa_faces": 100.0, "sem_calcada": 0.0, "sem_arvore": 0.0, "muitas_arvores": 50.0, "vao": 0.0, "V05400": 2, "V05421": 2, "V05406": 2, "V05412": 2, "V05422": 0, "V05424": 0, "V05427": 2, "V05409": 1, "V05415": 0, "V05418": 0, "V05430": 0, "V05433": 1, "criancas_0a4": 41, "em_favela": false }, "geometry": { "type": "Polygon", "coordinates": [ [ [ -46.683119, -23.520079 ], [ -46.682983, -23.520405 ], [ -46.683362, -23.520723 ], [ -46.683732, -23.520362 ], [ -46.683359, -23.520016 ], [ -46.683119, -23.520079 ] ] ] } },
{ "type": "Feature", "properties": { "CD_SETOR": "355030806000114", "faces": 3, "pavimentada": 100.0, "bueiro": 66.67, "iluminacao": 100.0, "onibus": 0.0, "ciclovia": 0.0, "calcada": 100.0, "obstaculo": 0.0, "rampa": 0.0, "rampa_faces": 0.0, "sem_calcada": 0.0, "sem_arvore": 0.0, "muitas_arvores": 33.33, "vao": 100.0, "V05400": 3, "V05421": 3, "V05406": 3, "V05412": 3, "V05422": 0, "V05424": 0, "V05427": 0, "V05409": 2, "V05415": 0, "V05418": 0, "V05430": 0, "V05433": 1, "criancas_0a4": 30, "em_favela": false }, "geometry": { "type": "Polygon", "coordinates": [ [ [ -46.683359, -23.520016 ], [ -46.683732, -23.520362 ], [ -46.683528, -23.520564 ], [ -46.684102, -23.521039 ], [ -46.684167, -23.521089 ], [ -46.684514, -23.520965 ], [ -46.684512, -23.520684 ], [ -46.683597, -23.519955 ], [ -46.683359, -23.520016 ] ] ] } },
{ "type": "Feature", "properties": { "CD_SETOR": "355030806000115", "faces": 2, "pavimentada": 100.0, "bueiro": 50.0, "iluminacao": 100.0, "onibus": 0.0, "ciclovia": 0.0, "calcada": 100.0, "obstaculo": 0.0, "rampa": 100.0, "rampa_faces": 100.0, "sem_calcada": 0.0, "sem_arvore": 0.0, "muitas_arvores": 100.0, "vao": 0.0, "V05400": 2, "V05421": 2, "V05406": 2, "V05412": 2, "V05422": 0, "V05424": 0, "V05427": 2, "V05409": 1, "V05415": 0, "V05418": 0, "V05430": 0, "V05433": 2, "criancas_0a4": 31, "em_favela": false }, "geometry": { "type": "Polygon", "coordinates": [ [ [ -46.683597, -23.519955 ], [ -46.683643, -23.520001 ], [ -46.684512, -23.520684 ], [ -46.684509, -23.519718 ], [ -46.683597, -23.519955 ] ] ] } },
{ "type": "Feature", "properties": { "CD_SETOR": "355030806000116", "faces": 1, "pavimentada": 100.0, "bueiro": 100.0, "iluminacao": 100.0, "onibus": 0.0, "ciclovia": 0.0, "calcada": 100.0, "obstaculo": 0.0, "rampa": 0.0, "rampa_faces": 0.0, "sem_calcada": 0.0, "sem_arvore": 0.0, "muitas_arvores": 0.0, "vao": 100.0, "V05400": 1, "V05421": 1, "V05406": 1, "V05412": 1, "V05422": 0, "V05424": 0, "V05427": 0, "V05409": 1, "V05415": 0, "V05418": 0, "V05430": 0, "V05433": 0, "criancas_0a4": 33, "em_favela": false }, "geometry": { "type": "Polygon", "coordinates": [ [ [ -46.681444, -23.520641 ], [ -46.681453, -23.5203 ], [ -46.680799, -23.520262 ], [ -46.680797, -23.520649 ], [ -46.681444, -23.520641 ] ] ] } },
{ "type": "Feature", "properties": { "CD_SETOR": "355030806000117", "faces": 1, "pavimentada": 100.0, "bueiro": 100.0, "iluminacao": 100.0, "onibus": 0.0, "ciclovia": 0.0, "calcada": 100.0, "obstaculo": 0.0, "rampa": 0.0, "rampa_faces": 0.0, "sem_calcada": 0.0, "sem_arvore": 0.0, "muitas_arvores": 0.0, "vao": 100.0, "V05400": 1, "V05421": 1, "V05406": 1, "V05412": 1, "V05422": 0, "V05424": 0, "V05427": 0, "V05409": 1, "V05415": 0, "V05418": 0, "V05430": 0, "V05433": 0, "criancas_0a4": 25, "em_favela": false }, "geometry": { "type": "Polygon", "coordinates": [ [ [ -46.680308, -23.52085 ], [ -46.681444, -23.520846 ], [ -46.681444, -23.520641 ], [ -46.680797, -23.520649 ], [ -46.680799, -23.520262 ], [ -46.680304, -23.520232 ], [ -46.680308, -23.52085 ] ] ] } },
{ "type": "Feature", "properties": { "CD_SETOR": "355030806000118", "faces": 1, "pavimentada": 100.0, "bueiro": 100.0, "iluminacao": 100.0, "onibus": 0.0, "ciclovia": 0.0, "calcada": 100.0, "obstaculo": 0.0, "rampa": 0.0, "rampa_faces": 0.0, "sem_calcada": 0.0, "sem_arvore": 0.0, "muitas_arvores": 0.0, "vao": 100.0, "V05400": 1, "V05421": 1, "V05406": 1, "V05412": 1, "V05422": 0, "V05424": 0, "V05427": 0, "V05409": 1, "V05415": 0, "V05418": 0, "V05430": 0, "V05433": 0, "criancas_0a4": 42, "em_favela": false }, "geometry": { "type": "Polygon", "coordinates": [ [ [ -46.680834, -23.521554 ], [ -46.681444, -23.521554 ], [ -46.681444, -23.521067 ], [ -46.680832, -23.521065 ], [ -46.680834, -23.521554 ] ] ] } },
{ "type": "Feature", "properties": { "CD_SETOR": "355030806000119", "faces": 1, "pavimentada": 100.0, "bueiro": 100.0, "iluminacao": 100.0, "onibus": 0.0, "ciclovia": 0.0, "calcada": 100.0, "obstaculo": 0.0, "rampa": 0.0, "rampa_faces": 0.0, "sem_calcada": 0.0, "sem_arvore": 0.0, "muitas_arvores": 0.0, "vao": 100.0, "V05400": 1, "V05421": 1, "V05406": 1, "V05412": 1, "V05422": 0, "V05424": 0, "V05427": 0, "V05409": 1, "V05415": 0, "V05418": 0, "V05430": 0, "V05433": 0, "criancas_0a4": 31, "em_favela": false }, "geometry": { "type": "Polygon", "coordinates": [ [ [ -46.680308, -23.52085 ], [ -46.680312, -23.521554 ], [ -46.680834, -23.521554 ], [ -46.680832, -23.521065 ], [ -46.681444, -23.521067 ], [ -46.681444, -23.520846 ], [ -46.680308, -23.52085 ] ] ] } },
{ "type": "Feature", "properties": { "CD_SETOR": "355030806000120", "faces": 2, "pavimentada": 100.0, "bueiro": 50.0, "iluminacao": 100.0, "onibus": 50.0, "ciclovia": 0.0, "calcada": 100.0, "obstaculo": 0.0, "rampa": 100.0, "rampa_faces": 100.0, "sem_calcada": 0.0, "sem_arvore": 50.0, "muitas_arvores": 0.0, "vao": 0.0, "V05400": 2, "V05421": 2, "V05406": 2, "V05412": 2, "V05422": 0, "V05424": 0, "V05427": 2, "V05409": 1, "V05415": 1, "V05418": 0, "V05430": 1, "V05433": 0, "criancas_0a4": 17, "em_favela": false }, "geometry": { "type": "Polygon", "coordinates": [ [ [ -46.670132, -23.526863 ], [ -46.670414, -23.526752 ], [ -46.670389, -23.526212 ], [ -46.669948, -23.526343 ], [ -46.670132, -23.526863 ] ] ] } },
{ "type": "Feature", "properties": { "CD_SETOR": "355030806000121", "faces": 1, "pavimentada": 100.0, "bueiro": 100.0, "iluminacao": 100.0, "onibus": 0.0, "ciclovia": 0.0, "calcada": 100.0, "obstaculo": 0.0, "rampa": 0.0, "rampa_faces": 0.0, "sem_calcada": 0.0, "sem_arvore": 100.0, "muitas_arvores": 0.0, "vao": 100.0, "V05400": 1, "V05421": 1, "V05406": 1, "V05412": 1, "V05422": 0, "V05424": 0, "V05427": 0, "V05409": 1, "V05415": 0, "V05418": 0, "V05430": 1, "V05433": 0, "criancas_0a4": 13, "em_favela": false }, "geometry": { "type": "Polygon", "coordinates": [ [ [ -46.669665, -23.527006 ], [ -46.670049, -23.526888 ], [ -46.669879, -23.526405 ], [ -46.669497, -23.526526 ], [ -46.669665, -23.527006 ] ] ] } },
{ "type": "Feature", "properties": { "CD_SETOR": "355030806000122", "faces": 3, "pavimentada": 100.0, "bueiro": 33.33, "iluminacao": 100.0, "onibus": 0.0, "ciclovia": 0.0, "calcada": 100.0, "obstaculo": 0.0, "rampa": 66.67, "rampa_faces": 66.67, "sem_calcada": 0.0, "sem_arvore": 33.33, "muitas_arvores": 0.0, "vao": 33.33, "V05400": 3, "V05421": 3, "V05406": 3, "V05412": 3, "V05422": 0, "V05424": 0, "V05427": 2, "V05409": 1, "V05415": 0, "V05418": 0, "V05430": 1, "V05433": 0, "criancas_0a4": 11, "em_favela": false }, "geometry": { "type": "Polygon", "coordinates": [ [ [ -46.669693, -23.525856 ], [ -46.670049, -23.526888 ], [ -46.670132, -23.526863 ], [ -46.669948, -23.526343 ], [ -46.670389, -23.526212 ], [ -46.670367, -23.525749 ], [ -46.669693, -23.525856 ] ] ] } },
{ "type": "Feature", "properties": { "CD_SETOR": "355030806000123", "faces": 2, "pavimentada": 100.0, "bueiro": 0.0, "iluminacao": 100.0, "onibus": 0.0, "ciclovia": 0.0, "calcada": 100.0, "obstaculo": 0.0, "rampa": 0.0, "rampa_faces": 0.0, "sem_calcada": 0.0, "sem_arvore": 0.0, "muitas_arvores": 0.0, "vao": 100.0, "V05400": 2, "V05421": 2, "V05406": 2, "V05412": 2, "V05422": 0, "V05424": 0, "V05427": 0, "V05409": 0, "V05415": 0, "V05418": 0, "V05430": 0, "V05433": 0, "criancas_0a4": 11, "em_favela": false }, "geometry": { "type": "Polygon", "coordinates": [ [ [ -46.669349, -23.527104 ], [ -46.669665, -23.527006 ], [ -46.669497, -23.526526 ], [ -46.669879, -23.526405 ], [ -46.669693, -23.525856 ], [ -46.669323, -23.526014 ], [ -46.668965, -23.526255 ], [ -46.669096, -23.526417 ], [ -46.669349, -23.527104 ] ] ] } },
{ "type": "Feature", "properties": { "CD_SETOR": "355030806000124", "faces": 1, "pavimentada": 100.0, "bueiro": 100.0, "iluminacao": 100.0, "onibus": 0.0, "ciclovia": 0.0, "calcada": 100.0, "obstaculo": 0.0, "rampa": 0.0, "rampa_faces": 0.0, "sem_calcada": 0.0, "sem_arvore": 0.0, "muitas_arvores": 100.0, "vao": 100.0, "V05400": 1, "V05421": 1, "V05406": 1, "V05412": 1, "V05422": 0, "V05424": 0, "V05427": 0, "V05409": 1, "V05415": 0, "V05418": 0, "V05430": 0, "V05433": 1, "criancas_0a4": 3, "em_favela": false }, "geometry": { "type": "Polygon", "coordinates": [ [ [ -46.68737, -23.512631 ], [ -46.6876, -23.512616 ], [ -46.687918, -23.512745 ], [ -46.688049, -23.512472 ], [ -46.687402, -23.512206 ], [ -46.68737, -23.512631 ] ] ] } },
{ "type": "Feature", "properties": { "CD_SETOR": "355030806000125", "faces": 1, "pavimentada": 100.0, "bueiro": 100.0, "iluminacao": 100.0, "onibus": 0.0, "ciclovia": 0.0, "calcada": 100.0, "obstaculo": 0.0, "rampa": 0.0, "rampa_faces": 0.0, "sem_calcada": 0.0, "sem_arvore": 0.0, "muitas_arvores": 100.0, "vao": 100.0, "V05400": 1, "V05421": 1, "V05406": 1, "V05412": 1, "V05422": 0, "V05424": 0, "V05427": 0, "V05409": 1, "V05415": 0, "V05418": 0, "V05430": 0, "V05433": 1, "criancas_0a4": 5, "em_favela": false }, "geometry": { "type": "Polygon", "coordinates": [ [ [ -46.68737, -23.512631 ], [ -46.68738, -23.512826 ], [ -46.687804, -23.512981 ], [ -46.687918, -23.512745 ], [ -46.6876, -23.512616 ], [ -46.68737, -23.512631 ] ] ] } },
{ "type": "Feature", "properties": { "CD_SETOR": "355030806000126", "faces": 1, "pavimentada": 100.0, "bueiro": 100.0, "iluminacao": 100.0, "onibus": 0.0, "ciclovia": 0.0, "calcada": 100.0, "obstaculo": 0.0, "rampa": 0.0, "rampa_faces": 0.0, "sem_calcada": 0.0, "sem_arvore": 0.0, "muitas_arvores": 100.0, "vao": 100.0, "V05400": 1, "V05421": 1, "V05406": 1, "V05412": 1, "V05422": 0, "V05424": 0, "V05427": 0, "V05409": 1, "V05415": 0, "V05418": 0, "V05430": 0, "V05433": 1, "criancas_0a4": 4, "em_favela": false }, "geometry": { "type": "Polygon", "coordinates": [ [ [ -46.687047, -23.513747 ], [ -46.687371, -23.513873 ], [ -46.687632, -23.513339 ], [ -46.68727, -23.513185 ], [ -46.687047, -23.513747 ] ] ] } },
{ "type": "Feature", "properties": { "CD_SETOR": "355030806000127", "faces": 1, "pavimentada": 100.0, "bueiro": 100.0, "iluminacao": 100.0, "onibus": 0.0, "ciclovia": 0.0, "calcada": 100.0, "obstaculo": 0.0, "rampa": 0.0, "rampa_faces": 0.0, "sem_calcada": 0.0, "sem_arvore": 0.0, "muitas_arvores": 0.0, "vao": 100.0, "V05400": 1, "V05421": 1, "V05406": 1, "V05412": 1, "V05422": 0, "V05424": 0, "V05427": 0, "V05409": 1, "V05415": 0, "V05418": 0, "V05430": 0, "V05433": 0, "criancas_0a4": 0, "em_favela": false }, "geometry": { "type": "Polygon", "coordinates": [ [ [ -46.686681, -23.514211 ], [ -46.687122, -23.514398 ], [ -46.687371, -23.513873 ], [ -46.687047, -23.513747 ], [ -46.686904, -23.513996 ], [ -46.686681, -23.514211 ] ] ] } },
{ "type": "Feature", "properties": { "CD_SETOR": "355030806000128", "faces": 1, "pavimentada": 100.0, "bueiro": 100.0, "iluminacao": 100.0, "onibus": 0.0, "ciclovia": 0.0, "calcada": 100.0, "obstaculo": 0.0, "rampa": 100.0, "rampa_faces": 100.0, "sem_calcada": 0.0, "sem_arvore": 0.0, "muitas_arvores": 100.0, "vao": 0.0, "V05400": 1, "V05421": 1, "V05406": 1, "V05412": 1, "V05422": 0, "V05424": 0, "V05427": 1, "V05409": 1, "V05415": 0, "V05418": 0, "V05430": 0, "V05433": 1, "criancas_0a4": 30, "em_favela": false }, "geometry": { "type": "Polygon", "coordinates": [ [ [ -46.686681, -23.514211 ], [ -46.686537, -23.514363 ], [ -46.686566, -23.515073 ], [ -46.686786, -23.51507 ], [ -46.687122, -23.514398 ], [ -46.686681, -23.514211 ] ] ] } },
{ "type": "Feature", "properties": { "CD_SETOR": "355030806000129", "faces": 2, "pavimentada": 100.0, "bueiro": 100.0, "iluminacao": 100.0, "onibus": 50.0, "ciclovia": 50.0, "calcada": 100.0, "obstaculo": 0.0, "rampa": 50.0, "rampa_faces": 50.0, "sem_calcada": 0.0, "sem_arvore": 0.0, "muitas_arvores": 100.0, "vao": 50.0, "V05400": 2, "V05421": 2, "V05406": 2, "V05412": 2, "V05422": 0, "V05424": 0, "V05427": 1, "V05409": 2, "V05415": 1, "V05418": 1, "V05430": 0, "V05433": 2, "criancas_0a4": 23, "em_favela": false }, "geometry": { "type": "Polygon", "coordinates": [ [ [ -46.686566, -23.515073 ], [ -46.686628, -23.515941 ], [ -46.68702, -23.515831 ], [ -46.687033, -23.515172 ], [ -46.686786, -23.51507 ], [ -46.686566, -23.515073 ] ] ] } },
{ "type": "Feature", "properties": { "CD_SETOR": "355030806000130", "faces": 1, "pavimentada": 100.0, "bueiro": 100.0, "iluminacao": 100.0, "onibus": 0.0, "ciclovia": 0.0, "calcada": 100.0, "obstaculo": 0.0, "rampa": 0.0, "rampa_faces": 0.0, "sem_calcada": 0.0, "sem_arvore": 0.0, "muitas_arvores": 100.0, "vao": 100.0, "V05400": 1, "V05421": 1, "V05406": 1, "V05412": 1, "V05422": 0, "V05424": 0, "V05427": 0, "V05409": 1, "V05415": 0, "V05418": 0, "V05430": 0, "V05433": 1, "criancas_0a4": 5, "em_favela": false }, "geometry": { "type": "Polygon", "coordinates": [ [ [ -46.687418, -23.512828 ], [ -46.68727, -23.513185 ], [ -46.687632, -23.513339 ], [ -46.687804, -23.512981 ], [ -46.687418, -23.512828 ] ] ] } },
{ "type": "Feature", "properties": { "CD_SETOR": "355030806000131", "faces": 7, "pavimentada": 100.0, "bueiro": 14.29, "iluminacao": 100.0, "onibus": 0.0, "ciclovia": 0.0, "calcada": 100.0, "obstaculo": 28.57, "rampa": 42.86, "rampa_faces": 42.86, "sem_calcada": 0.0, "sem_arvore": 28.57, "muitas_arvores": 14.29, "vao": 57.14, "V05400": 7, "V05421": 7, "V05406": 7, "V05412": 7, "V05422": 0, "V05424": 2, "V05427": 3, "V05409": 1, "V05415": 0, "V05418": 0, "V05430": 2, "V05433": 1, "criancas_0a4": 9, "em_favela": false }, "geometry": { "type": "Polygon", "coordinates": [ [ [ -46.663021, -23.529224 ], [ -46.663631, -23.529793 ], [ -46.664173, -23.529286 ], [ -46.664323, -23.529419 ], [ -46.663772, -23.529924 ], [ -46.664107, -23.530236 ], [ -46.665164, -23.529454 ], [ -46.664548, -23.528867 ], [ -46.664145, -23.529219 ], [ -46.6636, -23.528719 ], [ -46.663021, -23.529224 ] ] ] } },
{ "type": "Feature", "properties": { "CD_SETOR": "355030806000133", "faces": 7, "pavimentada": 100.0, "bueiro": 71.43, "iluminacao": 100.0, "onibus": 0.0, "ciclovia": 0.0, "calcada": 100.0, "obstaculo": 28.57, "rampa": 42.86, "rampa_faces": 42.86, "sem_calcada": 0.0, "sem_arvore": 28.57, "muitas_arvores": 28.57, "vao": 57.14, "V05400": 7, "V05421": 7, "V05406": 7, "V05412": 7, "V05422": 0, "V05424": 2, "V05427": 3, "V05409": 5, "V05415": 0, "V05418": 0, "V05430": 2, "V05433": 2, "criancas_0a4": 9, "em_favela": false }, "geometry": { "type": "Polygon", "coordinates": [ [ [ -46.675737, -23.52768 ], [ -46.676559, -23.526623 ], [ -46.676556, -23.526125 ], [ -46.675413, -23.52617 ], [ -46.675456, -23.526726 ], [ -46.675586, -23.526832 ], [ -46.674876, -23.526843 ], [ -46.674763, -23.5269 ], [ -46.674765, -23.527058 ], [ -46.675737, -23.52768 ] ] ] } },
{ "type": "Feature", "properties": { "CD_SETOR": "355030806000134", "faces": 1, "pavimentada": 100.0, "bueiro": 100.0, "iluminacao": 100.0, "onibus": 0.0, "ciclovia": 100.0, "calcada": 100.0, "obstaculo": 0.0, "rampa": 0.0, "rampa_faces": 0.0, "sem_calcada": 0.0, "sem_arvore": 0.0, "muitas_arvores": 0.0, "vao": 100.0, "V05400": 1, "V05421": 1, "V05406": 1, "V05412": 1, "V05422": 0, "V05424": 0, "V05427": 0, "V05409": 1, "V05415": 0, "V05418": 1, "V05430": 0, "V05433": 0, "criancas_0a4": 29, "em_favela": false }, "geometry": { "type": "Polygon", "coordinates": [ [ [ -46.68702, -23.515831 ], [ -46.687945, -23.51558 ], [ -46.687935, -23.515545 ], [ -46.687033, -23.515172 ], [ -46.68702, -23.515831 ] ] ] } },
{ "type": "Feature", "properties": { "CD_SETOR": "355030806000135", "faces": 5, "pavimentada": 100.0, "bueiro": 0.0, "iluminacao": 60.0, "onibus": 0.0, "ciclovia": 0.0, "calcada": 0.0, "obstaculo": null, "rampa": null, "rampa_faces": 0.0, "sem_calcada": 100.0, "sem_arvore": 100.0, "muitas_arvores": 0.0, "vao": 100.0, "V05400": 5, "V05421": 0, "V05406": 5, "V05412": 3, "V05422": 5, "V05424": 0, "V05427": 0, "V05409": 0, "V05415": 0, "V05418": 0, "V05430": 5, "V05433": 0, "criancas_0a4": 24, "em_favela": false }, "geometry": { "type": "Polygon", "coordinates": [ [ [ -46.686662, -23.5123 ], [ -46.686702, -23.513041 ], [ -46.686735, -23.513152 ], [ -46.686995, -23.512897 ], [ -46.687253, -23.512854 ], [ -46.687234, -23.51246 ], [ -46.687005, -23.512466 ], [ -46.686977, -23.512291 ], [ -46.686662, -23.5123 ] ] ] } },
{ "type": "Feature", "properties": { "CD_SETOR": "355030806000136", "faces": 5, "pavimentada": 100.0, "bueiro": 20.0, "iluminacao": 80.0, "onibus": 0.0, "ciclovia": 0.0, "calcada": 40.0, "obstaculo": 50.0, "rampa": 0.0, "rampa_faces": 0.0, "sem_calcada": 60.0, "sem_arvore": 80.0, "muitas_arvores": 20.0, "vao": 100.0, "V05400": 5, "V05421": 2, "V05406": 5, "V05412": 4, "V05422": 3, "V05424": 1, "V05427": 0, "V05409": 1, "V05415": 0, "V05418": 0, "V05430": 4, "V05433": 1, "criancas_0a4": 19, "em_favela": true }, "geometry": { "type": "Polygon", "coordinates": [ [ [ -46.686652, -23.511995 ], [ -46.686662, -23.5123 ], [ -46.686977, -23.512291 ], [ -46.687005, -23.512466 ], [ -46.687234, -23.51246 ], [ -46.687253, -23.512854 ], [ -46.687382, -23.512867 ], [ -46.687402, -23.512206 ], [ -46.687248, -23.512135 ], [ -46.687111, -23.511974 ], [ -46.686652, -23.511995 ] ] ] } },
{ "type": "Feature", "properties": { "CD_SETOR": "355030806000137", "faces": 10, "pavimentada": 100.0, "bueiro": 100.0, "iluminacao": 100.0, "onibus": 0.0, "ciclovia": 0.0, "calcada": 100.0, "obstaculo": 20.0, "rampa": 50.0, "rampa_faces": 50.0, "sem_calcada": 0.0, "sem_arvore": 30.0, "muitas_arvores": 20.0, "vao": 50.0, "V05400": 10, "V05421": 10, "V05406": 10, "V05412": 10, "V05422": 0, "V05424": 2, "V05427": 5, "V05409": 10, "V05415": 0, "V05418": 0, "V05430": 3, "V05433": 2, "criancas_0a4": 8, "em_favela": false }, "geometry": { "type": "Polygon", "coordinates": [ [ [ -46.688378, -23.513951 ], [ -46.687508, -23.513597 ], [ -46.687152, -23.51434 ], [ -46.68852, -23.514901 ], [ -46.689055, -23.51378 ], [ -46.688557, -23.513574 ], [ -46.688378, -23.513951 ] ] ] } },
{ "type": "Feature", "properties": { "CD_SETOR": "355030806000138", "faces": 11, "pavimentada": 100.0, "bueiro": 72.73, "iluminacao": 100.0, "onibus": 27.27, "ciclovia": 0.0, "calcada": 100.0, "obstaculo": 45.45, "rampa": 18.18, "rampa_faces": 18.18, "sem_calcada": 0.0, "sem_arvore": 9.09, "muitas_arvores": 45.45, "vao": 81.82, "V05400": 11, "V05421": 11, "V05406": 11, "V05412": 11, "V05422": 0, "V05424": 5, "V05427": 2, "V05409": 8, "V05415": 3, "V05418": 0, "V05430": 1, "V05433": 5, "criancas_0a4": 12, "em_favela": false }, "geometry": { "type": "Polygon", "coordinates": [ [ [ -46.660935, -23.530149 ], [ -46.661095, -23.530218 ], [ -46.661633, -23.531363 ], [ -46.662733, -23.530687 ], [ -46.662353, -23.530275 ], [ -46.662806, -23.529929 ], [ -46.662438, -23.529536 ], [ -46.662522, -23.529465 ], [ -46.662394, -23.529347 ], [ -46.662771, -23.528991 ], [ -46.662462, -23.528703 ], [ -46.660935, -23.530149 ] ] ] } },
{ "type": "Feature", "properties": { "CD_SETOR": "355030806000139", "faces": 2, "pavimentada": 100.0, "bueiro": 0.0, "iluminacao": 100.0, "onibus": 0.0, "ciclovia": 0.0, "calcada": 100.0, "obstaculo": 0.0, "rampa": 0.0, "rampa_faces": 0.0, "sem_calcada": 0.0, "sem_arvore": 0.0, "muitas_arvores": 0.0, "vao": 100.0, "V05400": 2, "V05421": 2, "V05406": 2, "V05412": 2, "V05422": 0, "V05424": 0, "V05427": 0, "V05409": 0, "V05415": 0, "V05418": 0, "V05430": 0, "V05433": 0, "criancas_0a4": 0, "em_favela": false }, "geometry": { "type": "Polygon", "coordinates": [ [ [ -46.663044, -23.529747 ], [ -46.66334, -23.529521 ], [ -46.662971, -23.529177 ], [ -46.662656, -23.529453 ], [ -46.662792, -23.52959 ], [ -46.662852, -23.529542 ], [ -46.663044, -23.529747 ] ] ] } },
{ "type": "Feature", "properties": { "CD_SETOR": "355030806000141", "faces": 33, "pavimentada": 100.0, "bueiro": 87.88, "iluminacao": 100.0, "onibus": 21.21, "ciclovia": 9.09, "calcada": 100.0, "obstaculo": 21.21, "rampa": 30.3, "rampa_faces": 30.3, "sem_calcada": 0.0, "sem_arvore": 9.09, "muitas_arvores": 54.55, "vao": 69.7, "V05400": 33, "V05421": 33, "V05406": 33, "V05412": 33, "V05422": 0, "V05424": 7, "V05427": 10, "V05409": 29, "V05415": 7, "V05418": 3, "V05430": 3, "V05433": 18, "criancas_0a4": 16, "em_favela": false }, "geometry": { "type": "Polygon", "coordinates": [ [ [ -46.690043, -23.51501 ], [ -46.686239, -23.516051 ], [ -46.686259, -23.52015 ], [ -46.686098, -23.52015 ], [ -46.686101, -23.521535 ], [ -46.687838, -23.521451 ], [ -46.690113, -23.517008 ], [ -46.691112, -23.515447 ], [ -46.691259, -23.515092 ], [ -46.690833, -23.514972 ], [ -46.690043, -23.51501 ] ] ] } },
{ "type": "Feature", "properties": { "CD_SETOR": "355030806000142", "faces": 39, "pavimentada": 100.0, "bueiro": 76.92, "iluminacao": 100.0, "onibus": 38.46, "ciclovia": 10.26, "calcada": 94.87, "obstaculo": 8.11, "rampa": 91.89, "rampa_faces": 87.18, "sem_calcada": 5.13, "sem_arvore": 33.33, "muitas_arvores": 53.85, "vao": 12.82, "V05400": 39, "V05421": 37, "V05406": 39, "V05412": 39, "V05422": 2, "V05424": 3, "V05427": 34, "V05409": 30, "V05415": 15, "V05418": 4, "V05430": 13, "V05433": 21, "criancas_0a4": 0, "em_favela": false }, "geometry": { "type": "Polygon", "coordinates": [ [ [ -46.677615, -23.524592 ], [ -46.660433, -23.52598 ], [ -46.660893, -23.527778 ], [ -46.660924, -23.529147 ], [ -46.660968, -23.529153 ], [ -46.661106, -23.528991 ], [ -46.661348, -23.528648 ], [ -46.661952, -23.528067 ], [ -46.662587, -23.527613 ], [ -46.663307, -23.527266 ], [ -46.663558, -23.527272 ], [ -46.663816, -23.527378 ], [ -46.664508, -23.528115 ], [ -46.66476, -23.528288 ], [ -46.665052, -23.528382 ], [ -46.665362, -23.528331 ], [ -46.669349, -23.527104 ], [ -46.669096, -23.526417 ], [ -46.668965, -23.526255 ], [ -46.669544, -23.525897 ], [ -46.669864, -23.525808 ], [ -46.670367, -23.525749 ], [ -46.670414, -23.526752 ], [ -46.671904, -23.525904 ], [ -46.672363, -23.5264 ], [ -46.672846, -23.526779 ], [ -46.674208, -23.527662 ], [ -46.67477, -23.527897 ], [ -46.675305, -23.528236 ], [ -46.675737, -23.52768 ], [ -46.674765, -23.527058 ], [ -46.674738, -23.526949 ], [ -46.674876, -23.526843 ], [ -46.675586, -23.526832 ], [ -46.675456, -23.526726 ], [ -46.675413, -23.52617 ], [ -46.676556, -23.526125 ], [ -46.676555, -23.526002 ], [ -46.679629, -23.525592 ], [ -46.679411, -23.524575 ], [ -46.680517, -23.524066 ], [ -46.680209, -23.523679 ], [ -46.679461, -23.524051 ], [ -46.677615, -23.524592 ] ] ] } },
{ "type": "Feature", "properties": { "CD_SETOR": "355030806000143", "faces": 41, "pavimentada": 100.0, "bueiro": 87.8, "iluminacao": 100.0, "onibus": 26.83, "ciclovia": 4.88, "calcada": 95.12, "obstaculo": 15.38, "rampa": 84.62, "rampa_faces": 80.49, "sem_calcada": 4.88, "sem_arvore": 34.15, "muitas_arvores": 31.71, "vao": 19.51, "V05400": 41, "V05421": 39, "V05406": 41, "V05412": 41, "V05422": 2, "V05424": 6, "V05427": 33, "V05409": 36, "V05415": 11, "V05418": 2, "V05430": 14, "V05433": 13, "criancas_0a4": 0, "em_favela": false }, "geometry": { "type": "Polygon", "coordinates": [ [ [ -46.66527, -23.529376 ], [ -46.665661, -23.529984 ], [ -46.665453, -23.530108 ], [ -46.665875, -23.530762 ], [ -46.671032, -23.527913 ], [ -46.672399, -23.529963 ], [ -46.67312, -23.529568 ], [ -46.672459, -23.528513 ], [ -46.673648, -23.527889 ], [ -46.673854, -23.528211 ], [ -46.674579, -23.527814 ], [ -46.674208, -23.527662 ], [ -46.672846, -23.526779 ], [ -46.672363, -23.5264 ], [ -46.671904, -23.525904 ], [ -46.670309, -23.526811 ], [ -46.665362, -23.528331 ], [ -46.665052, -23.528382 ], [ -46.664638, -23.52822 ], [ -46.663878, -23.527429 ], [ -46.663666, -23.527301 ], [ -46.663307, -23.527266 ], [ -46.663001, -23.527388 ], [ -46.665164, -23.529454 ], [ -46.66527, -23.529376 ] ] ] } }
]
}
