{
"type": "FeatureCollection",
"name": "belem",
"crs": { "type": "name", "properties": { "name": "urn:ogc:def:crs:OGC:1.3:CRS84" } },
"xy_coordinate_resolution": 1e-06,
"features": [
{ "type": "Feature", "properties": { "CD_SETOR": "355030808000001", "faces": 4, "pavimentada": 100.0, "bueiro": 75.0, "iluminacao": 100.0, "onibus": 50.0, "ciclovia": 0.0, "calcada": 100.0, "obstaculo": 0.0, "rampa": 75.0, "rampa_faces": 75.0, "sem_calcada": 0.0, "sem_arvore": 0.0, "muitas_arvores": 75.0, "vao": 25.0, "V05400": 4, "V05421": 4, "V05406": 4, "V05412": 4, "V05422": 0, "V05424": 0, "V05427": 3, "V05409": 3, "V05415": 2, "V05418": 0, "V05430": 0, "V05433": 3, "criancas_0a4": 6, "em_favela": false }, "geometry": { "type": "Polygon", "coordinates": [ [ [ -46.593584, -23.537805 ], [ -46.594346, -23.537933 ], [ -46.594372, -23.537803 ], [ -46.594549, -23.53782 ], [ -46.594405, -23.538343 ], [ -46.593558, -23.538193 ], [ -46.593538, -23.538497 ], [ -46.594019, -23.538584 ], [ -46.595554, -23.539313 ], [ -46.59561, -23.539116 ], [ -46.595154, -23.539013 ], [ -46.595275, -23.53858 ], [ -46.595724, -23.538679 ], [ -46.596039, -23.537544 ], [ -46.594981, -23.537309 ], [ -46.593621, -23.537142 ], [ -46.593584, -23.537805 ] ] ] } },
{ "type": "Feature", "properties": { "CD_SETOR": "355030808000002", "faces": 14, "pavimentada": 100.0, "bueiro": 71.43, "iluminacao": 100.0, "onibus": 14.29, "ciclovia": 0.0, "calcada": 78.57, "obstaculo": 27.27, "rampa": 36.36, "rampa_faces": 28.57, "sem_calcada": 21.43, "sem_arvore": 28.57, "muitas_arvores": 7.14, "vao": 71.43, "V05400": 14, "V05421": 11, "V05406": 14, "V05412": 14, "V05422": 3, "V05424": 3, "V05427": 4, "V05409": 10, "V05415": 2, "V05418": 0, "V05430": 4, "V05433": 1, "criancas_0a4": 12, "em_favela": false }, "geometry": { "type": "Polygon", "coordinates": [ [ [ -46.592087, -23.538362 ], [ -46.593538, -23.538497 ], [ -46.593621, -23.537142 ], [ -46.59221, -23.537005 ], [ -46.592087, -23.538362 ] ] ] } },
{ "type": "Feature", "properties": { "CD_SETOR": "355030808000003", "faces": 6, "pavimentada": 100.0, "bueiro": 66.67, "iluminacao": 100.0, "onibus": 0.0, "ciclovia": 0.0, "calcada": 66.67, "obstaculo": 0.0, "rampa": 75.0, "rampa_faces": 50.0, "sem_calcada": 33.33, "sem_arvore": 66.67, "muitas_arvores": 0.0, "vao": 50.0, "V05400": 6, "V05421": 4, "V05406": 6, "V05412": 6, "V05422": 2, "V05424": 0, "V05427": 3, "V05409": 4, "V05415": 0, "V05418": 0, "V05430": 4, "V05433": 0, "criancas_0a4": 32, "em_favela": false }, "geometry": { "type": "Polygon", "coordinates": [ [ [ -46.592087, -23.538362 ], [ -46.591993, -23.539349 ], [ -46.593479, -23.539467 ], [ -46.593538, -23.538497 ], [ -46.592087, -23.538362 ] ] ] } },
{ "type": "Feature", "properties": { "CD_SETOR": "355030808000005", "faces": 33, "pavimentada": 100.0, "bueiro": 48.48, "iluminacao": 100.0, "onibus": 21.21, "ciclovia": 6.06, "calcada": 100.0, "obstaculo": 6.06, "rampa": 57.58, "rampa_faces": 57.58, "sem_calcada": 0.0, "sem_arvore": 18.18, "muitas_arvores": 24.24, "vao": 42.42, "V05400": 33, "V05421": 33, "V05406": 33, "V05412": 33, "V05422": 0, "V05424": 2, "V05427": 19, "V05409": 16, "V05415": 7, "V05418": 2, "V05430": 6, "V05433": 8, "criancas_0a4": 19, "em_favela": false }, "geometry": { "type": "Polygon", "coordinates": [ [ [ -46.594324, -23.540243 ], [ -46.592984, -23.543347 ], [ -46.593709, -23.543493 ], [ -46.59363, -23.543686 ], [ -46.594227, -23.543805 ], [ -46.594463, -23.54345 ], [ -46.597341, -23.540261 ], [ -46.596142, -23.539605 ], [ -46.594893, -23.54054 ], [ -46.594324, -23.540243 ] ] ] } },
{ "type": "Feature", "properties": { "CD_SETOR": "355030808000006", "faces": 25, "pavimentada": 96.0, "bueiro": 24.0, "iluminacao": 100.0, "onibus": 28.0, "ciclovia": 0.0, "calcada": 88.0, "obstaculo": 13.64, "rampa": 59.09, "rampa_faces": 52.0, "sem_calcada": 12.0, "sem_arvore": 56.0, "muitas_arvores": 16.0, "vao": 44.0, "V05400": 25, "V05421": 22, "V05406": 24, "V05412": 25, "V05422": 3, "V05424": 3, "V05427": 13, "V05409": 6, "V05415": 7, "V05418": 0, "V05430": 14, "V05433": 4, "criancas_0a4": 20, "em_favela": false }, "geometry": { "type": "Polygon", "coordinates": [ [ [ -46.596039, -23.537544 ], [ -46.595554, -23.539313 ], [ -46.594019, -23.538584 ], [ -46.593538, -23.538497 ], [ -46.59344, -23.540117 ], [ -46.593901, -23.540015 ], [ -46.594893, -23.54054 ], [ -46.598298, -23.538054 ], [ -46.596039, -23.537544 ] ] ] } },
{ "type": "Feature", "properties": { "CD_SETOR": "355030808000007", "faces": 1, "pavimentada": 100.0, "bueiro": 0.0, "iluminacao": 100.0, "onibus": 0.0, "ciclovia": 0.0, "calcada": 100.0, "obstaculo": 0.0, "rampa": 0.0, "rampa_faces": 0.0, "sem_calcada": 0.0, "sem_arvore": 100.0, "muitas_arvores": 0.0, "vao": 100.0, "V05400": 1, "V05421": 1, "V05406": 1, "V05412": 1, "V05422": 0, "V05424": 0, "V05427": 0, "V05409": 0, "V05415": 0, "V05418": 0, "V05430": 1, "V05433": 0, "criancas_0a4": 3, "em_favela": false }, "geometry": { "type": "Polygon", "coordinates": [ [ [ -46.59561, -23.539116 ], [ -46.595724, -23.538679 ], [ -46.595275, -23.53858 ], [ -46.595154, -23.539013 ], [ -46.59561, -23.539116 ] ] ] } },
{ "type": "Feature", "properties": { "CD_SETOR": "355030808000009", "faces": 1, "pavimentada": 100.0, "bueiro": 100.0, "iluminacao": 100.0, "onibus": 0.0, "ciclovia": 0.0, "calcada": 100.0, "obstaculo": 100.0, "rampa": 0.0, "rampa_faces": 0.0, "sem_calcada": 0.0, "sem_arvore": 100.0, "muitas_arvores": 0.0, "vao": 100.0, "V05400": 1, "V05421": 1, "V05406": 1, "V05412": 1, "V05422": 0, "V05424": 1, "V05427": 0, "V05409": 1, "V05415": 0, "V05418": 0, "V05430": 1, "V05433": 0, "criancas_0a4": 49, "em_favela": true }, "geometry": { "type": "Polygon", "coordinates": [ [ [ -46.591843, -23.534214 ], [ -46.591789, -23.534341 ], [ -46.591633, -23.536013 ], [ -46.592366, -23.53607 ], [ -46.59251, -23.534788 ], [ -46.592272, -23.534766 ], [ -46.592338, -23.53413 ], [ -46.592988, -23.534061 ], [ -46.594426, -23.533712 ], [ -46.594374, -23.533585 ], [ -46.594294, -23.533654 ], [ -46.593476, -23.53384 ], [ -46.59306, -23.533983 ], [ -46.592067, -23.534095 ], [ -46.591843, -23.534214 ] ] ] } },
{ "type": "Feature", "properties": { "CD_SETOR": "355030808000012", "faces": 26, "pavimentada": 100.0, "bueiro": 46.15, "iluminacao": 100.0, "onibus": 3.85, "ciclovia": 0.0, "calcada": 96.15, "obstaculo": 20.0, "rampa": 56.0, "rampa_faces": 53.85, "sem_calcada": 3.85, "sem_arvore": 15.38, "muitas_arvores": 30.77, "vao": 46.15, "V05400": 26, "V05421": 25, "V05406": 26, "V05412": 26, "V05422": 1, "V05424": 5, "V05427": 14, "V05409": 12, "V05415": 1, "V05418": 0, "V05430": 4, "V05433": 8, "criancas_0a4": 8, "em_favela": false }, "geometry": { "type": "Polygon", "coordinates": [ [ [ -46.589254, -23.538994 ], [ -46.589278, -23.54088 ], [ -46.591334, -23.541557 ], [ -46.591932, -23.53992 ], [ -46.592002, -23.539255 ], [ -46.589254, -23.538994 ] ] ] } },
{ "type": "Feature", "properties": { "CD_SETOR": "355030808000013", "faces": 13, "pavimentada": 100.0, "bueiro": 53.85, "iluminacao": 100.0, "onibus": 61.54, "ciclovia": 0.0, "calcada": 100.0, "obstaculo": 0.0, "rampa": 100.0, "rampa_faces": 100.0, "sem_calcada": 0.0, "sem_arvore": 38.46, "muitas_arvores": 30.77, "vao": 0.0, "V05400": 13, "V05421": 13, "V05406": 13, "V05412": 13, "V05422": 0, "V05424": 0, "V05427": 13, "V05409": 7, "V05415": 8, "V05418": 0, "V05430": 5, "V05433": 4, "criancas_0a4": 15, "em_favela": false }, "geometry": { "type": "Polygon", "coordinates": [ [ [ -46.586956, -23.541445 ], [ -46.588419, -23.541736 ], [ -46.590957, -23.542505 ], [ -46.591334, -23.541557 ], [ -46.589278, -23.54088 ], [ -46.5872, -23.540436 ], [ -46.586956, -23.541445 ] ], [ [ -46.587992, -23.541283 ], [ -46.588008, -23.541209 ], [ -46.587784, -23.541162 ], [ -46.58784, -23.540919 ], [ -46.588981, -23.541176 ], [ -46.588721, -23.541435 ], [ -46.587992, -23.541283 ] ] ] } },
{ "type": "Feature", "properties": { "CD_SETOR": "355030808000016", "faces": 18, "pavimentada": 100.0, "bueiro": 50.0, "iluminacao": 100.0, "onibus": 33.33, "ciclovia": 5.56, "calcada": 94.44, "obstaculo": 11.76, "rampa": 70.59, "rampa_faces": 66.67, "sem_calcada": 5.56, "sem_arvore": 11.11, "muitas_arvores": 77.78, "vao": 33.33, "V05400": 18, "V05421": 17, "V05406": 18, "V05412": 18, "V05422": 1, "V05424": 2, "V05427": 12, "V05409": 9, "V05415": 6, "V05418": 1, "V05430": 2, "V05433": 14, "criancas_0a4": 24, "em_favela": false }, "geometry": { "type": "Polygon", "coordinates": [ [ [ -46.594227, -23.543805 ], [ -46.59986, -23.544932 ], [ -46.600035, -23.544567 ], [ -46.598867, -23.54391 ], [ -46.599566, -23.543073 ], [ -46.596364, -23.541344 ], [ -46.594463, -23.54345 ], [ -46.594227, -23.543805 ] ] ] } },
{ "type": "Feature", "properties": { "CD_SETOR": "355030808000017", "faces": 21, "pavimentada": 100.0, "bueiro": 33.33, "iluminacao": 100.0, "onibus": 33.33, "ciclovia": 0.0, "calcada": 100.0, "obstaculo": 9.52, "rampa": 61.9, "rampa_faces": 61.9, "sem_calcada": 0.0, "sem_arvore": 19.05, "muitas_arvores": 23.81, "vao": 38.1, "V05400": 21, "V05421": 21, "V05406": 21, "V05412": 21, "V05422": 0, "V05424": 2, "V05427": 13, "V05409": 7, "V05415": 7, "V05418": 0, "V05430": 4, "V05433": 5, "criancas_0a4": 33, "em_favela": false }, "geometry": { "type": "Polygon", "coordinates": [ [ [ -46.596142, -23.539605 ], [ -46.597341, -23.540261 ], [ -46.596364, -23.541344 ], [ -46.598041, -23.54225 ], [ -46.599771, -23.540814 ], [ -46.598297, -23.539976 ], [ -46.599005, -23.538096 ], [ -46.598298, -23.538054 ], [ -46.596142, -23.539605 ] ] ] } },
{ "type": "Feature", "properties": { "CD_SETOR": "355030808000019", "faces": 7, "pavimentada": 100.0, "bueiro": 71.43, "iluminacao": 100.0, "onibus": 42.86, "ciclovia": 0.0, "calcada": 100.0, "obstaculo": 28.57, "rampa": 57.14, "rampa_faces": 57.14, "sem_calcada": 0.0, "sem_arvore": 28.57, "muitas_arvores": 14.29, "vao": 42.86, "V05400": 7, "V05421": 7, "V05406": 7, "V05412": 7, "V05422": 0, "V05424": 2, "V05427": 4, "V05409": 5, "V05415": 3, "V05418": 0, "V05430": 2, "V05433": 1, "criancas_0a4": 36, "em_favela": false }, "geometry": { "type": "Polygon", "coordinates": [ [ [ -46.5865, -23.537572 ], [ -46.587846, -23.537829 ], [ -46.588184, -23.536465 ], [ -46.586845, -23.536193 ], [ -46.5865, -23.537572 ] ] ] } },
{ "type": "Feature", "properties": { "CD_SETOR": "355030808000020", "faces": 7, "pavimentada": 100.0, "bueiro": 85.71, "iluminacao": 100.0, "onibus": 14.29, "ciclovia": 0.0, "calcada": 100.0, "obstaculo": 14.29, "rampa": 71.43, "rampa_faces": 71.43, "sem_calcada": 0.0, "sem_arvore": 14.29, "muitas_arvores": 28.57, "vao": 28.57, "V05400": 7, "V05421": 7, "V05406": 7, "V05412": 7, "V05422": 0, "V05424": 1, "V05427": 5, "V05409": 6, "V05415": 1, "V05418": 0, "V05430": 1, "V05433": 2, "criancas_0a4": 24, "em_favela": false }, "geometry": { "type": "Polygon", "coordinates": [ [ [ -46.5872, -23.540436 ], [ -46.589278, -23.54088 ], [ -46.589247, -23.539463 ], [ -46.587523, -23.539133 ], [ -46.5872, -23.540436 ] ] ] } },
{ "type": "Feature", "properties": { "CD_SETOR": "355030808000021", "faces": 20, "pavimentada": 100.0, "bueiro": 45.0, "iluminacao": 100.0, "onibus": 20.0, "ciclovia": 20.0, "calcada": 90.0, "obstaculo": 16.67, "rampa": 55.56, "rampa_faces": 50.0, "sem_calcada": 10.0, "sem_arvore": 5.0, "muitas_arvores": 35.0, "vao": 50.0, "V05400": 20, "V05421": 18, "V05406": 20, "V05412": 20, "V05422": 2, "V05424": 3, "V05427": 10, "V05409": 9, "V05415": 4, "V05418": 4, "V05430": 1, "V05433": 7, "criancas_0a4": 24, "em_favela": false }, "geometry": { "type": "Polygon", "coordinates": [ [ [ -46.582576, -23.544266 ], [ -46.584508, -23.546262 ], [ -46.586492, -23.548221 ], [ -46.587645, -23.54534 ], [ -46.586936, -23.545204 ], [ -46.586872, -23.545416 ], [ -46.585512, -23.545141 ], [ -46.586079, -23.544441 ], [ -46.583338, -23.543896 ], [ -46.582654, -23.543944 ], [ -46.582576, -23.544266 ] ] ] } },
{ "type": "Feature", "properties": { "CD_SETOR": "355030808000023", "faces": 27, "pavimentada": 100.0, "bueiro": 66.67, "iluminacao": 100.0, "onibus": 14.81, "ciclovia": 0.0, "calcada": 100.0, "obstaculo": 14.81, "rampa": 77.78, "rampa_faces": 77.78, "sem_calcada": 0.0, "sem_arvore": 18.52, "muitas_arvores": 51.85, "vao": 22.22, "V05400": 27, "V05421": 27, "V05406": 27, "V05412": 27, "V05422": 0, "V05424": 4, "V05427": 21, "V05409": 18, "V05415": 4, "V05418": 0, "V05430": 5, "V05433": 14, "criancas_0a4": 69, "em_favela": false }, "geometry": { "type": "Polygon", "coordinates": [ [ [ -46.598041, -23.54225 ], [ -46.599566, -23.543073 ], [ -46.598867, -23.54391 ], [ -46.600035, -23.544567 ], [ -46.59986, -23.544932 ], [ -46.600995, -23.545159 ], [ -46.601297, -23.544774 ], [ -46.604986, -23.541821 ], [ -46.603654, -23.541348 ], [ -46.601758, -23.542729 ], [ -46.599205, -23.541291 ], [ -46.598041, -23.54225 ] ] ] } },
{ "type": "Feature", "properties": { "CD_SETOR": "355030808000024", "faces": 16, "pavimentada": 100.0, "bueiro": 37.5, "iluminacao": 100.0, "onibus": 0.0, "ciclovia": 0.0, "calcada": 100.0, "obstaculo": 18.75, "rampa": 68.75, "rampa_faces": 68.75, "sem_calcada": 0.0, "sem_arvore": 12.5, "muitas_arvores": 56.25, "vao": 31.25, "V05400": 16, "V05421": 16, "V05406": 16, "V05412": 16, "V05422": 0, "V05424": 3, "V05427": 11, "V05409": 6, "V05415": 0, "V05418": 0, "V05430": 2, "V05433": 9, "criancas_0a4": 59, "em_favela": false }, "geometry": { "type": "Polygon", "coordinates": [ [ [ -46.601218, -23.540468 ], [ -46.59988, -23.541667 ], [ -46.601758, -23.542729 ], [ -46.603654, -23.541348 ], [ -46.604556, -23.541672 ], [ -46.604875, -23.53994 ], [ -46.603497, -23.539528 ], [ -46.602543, -23.540954 ], [ -46.601218, -23.540468 ] ] ] } },
{ "type": "Feature", "properties": { "CD_SETOR": "355030808000025", "faces": 12, "pavimentada": 100.0, "bueiro": 33.33, "iluminacao": 100.0, "onibus": 58.33, "ciclovia": 0.0, "calcada": 100.0, "obstaculo": 33.33, "rampa": 75.0, "rampa_faces": 75.0, "sem_calcada": 0.0, "sem_arvore": 16.67, "muitas_arvores": 33.33, "vao": 25.0, "V05400": 12, "V05421": 12, "V05406": 12, "V05412": 12, "V05422": 0, "V05424": 4, "V05427": 9, "V05409": 4, "V05415": 7, "V05418": 0, "V05430": 2, "V05433": 4, "criancas_0a4": 19, "em_favela": false }, "geometry": { "type": "Polygon", "coordinates": [ [ [ -46.599205, -23.541291 ], [ -46.59988, -23.541667 ], [ -46.601218, -23.540468 ], [ -46.600496, -23.540204 ], [ -46.60067, -23.539997 ], [ -46.601318, -23.538247 ], [ -46.599005, -23.538096 ], [ -46.598297, -23.539976 ], [ -46.599771, -23.540814 ], [ -46.599205, -23.541291 ] ] ] } },
{ "type": "Feature", "properties": { "CD_SETOR": "355030808000026", "faces": 16, "pavimentada": 100.0, "bueiro": 56.25, "iluminacao": 100.0, "onibus": 31.25, "ciclovia": 0.0, "calcada": 100.0, "obstaculo": 50.0, "rampa": 56.25, "rampa_faces": 56.25, "sem_calcada": 0.0, "sem_arvore": 75.0, "muitas_arvores": 12.5, "vao": 43.75, "V05400": 16, "V05421": 16, "V05406": 16, "V05412": 16, "V05422": 0, "V05424": 8, "V05427": 9, "V05409": 9, "V05415": 5, "V05418": 0, "V05430": 12, "V05433": 2, "criancas_0a4": 89, "em_favela": false }, "geometry": { "type": "Polygon", "coordinates": [ [ [ -46.599783, -23.535993 ], [ -46.598874, -23.538087 ], [ -46.602159, -23.538322 ], [ -46.602351, -23.536281 ], [ -46.601657, -23.536028 ], [ -46.601564, -23.535961 ], [ -46.601453, -23.53572 ], [ -46.601272, -23.536484 ], [ -46.599783, -23.535993 ] ] ] } },
{ "type": "Feature", "properties": { "CD_SETOR": "355030808000027", "faces": 15, "pavimentada": 100.0, "bueiro": 46.67, "iluminacao": 100.0, "onibus": 20.0, "ciclovia": 0.0, "calcada": 100.0, "obstaculo": 53.33, "rampa": 53.33, "rampa_faces": 53.33, "sem_calcada": 0.0, "sem_arvore": 66.67, "muitas_arvores": 6.67, "vao": 46.67, "V05400": 15, "V05421": 15, "V05406": 15, "V05412": 15, "V05422": 0, "V05424": 8, "V05427": 8, "V05409": 7, "V05415": 3, "V05418": 0, "V05430": 10, "V05433": 1, "criancas_0a4": 62, "em_favela": false }, "geometry": { "type": "Polygon", "coordinates": [ [ [ -46.600667, -23.534022 ], [ -46.599783, -23.535993 ], [ -46.601272, -23.536484 ], [ -46.601453, -23.53572 ], [ -46.601564, -23.535961 ], [ -46.601657, -23.536028 ], [ -46.602351, -23.536281 ], [ -46.602507, -23.534615 ], [ -46.600667, -23.534022 ] ] ] } },
{ "type": "Feature", "properties": { "CD_SETOR": "355030808000028", "faces": 19, "pavimentada": 100.0, "bueiro": 68.42, "iluminacao": 100.0, "onibus": 31.58, "ciclovia": 31.58, "calcada": 100.0, "obstaculo": 36.84, "rampa": 68.42, "rampa_faces": 68.42, "sem_calcada": 0.0, "sem_arvore": 31.58, "muitas_arvores": 31.58, "vao": 31.58, "V05400": 19, "V05421": 19, "V05406": 19, "V05412": 19, "V05422": 0, "V05424": 7, "V05427": 13, "V05409": 13, "V05415": 6, "V05418": 6, "V05430": 6, "V05433": 6, "criancas_0a4": 36, "em_favela": false }, "geometry": { "type": "Polygon", "coordinates": [ [ [ -46.600278, -23.532519 ], [ -46.600038, -23.533811 ], [ -46.602507, -23.534615 ], [ -46.603004, -23.529536 ], [ -46.602156, -23.529376 ], [ -46.6021, -23.530873 ], [ -46.601186, -23.532861 ], [ -46.600278, -23.532519 ] ] ] } },
{ "type": "Feature", "properties": { "CD_SETOR": "355030808000029", "faces": 17, "pavimentada": 100.0, "bueiro": 88.24, "iluminacao": 100.0, "onibus": 23.53, "ciclovia": 35.29, "calcada": 82.35, "obstaculo": 28.57, "rampa": 57.14, "rampa_faces": 47.06, "sem_calcada": 17.65, "sem_arvore": 17.65, "muitas_arvores": 41.18, "vao": 52.94, "V05400": 17, "V05421": 14, "V05406": 17, "V05412": 17, "V05422": 3, "V05424": 4, "V05427": 8, "V05409": 15, "V05415": 4, "V05418": 6, "V05430": 3, "V05433": 7, "criancas_0a4": 37, "em_favela": false }, "geometry": { "type": "Polygon", "coordinates": [ [ [ -46.600278, -23.532519 ], [ -46.601186, -23.532861 ], [ -46.602053, -23.531023 ], [ -46.602135, -23.530693 ], [ -46.602197, -23.528383 ], [ -46.599866, -23.527604 ], [ -46.599779, -23.527708 ], [ -46.599842, -23.527969 ], [ -46.599802, -23.528125 ], [ -46.599662, -23.528396 ], [ -46.598412, -23.52932 ], [ -46.599201, -23.53045 ], [ -46.599368, -23.530608 ], [ -46.600352, -23.530581 ], [ -46.600523, -23.531322 ], [ -46.600278, -23.532519 ] ] ] } },
{ "type": "Feature", "properties": { "CD_SETOR": "355030808000031", "faces": 16, "pavimentada": 100.0, "bueiro": 37.5, "iluminacao": 93.75, "onibus": 12.5, "ciclovia": 0.0, "calcada": 100.0, "obstaculo": 37.5, "rampa": 62.5, "rampa_faces": 62.5, "sem_calcada": 0.0, "sem_arvore": 37.5, "muitas_arvores": 18.75, "vao": 37.5, "V05400": 16, "V05421": 16, "V05406": 16, "V05412": 15, "V05422": 0, "V05424": 6, "V05427": 10, "V05409": 6, "V05415": 2, "V05418": 0, "V05430": 6, "V05433": 3, "criancas_0a4": 24, "em_favela": false }, "geometry": { "type": "Polygon", "coordinates": [ [ [ -46.583346, -23.536915 ], [ -46.5865, -23.537572 ], [ -46.586845, -23.536193 ], [ -46.583731, -23.535393 ], [ -46.583346, -23.536915 ] ] ] } },
{ "type": "Feature", "properties": { "CD_SETOR": "355030808000032", "faces": 12, "pavimentada": 100.0, "bueiro": 66.67, "iluminacao": 91.67, "onibus": 8.33, "ciclovia": 0.0, "calcada": 100.0, "obstaculo": 8.33, "rampa": 41.67, "rampa_faces": 41.67, "sem_calcada": 0.0, "sem_arvore": 8.33, "muitas_arvores": 16.67, "vao": 58.33, "V05400": 12, "V05421": 12, "V05406": 12, "V05412": 11, "V05422": 0, "V05424": 1, "V05427": 5, "V05409": 8, "V05415": 1, "V05418": 0, "V05430": 1, "V05433": 2, "criancas_0a4": 22, "em_favela": false }, "geometry": { "type": "Polygon", "coordinates": [ [ [ -46.582696, -23.539484 ], [ -46.583402, -23.539633 ], [ -46.58385, -23.537851 ], [ -46.58521, -23.538121 ], [ -46.585397, -23.537338 ], [ -46.583346, -23.536915 ], [ -46.582696, -23.539484 ] ] ] } },
{ "type": "Feature", "properties": { "CD_SETOR": "355030808000033", "faces": 26, "pavimentada": 100.0, "bueiro": 61.54, "iluminacao": 100.0, "onibus": 3.85, "ciclovia": 3.85, "calcada": 100.0, "obstaculo": 11.54, "rampa": 53.85, "rampa_faces": 53.85, "sem_calcada": 0.0, "sem_arvore": 30.77, "muitas_arvores": 19.23, "vao": 46.15, "V05400": 26, "V05421": 26, "V05406": 26, "V05412": 26, "V05422": 0, "V05424": 3, "V05427": 14, "V05409": 16, "V05415": 1, "V05418": 1, "V05430": 8, "V05433": 5, "criancas_0a4": 24, "em_favela": false }, "geometry": { "type": "Polygon", "coordinates": [ [ [ -46.583402, -23.539633 ], [ -46.5872, -23.540436 ], [ -46.587523, -23.539133 ], [ -46.585093, -23.53866 ], [ -46.58521, -23.538121 ], [ -46.58385, -23.537851 ], [ -46.583402, -23.539633 ] ] ] } },
{ "type": "Feature", "properties": { "CD_SETOR": "355030808000034", "faces": 24, "pavimentada": 100.0, "bueiro": 79.17, "iluminacao": 100.0, "onibus": 8.33, "ciclovia": 0.0, "calcada": 100.0, "obstaculo": 4.17, "rampa": 79.17, "rampa_faces": 79.17, "sem_calcada": 0.0, "sem_arvore": 29.17, "muitas_arvores": 29.17, "vao": 20.83, "V05400": 24, "V05421": 24, "V05406": 24, "V05412": 24, "V05422": 0, "V05424": 1, "V05427": 19, "V05409": 19, "V05415": 2, "V05418": 0, "V05430": 7, "V05433": 7, "criancas_0a4": 73, "em_favela": false }, "geometry": { "type": "Polygon", "coordinates": [ [ [ -46.581724, -23.540407 ], [ -46.586956, -23.541445 ], [ -46.5872, -23.540436 ], [ -46.581998, -23.539337 ], [ -46.581724, -23.540407 ] ] ] } },
{ "type": "Feature", "properties": { "CD_SETOR": "355030808000035", "faces": 30, "pavimentada": 100.0, "bueiro": 63.33, "iluminacao": 100.0, "onibus": 23.33, "ciclovia": 0.0, "calcada": 90.0, "obstaculo": 48.15, "rampa": 48.15, "rampa_faces": 43.33, "sem_calcada": 10.0, "sem_arvore": 13.33, "muitas_arvores": 66.67, "vao": 56.67, "V05400": 30, "V05421": 27, "V05406": 30, "V05412": 30, "V05422": 3, "V05424": 13, "V05427": 13, "V05409": 19, "V05415": 7, "V05418": 0, "V05430": 4, "V05433": 20, "criancas_0a4": 22, "em_favela": false }, "geometry": { "type": "Polygon", "coordinates": [ [ [ -46.580198, -23.543411 ], [ -46.579143, -23.548151 ], [ -46.578843, -23.549299 ], [ -46.580656, -23.549962 ], [ -46.581482, -23.548951 ], [ -46.582276, -23.549765 ], [ -46.583847, -23.548467 ], [ -46.583779, -23.548397 ], [ -46.585354, -23.547099 ], [ -46.581746, -23.543423 ], [ -46.581141, -23.543173 ], [ -46.580429, -23.543104 ], [ -46.580198, -23.543411 ] ] ] } },
{ "type": "Feature", "properties": { "CD_SETOR": "355030808000036", "faces": 17, "pavimentada": 100.0, "bueiro": 11.76, "iluminacao": 100.0, "onibus": 11.76, "ciclovia": 5.88, "calcada": 88.24, "obstaculo": 46.67, "rampa": 6.67, "rampa_faces": 5.88, "sem_calcada": 11.76, "sem_arvore": 29.41, "muitas_arvores": 29.41, "vao": 94.12, "V05400": 17, "V05421": 15, "V05406": 17, "V05412": 17, "V05422": 2, "V05424": 7, "V05427": 1, "V05409": 2, "V05415": 2, "V05418": 1, "V05430": 5, "V05433": 5, "criancas_0a4": 14, "em_favela": false }, "geometry": { "type": "Polygon", "coordinates": [ [ [ -46.583779, -23.548397 ], [ -46.584902, -23.549512 ], [ -46.586492, -23.548221 ], [ -46.585354, -23.547099 ], [ -46.583779, -23.548397 ] ] ] } },
{ "type": "Feature", "properties": { "CD_SETOR": "355030808000037", "faces": 24, "pavimentada": 100.0, "bueiro": 25.0, "iluminacao": 91.67, "onibus": 29.17, "ciclovia": 25.0, "calcada": 66.67, "obstaculo": 50.0, "rampa": 6.25, "rampa_faces": 4.17, "sem_calcada": 33.33, "sem_arvore": 29.17, "muitas_arvores": 29.17, "vao": 95.83, "V05400": 24, "V05421": 16, "V05406": 24, "V05412": 22, "V05422": 8, "V05424": 8, "V05427": 1, "V05409": 6, "V05415": 7, "V05418": 6, "V05430": 7, "V05433": 7, "criancas_0a4": 20, "em_favela": false }, "geometry": { "type": "Polygon", "coordinates": [ [ [ -46.584902, -23.549512 ], [ -46.586741, -23.551424 ], [ -46.587721, -23.5506 ], [ -46.587063, -23.549904 ], [ -46.587647, -23.549432 ], [ -46.586492, -23.548221 ], [ -46.584902, -23.549512 ] ] ] } },
{ "type": "Feature", "properties": { "CD_SETOR": "355030808000040", "faces": 23, "pavimentada": 100.0, "bueiro": 73.91, "iluminacao": 100.0, "onibus": 17.39, "ciclovia": 8.7, "calcada": 100.0, "obstaculo": 21.74, "rampa": 82.61, "rampa_faces": 82.61, "sem_calcada": 0.0, "sem_arvore": 43.48, "muitas_arvores": 17.39, "vao": 17.39, "V05400": 23, "V05421": 23, "V05406": 23, "V05412": 23, "V05422": 0, "V05424": 5, "V05427": 19, "V05409": 17, "V05415": 4, "V05418": 2, "V05430": 10, "V05433": 4, "criancas_0a4": 67, "em_favela": false }, "geometry": { "type": "Polygon", "coordinates": [ [ [ -46.604714, -23.540812 ], [ -46.604556, -23.541672 ], [ -46.604986, -23.541821 ], [ -46.604326, -23.542349 ], [ -46.606338, -23.543118 ], [ -46.606131, -23.543445 ], [ -46.606861, -23.542855 ], [ -46.607049, -23.542566 ], [ -46.607556, -23.540743 ], [ -46.606359, -23.540385 ], [ -46.606211, -23.541237 ], [ -46.604714, -23.540812 ] ] ] } },
{ "type": "Feature", "properties": { "CD_SETOR": "355030808000041", "faces": 18, "pavimentada": 100.0, "bueiro": 38.89, "iluminacao": 100.0, "onibus": 11.11, "ciclovia": 0.0, "calcada": 100.0, "obstaculo": 50.0, "rampa": 61.11, "rampa_faces": 61.11, "sem_calcada": 0.0, "sem_arvore": 27.78, "muitas_arvores": 27.78, "vao": 38.89, "V05400": 18, "V05421": 18, "V05406": 18, "V05412": 18, "V05422": 0, "V05424": 9, "V05427": 11, "V05409": 7, "V05415": 2, "V05418": 0, "V05430": 5, "V05433": 5, "criancas_0a4": 54, "em_favela": false }, "geometry": { "type": "Polygon", "coordinates": [ [ [ -46.600496, -23.540204 ], [ -46.602543, -23.540954 ], [ -46.603497, -23.539528 ], [ -46.604875, -23.53994 ], [ -46.605091, -23.538768 ], [ -46.602159, -23.538322 ], [ -46.601318, -23.538247 ], [ -46.60067, -23.539997 ], [ -46.600496, -23.540204 ] ] ] } },
{ "type": "Feature", "properties": { "CD_SETOR": "355030808000043", "faces": 4, "pavimentada": 100.0, "bueiro": 100.0, "iluminacao": 100.0, "onibus": 50.0, "ciclovia": 0.0, "calcada": 100.0, "obstaculo": 50.0, "rampa": 100.0, "rampa_faces": 100.0, "sem_calcada": 0.0, "sem_arvore": 25.0, "muitas_arvores": 25.0, "vao": 0.0, "V05400": 4, "V05421": 4, "V05406": 4, "V05412": 4, "V05422": 0, "V05424": 2, "V05427": 4, "V05409": 4, "V05415": 2, "V05418": 0, "V05430": 1, "V05433": 1, "criancas_0a4": 29, "em_favela": false }, "geometry": { "type": "Polygon", "coordinates": [ [ [ -46.602507, -23.534615 ], [ -46.602159, -23.538322 ], [ -46.602828, -23.538424 ], [ -46.60335, -23.534556 ], [ -46.602507, -23.534615 ] ] ] } },
{ "type": "Feature", "properties": { "CD_SETOR": "355030808000044", "faces": 25, "pavimentada": 96.0, "bueiro": 68.0, "iluminacao": 96.0, "onibus": 28.0, "ciclovia": 12.0, "calcada": 96.0, "obstaculo": 25.0, "rampa": 75.0, "rampa_faces": 72.0, "sem_calcada": 0.0, "sem_arvore": 20.0, "muitas_arvores": 32.0, "vao": 24.0, "V05400": 25, "V05421": 24, "V05406": 24, "V05412": 24, "V05422": 0, "V05424": 6, "V05427": 18, "V05409": 17, "V05415": 7, "V05418": 3, "V05430": 5, "V05433": 8, "criancas_0a4": 68, "em_favela": false }, "geometry": { "type": "Polygon", "coordinates": [ [ [ -46.605017, -23.527576 ], [ -46.603004, -23.529536 ], [ -46.602507, -23.534615 ], [ -46.60335, -23.534556 ], [ -46.603027, -23.537023 ], [ -46.605261, -23.537199 ], [ -46.605063, -23.536352 ], [ -46.604857, -23.536332 ], [ -46.604653, -23.534387 ], [ -46.604964, -23.530014 ], [ -46.605127, -23.52967 ], [ -46.60619, -23.528563 ], [ -46.605017, -23.527576 ] ] ] } },
{ "type": "Feature", "properties": { "CD_SETOR": "355030808000045", "faces": 19, "pavimentada": 100.0, "bueiro": 73.68, "iluminacao": 100.0, "onibus": 0.0, "ciclovia": 0.0, "calcada": 73.68, "obstaculo": 42.86, "rampa": 14.29, "rampa_faces": 10.53, "sem_calcada": 26.32, "sem_arvore": 57.89, "muitas_arvores": 10.53, "vao": 89.47, "V05400": 19, "V05421": 14, "V05406": 19, "V05412": 19, "V05422": 5, "V05424": 6, "V05427": 2, "V05409": 14, "V05415": 0, "V05418": 0, "V05430": 11, "V05433": 2, "criancas_0a4": 25, "em_favela": false }, "geometry": { "type": "Polygon", "coordinates": [ [ [ -46.603225, -23.523017 ], [ -46.603583, -23.52382 ], [ -46.603411, -23.525613 ], [ -46.606195, -23.526463 ], [ -46.607066, -23.523001 ], [ -46.605851, -23.522776 ], [ -46.605231, -23.522718 ], [ -46.604441, -23.522751 ], [ -46.603225, -23.523017 ] ] ] } },
{ "type": "Feature", "properties": { "CD_SETOR": "355030808000046", "faces": 31, "pavimentada": 100.0, "bueiro": 90.32, "iluminacao": 100.0, "onibus": 0.0, "ciclovia": 3.23, "calcada": 96.77, "obstaculo": 10.0, "rampa": 60.0, "rampa_faces": 58.06, "sem_calcada": 3.23, "sem_arvore": 51.61, "muitas_arvores": 12.9, "vao": 41.94, "V05400": 31, "V05421": 30, "V05406": 31, "V05412": 31, "V05422": 1, "V05424": 3, "V05427": 18, "V05409": 28, "V05415": 0, "V05418": 1, "V05430": 16, "V05433": 4, "criancas_0a4": 24, "em_favela": false }, "geometry": { "type": "Polygon", "coordinates": [ [ [ -46.582815, -23.535275 ], [ -46.582077, -23.538131 ], [ -46.581964, -23.538356 ], [ -46.581344, -23.539201 ], [ -46.581228, -23.539449 ], [ -46.580818, -23.540893 ], [ -46.582427, -23.541223 ], [ -46.582443, -23.541032 ], [ -46.582375, -23.540833 ], [ -46.582459, -23.54054 ], [ -46.581724, -23.540407 ], [ -46.581998, -23.539337 ], [ -46.582696, -23.539484 ], [ -46.583731, -23.535393 ], [ -46.582815, -23.535275 ] ] ] } },
{ "type": "Feature", "properties": { "CD_SETOR": "355030808000047", "faces": 12, "pavimentada": 100.0, "bueiro": 75.0, "iluminacao": 100.0, "onibus": 25.0, "ciclovia": 0.0, "calcada": 100.0, "obstaculo": 58.33, "rampa": 50.0, "rampa_faces": 50.0, "sem_calcada": 0.0, "sem_arvore": 16.67, "muitas_arvores": 16.67, "vao": 50.0, "V05400": 12, "V05421": 12, "V05406": 12, "V05412": 12, "V05422": 0, "V05424": 7, "V05427": 6, "V05409": 9, "V05415": 3, "V05418": 0, "V05430": 2, "V05433": 2, "criancas_0a4": 25, "em_favela": false }, "geometry": { "type": "Polygon", "coordinates": [ [ [ -46.581482, -23.548951 ], [ -46.580589, -23.550047 ], [ -46.582195, -23.551714 ], [ -46.583294, -23.550802 ], [ -46.582748, -23.55025 ], [ -46.584327, -23.548954 ], [ -46.583847, -23.548467 ], [ -46.582276, -23.549765 ], [ -46.581482, -23.548951 ] ] ] } },
{ "type": "Feature", "properties": { "CD_SETOR": "355030808000048", "faces": 8, "pavimentada": 100.0, "bueiro": 25.0, "iluminacao": 100.0, "onibus": 37.5, "ciclovia": 25.0, "calcada": 100.0, "obstaculo": 50.0, "rampa": 87.5, "rampa_faces": 87.5, "sem_calcada": 0.0, "sem_arvore": 50.0, "muitas_arvores": 37.5, "vao": 12.5, "V05400": 8, "V05421": 8, "V05406": 8, "V05412": 8, "V05422": 0, "V05424": 4, "V05427": 7, "V05409": 2, "V05415": 3, "V05418": 2, "V05430": 4, "V05433": 3, "criancas_0a4": 12, "em_favela": false }, "geometry": { "type": "Polygon", "coordinates": [ [ [ -46.582195, -23.551714 ], [ -46.584107, -23.553643 ], [ -46.58519, -23.552715 ], [ -46.583294, -23.550802 ], [ -46.582195, -23.551714 ] ] ] } },
{ "type": "Feature", "properties": { "CD_SETOR": "355030808000049", "faces": 23, "pavimentada": 100.0, "bueiro": 17.39, "iluminacao": 100.0, "onibus": 26.09, "ciclovia": 17.39, "calcada": 82.61, "obstaculo": 36.84, "rampa": 47.37, "rampa_faces": 39.13, "sem_calcada": 17.39, "sem_arvore": 34.78, "muitas_arvores": 30.43, "vao": 60.87, "V05400": 23, "V05421": 19, "V05406": 23, "V05412": 23, "V05422": 4, "V05424": 7, "V05427": 9, "V05409": 4, "V05415": 6, "V05418": 4, "V05430": 8, "V05433": 7, "criancas_0a4": 32, "em_favela": false }, "geometry": { "type": "Polygon", "coordinates": [ [ [ -46.582748, -23.55025 ], [ -46.58519, -23.552715 ], [ -46.586741, -23.551424 ], [ -46.584327, -23.548954 ], [ -46.582748, -23.55025 ] ] ] } },
{ "type": "Feature", "properties": { "CD_SETOR": "355030808000050", "faces": 18, "pavimentada": 100.0, "bueiro": 22.22, "iluminacao": 100.0, "onibus": 22.22, "ciclovia": 16.67, "calcada": 94.44, "obstaculo": 41.18, "rampa": 23.53, "rampa_faces": 22.22, "sem_calcada": 5.56, "sem_arvore": 66.67, "muitas_arvores": 5.56, "vao": 77.78, "V05400": 18, "V05421": 17, "V05406": 18, "V05412": 18, "V05422": 1, "V05424": 7, "V05427": 4, "V05409": 4, "V05415": 4, "V05418": 3, "V05430": 12, "V05433": 1, "criancas_0a4": 21, "em_favela": false }, "geometry": { "type": "Polygon", "coordinates": [ [ [ -46.587183, -23.548956 ], [ -46.587647, -23.549432 ], [ -46.587063, -23.549904 ], [ -46.587721, -23.5506 ], [ -46.58836, -23.550058 ], [ -46.589674, -23.548631 ], [ -46.589181, -23.54821 ], [ -46.588665, -23.548785 ], [ -46.58817, -23.548324 ], [ -46.587183, -23.548956 ] ] ] } },
{ "type": "Feature", "properties": { "CD_SETOR": "355030808000051", "faces": 9, "pavimentada": 100.0, "bueiro": 88.89, "iluminacao": 100.0, "onibus": 44.44, "ciclovia": 0.0, "calcada": 100.0, "obstaculo": 0.0, "rampa": 88.89, "rampa_faces": 88.89, "sem_calcada": 0.0, "sem_arvore": 55.56, "muitas_arvores": 0.0, "vao": 11.11, "V05400": 9, "V05421": 9, "V05406": 9, "V05412": 9, "V05422": 0, "V05424": 0, "V05427": 8, "V05409": 8, "V05415": 4, "V05418": 0, "V05430": 5, "V05433": 0, "criancas_0a4": 14, "em_favela": false }, "geometry": { "type": "Polygon", "coordinates": [ [ [ -46.606359, -23.540385 ], [ -46.607556, -23.540743 ], [ -46.608288, -23.538179 ], [ -46.606958, -23.537844 ], [ -46.606604, -23.538985 ], [ -46.606359, -23.540385 ] ], [ [ -46.606899, -23.539918 ], [ -46.607058, -23.539052 ], [ -46.607347, -23.539091 ], [ -46.607274, -23.539498 ], [ -46.607541, -23.539564 ], [ -46.607405, -23.540034 ], [ -46.606899, -23.539918 ] ] ] } },
{ "type": "Feature", "properties": { "CD_SETOR": "355030808000052", "faces": 1, "pavimentada": 100.0, "bueiro": 100.0, "iluminacao": 100.0, "onibus": 100.0, "ciclovia": 0.0, "calcada": 100.0, "obstaculo": 0.0, "rampa": 0.0, "rampa_faces": 0.0, "sem_calcada": 0.0, "sem_arvore": 100.0, "muitas_arvores": 0.0, "vao": 100.0, "V05400": 1, "V05421": 1, "V05406": 1, "V05412": 1, "V05422": 0, "V05424": 0, "V05427": 0, "V05409": 1, "V05415": 1, "V05418": 0, "V05430": 1, "V05433": 0, "criancas_0a4": 31, "em_favela": false }, "geometry": { "type": "Polygon", "coordinates": [ [ [ -46.606899, -23.539918 ], [ -46.607405, -23.540034 ], [ -46.607541, -23.539564 ], [ -46.607274, -23.539498 ], [ -46.607347, -23.539091 ], [ -46.607058, -23.539052 ], [ -46.606899, -23.539918 ] ] ] } },
{ "type": "Feature", "properties": { "CD_SETOR": "355030808000053", "faces": 16, "pavimentada": 100.0, "bueiro": 93.75, "iluminacao": 100.0, "onibus": 25.0, "ciclovia": 0.0, "calcada": 100.0, "obstaculo": 43.75, "rampa": 87.5, "rampa_faces": 87.5, "sem_calcada": 0.0, "sem_arvore": 56.25, "muitas_arvores": 25.0, "vao": 12.5, "V05400": 16, "V05421": 16, "V05406": 16, "V05412": 16, "V05422": 0, "V05424": 7, "V05427": 14, "V05409": 15, "V05415": 4, "V05418": 0, "V05430": 9, "V05433": 4, "criancas_0a4": 43, "em_favela": false }, "geometry": { "type": "Polygon", "coordinates": [ [ [ -46.605063, -23.536352 ], [ -46.605644, -23.538847 ], [ -46.605091, -23.538768 ], [ -46.604714, -23.540812 ], [ -46.606211, -23.541237 ], [ -46.606604, -23.538985 ], [ -46.607441, -23.536285 ], [ -46.606252, -23.535971 ], [ -46.605423, -23.536307 ], [ -46.605063, -23.536352 ] ] ] } },
{ "type": "Feature", "properties": { "CD_SETOR": "355030808000054", "faces": 23, "pavimentada": 100.0, "bueiro": 52.17, "iluminacao": 100.0, "onibus": 21.74, "ciclovia": 0.0, "calcada": 91.3, "obstaculo": 47.62, "rampa": 33.33, "rampa_faces": 30.43, "sem_calcada": 8.7, "sem_arvore": 13.04, "muitas_arvores": 43.48, "vao": 69.57, "V05400": 23, "V05421": 21, "V05406": 23, "V05412": 23, "V05422": 2, "V05424": 10, "V05427": 7, "V05409": 12, "V05415": 5, "V05418": 0, "V05430": 3, "V05433": 10, "criancas_0a4": 20, "em_favela": false }, "geometry": { "type": "Polygon", "coordinates": [ [ [ -46.604653, -23.534387 ], [ -46.604857, -23.536332 ], [ -46.605423, -23.536307 ], [ -46.606252, -23.535971 ], [ -46.607441, -23.536285 ], [ -46.607499, -23.536098 ], [ -46.608541, -23.535201 ], [ -46.606456, -23.533152 ], [ -46.605253, -23.534135 ], [ -46.604653, -23.534387 ] ] ] } },
{ "type": "Feature", "properties": { "CD_SETOR": "355030808000055", "faces": 27, "pavimentada": 96.3, "bueiro": 55.56, "iluminacao": 96.3, "onibus": 25.93, "ciclovia": 14.81, "calcada": 70.37, "obstaculo": 47.37, "rampa": 26.32, "rampa_faces": 18.52, "sem_calcada": 25.93, "sem_arvore": 55.56, "muitas_arvores": 22.22, "vao": 77.78, "V05400": 27, "V05421": 19, "V05406": 26, "V05412": 26, "V05422": 7, "V05424": 9, "V05427": 5, "V05409": 15, "V05415": 7, "V05418": 4, "V05430": 15, "V05433": 6, "criancas_0a4": 40, "em_favela": false }, "geometry": { "type": "Polygon", "coordinates": [ [ [ -46.604324, -23.528223 ], [ -46.605017, -23.527576 ], [ -46.60619, -23.528563 ], [ -46.605127, -23.52967 ], [ -46.604964, -23.530014 ], [ -46.604653, -23.534387 ], [ -46.605253, -23.534135 ], [ -46.609525, -23.530645 ], [ -46.605745, -23.526895 ], [ -46.606195, -23.526463 ], [ -46.603411, -23.525613 ], [ -46.60276, -23.526746 ], [ -46.603329, -23.527124 ], [ -46.603305, -23.527427 ], [ -46.604324, -23.528223 ] ] ] } },
{ "type": "Feature", "properties": { "CD_SETOR": "355030808000056", "faces": 4, "pavimentada": 100.0, "bueiro": 50.0, "iluminacao": 100.0, "onibus": 25.0, "ciclovia": 0.0, "calcada": 100.0, "obstaculo": 25.0, "rampa": 0.0, "rampa_faces": 0.0, "sem_calcada": 0.0, "sem_arvore": 25.0, "muitas_arvores": 25.0, "vao": 100.0, "V05400": 4, "V05421": 4, "V05406": 4, "V05412": 4, "V05422": 0, "V05424": 1, "V05427": 0, "V05409": 2, "V05415": 1, "V05418": 0, "V05430": 1, "V05433": 1, "criancas_0a4": 3, "em_favela": false }, "geometry": { "type": "Polygon", "coordinates": [ [ [ -46.581659, -23.552154 ], [ -46.582195, -23.551714 ], [ -46.580589, -23.550047 ], [ -46.580162, -23.550715 ], [ -46.581659, -23.552154 ] ] ] } },
{ "type": "Feature", "properties": { "CD_SETOR": "355030808000057", "faces": 4, "pavimentada": 100.0, "bueiro": 50.0, "iluminacao": 100.0, "onibus": 50.0, "ciclovia": 25.0, "calcada": 100.0, "obstaculo": 50.0, "rampa": 75.0, "rampa_faces": 75.0, "sem_calcada": 0.0, "sem_arvore": 25.0, "muitas_arvores": 50.0, "vao": 25.0, "V05400": 4, "V05421": 4, "V05406": 4, "V05412": 4, "V05422": 0, "V05424": 2, "V05427": 3, "V05409": 2, "V05415": 2, "V05418": 1, "V05430": 1, "V05433": 2, "criancas_0a4": 9, "em_favela": false }, "geometry": { "type": "Polygon", "coordinates": [ [ [ -46.581659, -23.552154 ], [ -46.583664, -23.554021 ], [ -46.584107, -23.553643 ], [ -46.582195, -23.551714 ], [ -46.581659, -23.552154 ] ] ] } },
{ "type": "Feature", "properties": { "CD_SETOR": "355030808000058", "faces": 19, "pavimentada": 100.0, "bueiro": 100.0, "iluminacao": 100.0, "onibus": 26.32, "ciclovia": 0.0, "calcada": 100.0, "obstaculo": 15.79, "rampa": 84.21, "rampa_faces": 84.21, "sem_calcada": 0.0, "sem_arvore": 26.32, "muitas_arvores": 15.79, "vao": 15.79, "V05400": 19, "V05421": 19, "V05406": 19, "V05412": 19, "V05422": 0, "V05424": 3, "V05427": 16, "V05409": 19, "V05415": 5, "V05418": 0, "V05430": 5, "V05433": 3, "criancas_0a4": 27, "em_favela": false }, "geometry": { "type": "Polygon", "coordinates": [ [ [ -46.609881, -23.534048 ], [ -46.607499, -23.536098 ], [ -46.606958, -23.537844 ], [ -46.608288, -23.538179 ], [ -46.608623, -23.537042 ], [ -46.610835, -23.535103 ], [ -46.610839, -23.535028 ], [ -46.609881, -23.534048 ] ] ] } },
{ "type": "Feature", "properties": { "CD_SETOR": "355030808000059", "faces": 20, "pavimentada": 100.0, "bueiro": 70.0, "iluminacao": 100.0, "onibus": 35.0, "ciclovia": 0.0, "calcada": 100.0, "obstaculo": 40.0, "rampa": 55.0, "rampa_faces": 55.0, "sem_calcada": 0.0, "sem_arvore": 25.0, "muitas_arvores": 20.0, "vao": 45.0, "V05400": 20, "V05421": 20, "V05406": 20, "V05412": 20, "V05422": 0, "V05424": 8, "V05427": 11, "V05409": 14, "V05415": 7, "V05418": 0, "V05430": 5, "V05433": 4, "criancas_0a4": 29, "em_favela": false }, "geometry": { "type": "Polygon", "coordinates": [ [ [ -46.608701, -23.531318 ], [ -46.609699, -23.532314 ], [ -46.608864, -23.533033 ], [ -46.61081, -23.534959 ], [ -46.610835, -23.535103 ], [ -46.612544, -23.533614 ], [ -46.609525, -23.530645 ], [ -46.608701, -23.531318 ] ] ] } },
{ "type": "Feature", "properties": { "CD_SETOR": "355030808000060", "faces": 20, "pavimentada": 100.0, "bueiro": 80.0, "iluminacao": 100.0, "onibus": 25.0, "ciclovia": 0.0, "calcada": 100.0, "obstaculo": 50.0, "rampa": 45.0, "rampa_faces": 45.0, "sem_calcada": 0.0, "sem_arvore": 15.0, "muitas_arvores": 25.0, "vao": 55.0, "V05400": 20, "V05421": 20, "V05406": 20, "V05412": 20, "V05422": 0, "V05424": 10, "V05427": 9, "V05409": 16, "V05415": 5, "V05418": 0, "V05430": 3, "V05433": 5, "criancas_0a4": 30, "em_favela": false }, "geometry": { "type": "Polygon", "coordinates": [ [ [ -46.606456, -23.533152 ], [ -46.608541, -23.535201 ], [ -46.609881, -23.534048 ], [ -46.608864, -23.533033 ], [ -46.609699, -23.532314 ], [ -46.608701, -23.531318 ], [ -46.606456, -23.533152 ] ] ] } },
{ "type": "Feature", "properties": { "CD_SETOR": "355030808000061", "faces": 1, "pavimentada": 100.0, "bueiro": 100.0, "iluminacao": 100.0, "onibus": 0.0, "ciclovia": 0.0, "calcada": 100.0, "obstaculo": 0.0, "rampa": 0.0, "rampa_faces": 0.0, "sem_calcada": 0.0, "sem_arvore": 0.0, "muitas_arvores": 100.0, "vao": 100.0, "V05400": 1, "V05421": 1, "V05406": 1, "V05412": 1, "V05422": 0, "V05424": 0, "V05427": 0, "V05409": 1, "V05415": 0, "V05418": 0, "V05430": 0, "V05433": 1, "criancas_0a4": 37, "em_favela": false }, "geometry": { "type": "Polygon", "coordinates": [ [ [ -46.593209, -23.536019 ], [ -46.593092, -23.537088 ], [ -46.593467, -23.537126 ], [ -46.593532, -23.536681 ], [ -46.594129, -23.536755 ], [ -46.594215, -23.535979 ], [ -46.593658, -23.53591 ], [ -46.593638, -23.536057 ], [ -46.593209, -23.536019 ] ] ] } },
{ "type": "Feature", "properties": { "CD_SETOR": "355030808000062", "faces": 1, "pavimentada": 100.0, "bueiro": 0.0, "iluminacao": 100.0, "onibus": 0.0, "ciclovia": 0.0, "calcada": 100.0, "obstaculo": 0.0, "rampa": 0.0, "rampa_faces": 0.0, "sem_calcada": 0.0, "sem_arvore": 0.0, "muitas_arvores": 100.0, "vao": 100.0, "V05400": 1, "V05421": 1, "V05406": 1, "V05412": 1, "V05422": 0, "V05424": 0, "V05427": 0, "V05409": 0, "V05415": 0, "V05418": 0, "V05430": 0, "V05433": 1, "criancas_0a4": 9, "em_favela": false }, "geometry": { "type": "Polygon", "coordinates": [ [ [ -46.593419, -23.535374 ], [ -46.593239, -23.53572 ], [ -46.593209, -23.536019 ], [ -46.593638, -23.536057 ], [ -46.593658, -23.53591 ], [ -46.594215, -23.535979 ], [ -46.594251, -23.535594 ], [ -46.594308, -23.5356 ], [ -46.594326, -23.535467 ], [ -46.593419, -23.535374 ] ] ] } },
{ "type": "Feature", "properties": { "CD_SETOR": "355030808000063", "faces": 1, "pavimentada": 100.0, "bueiro": 0.0, "iluminacao": 100.0, "onibus": 0.0, "ciclovia": 100.0, "calcada": 100.0, "obstaculo": 0.0, "rampa": 0.0, "rampa_faces": 0.0, "sem_calcada": 0.0, "sem_arvore": 0.0, "muitas_arvores": 100.0, "vao": 100.0, "V05400": 1, "V05421": 1, "V05406": 1, "V05412": 1, "V05422": 0, "V05424": 0, "V05427": 0, "V05409": 0, "V05415": 0, "V05418": 1, "V05430": 0, "V05433": 1, "criancas_0a4": 25, "em_favela": false }, "geometry": { "type": "Polygon", "coordinates": [ [ [ -46.593498, -23.534746 ], [ -46.593419, -23.535374 ], [ -46.594326, -23.535467 ], [ -46.594406, -23.535006 ], [ -46.593908, -23.534944 ], [ -46.593922, -23.534795 ], [ -46.593498, -23.534746 ] ] ] } },
{ "type": "Feature", "properties": { "CD_SETOR": "355030808000064", "faces": 1, "pavimentada": 100.0, "bueiro": 0.0, "iluminacao": 100.0, "onibus": 0.0, "ciclovia": 0.0, "calcada": 100.0, "obstaculo": 0.0, "rampa": 0.0, "rampa_faces": 0.0, "sem_calcada": 0.0, "sem_arvore": 0.0, "muitas_arvores": 100.0, "vao": 100.0, "V05400": 1, "V05421": 1, "V05406": 1, "V05412": 1, "V05422": 0, "V05424": 0, "V05427": 0, "V05409": 0, "V05415": 0, "V05418": 0, "V05430": 0, "V05433": 1, "criancas_0a4": 20, "em_favela": false }, "geometry": { "type": "Polygon", "coordinates": [ [ [ -46.593617, -23.533899 ], [ -46.593498, -23.534746 ], [ -46.593922, -23.534795 ], [ -46.593908, -23.534944 ], [ -46.594406, -23.535006 ], [ -46.594571, -23.534053 ], [ -46.594426, -23.533712 ], [ -46.593617, -23.533899 ] ] ] } },
{ "type": "Feature", "properties": { "CD_SETOR": "355030808000065", "faces": 2, "pavimentada": 100.0, "bueiro": 100.0, "iluminacao": 100.0, "onibus": 50.0, "ciclovia": 0.0, "calcada": 100.0, "obstaculo": 50.0, "rampa": 50.0, "rampa_faces": 50.0, "sem_calcada": 0.0, "sem_arvore": 100.0, "muitas_arvores": 0.0, "vao": 50.0, "V05400": 2, "V05421": 2, "V05406": 2, "V05412": 2, "V05422": 0, "V05424": 1, "V05427": 1, "V05409": 2, "V05415": 1, "V05418": 0, "V05430": 2, "V05433": 0, "criancas_0a4": 79, "em_favela": true }, "geometry": { "type": "Polygon", "coordinates": [ [ [ -46.591524, -23.536952 ], [ -46.592266, -23.537009 ], [ -46.592366, -23.53607 ], [ -46.591633, -23.536013 ], [ -46.591524, -23.536952 ] ] ] } },
{ "type": "Feature", "properties": { "CD_SETOR": "355030808000066", "faces": 17, "pavimentada": 100.0, "bueiro": 58.82, "iluminacao": 76.47, "onibus": 0.0, "ciclovia": 0.0, "calcada": 88.24, "obstaculo": 13.33, "rampa": 26.67, "rampa_faces": 23.53, "sem_calcada": 11.76, "sem_arvore": 41.18, "muitas_arvores": 5.88, "vao": 76.47, "V05400": 17, "V05421": 15, "V05406": 17, "V05412": 13, "V05422": 2, "V05424": 2, "V05427": 4, "V05409": 10, "V05415": 0, "V05418": 0, "V05430": 7, "V05433": 1, "criancas_0a4": 21, "em_favela": false }, "geometry": { "type": "Polygon", "coordinates": [ [ [ -46.585397, -23.537338 ], [ -46.585093, -23.53866 ], [ -46.587523, -23.539133 ], [ -46.587846, -23.537829 ], [ -46.585397, -23.537338 ] ] ] } },
{ "type": "Feature", "properties": { "CD_SETOR": "355030808000067", "faces": 15, "pavimentada": 100.0, "bueiro": 40.0, "iluminacao": 100.0, "onibus": 6.67, "ciclovia": 0.0, "calcada": 73.33, "obstaculo": 45.45, "rampa": 0.0, "rampa_faces": 0.0, "sem_calcada": 26.67, "sem_arvore": 60.0, "muitas_arvores": 13.33, "vao": 100.0, "V05400": 15, "V05421": 11, "V05406": 15, "V05412": 15, "V05422": 4, "V05424": 5, "V05427": 0, "V05409": 6, "V05415": 1, "V05418": 0, "V05430": 9, "V05433": 2, "criancas_0a4": 8, "em_favela": false }, "geometry": { "type": "Polygon", "coordinates": [ [ [ -46.586492, -23.548221 ], [ -46.587183, -23.548956 ], [ -46.58817, -23.548324 ], [ -46.588665, -23.548785 ], [ -46.589181, -23.54821 ], [ -46.588451, -23.547682 ], [ -46.588363, -23.547859 ], [ -46.587528, -23.547685 ], [ -46.586816, -23.547451 ], [ -46.586492, -23.548221 ] ] ] } },
{ "type": "Feature", "properties": { "CD_SETOR": "355030808000068", "faces": 1, "pavimentada": 100.0, "bueiro": 0.0, "iluminacao": 100.0, "onibus": 0.0, "ciclovia": 0.0, "calcada": 100.0, "obstaculo": 0.0, "rampa": 0.0, "rampa_faces": 0.0, "sem_calcada": 0.0, "sem_arvore": 0.0, "muitas_arvores": 0.0, "vao": 100.0, "V05400": 1, "V05421": 1, "V05406": 1, "V05412": 1, "V05422": 0, "V05424": 0, "V05427": 0, "V05409": 0, "V05415": 0, "V05418": 0, "V05430": 0, "V05433": 0, "criancas_0a4": 8, "em_favela": false }, "geometry": { "type": "Polygon", "coordinates": [ [ [ -46.593584, -23.537805 ], [ -46.593558, -23.538193 ], [ -46.594405, -23.538343 ], [ -46.594549, -23.53782 ], [ -46.594372, -23.537803 ], [ -46.594346, -23.537933 ], [ -46.593584, -23.537805 ] ] ] } },
{ "type": "Feature", "properties": { "CD_SETOR": "355030808000069", "faces": 1, "pavimentada": 100.0, "bueiro": 0.0, "iluminacao": 100.0, "onibus": 0.0, "ciclovia": 0.0, "calcada": 100.0, "obstaculo": 0.0, "rampa": 100.0, "rampa_faces": 100.0, "sem_calcada": 0.0, "sem_arvore": 0.0, "muitas_arvores": 0.0, "vao": 0.0, "V05400": 1, "V05421": 1, "V05406": 1, "V05412": 1, "V05422": 0, "V05424": 0, "V05427": 1, "V05409": 0, "V05415": 0, "V05418": 0, "V05430": 0, "V05433": 0, "criancas_0a4": 6, "em_favela": false }, "geometry": { "type": "Polygon", "coordinates": [ [ [ -46.587992, -23.541283 ], [ -46.588721, -23.541435 ], [ -46.588981, -23.541176 ], [ -46.58784, -23.540919 ], [ -46.587784, -23.541162 ], [ -46.588008, -23.541209 ], [ -46.587992, -23.541283 ] ] ] } },
{ "type": "Feature", "properties": { "CD_SETOR": "355030808000070", "faces": 1, "pavimentada": 100.0, "bueiro": 100.0, "iluminacao": 100.0, "onibus": 100.0, "ciclovia": 0.0, "calcada": 100.0, "obstaculo": 0.0, "rampa": 100.0, "rampa_faces": 100.0, "sem_calcada": 0.0, "sem_arvore": 0.0, "muitas_arvores": 100.0, "vao": 0.0, "V05400": 1, "V05421": 1, "V05406": 1, "V05412": 1, "V05422": 0, "V05424": 0, "V05427": 1, "V05409": 1, "V05415": 1, "V05418": 0, "V05430": 0, "V05433": 1, "criancas_0a4": 13, "em_favela": false }, "geometry": { "type": "Polygon", "coordinates": [ [ [ -46.592296, -23.540778 ], [ -46.59275, -23.540939 ], [ -46.593051, -23.540235 ], [ -46.592591, -23.54008 ], [ -46.592296, -23.540778 ] ] ] } },
{ "type": "Feature", "properties": { "CD_SETOR": "355030808000071", "faces": 1, "pavimentada": 100.0, "bueiro": 100.0, "iluminacao": 100.0, "onibus": 0.0, "ciclovia": 0.0, "calcada": 100.0, "obstaculo": 0.0, "rampa": 0.0, "rampa_faces": 0.0, "sem_calcada": 0.0, "sem_arvore": 0.0, "muitas_arvores": 0.0, "vao": 100.0, "V05400": 1, "V05421": 1, "V05406": 1, "V05412": 1, "V05422": 0, "V05424": 0, "V05427": 0, "V05409": 1, "V05415": 0, "V05418": 0, "V05430": 0, "V05433": 0, "criancas_0a4": 14, "em_favela": false }, "geometry": { "type": "Polygon", "coordinates": [ [ [ -46.60489, -23.542555 ], [ -46.604718, -23.542492 ], [ -46.604216, -23.542905 ], [ -46.604674, -23.543095 ], [ -46.60489, -23.542555 ] ] ] } },
{ "type": "Feature", "properties": { "CD_SETOR": "355030808000072", "faces": 1, "pavimentada": 100.0, "bueiro": 100.0, "iluminacao": 100.0, "onibus": 100.0, "ciclovia": 100.0, "calcada": 100.0, "obstaculo": 0.0, "rampa": 100.0, "rampa_faces": 100.0, "sem_calcada": 0.0, "sem_arvore": 0.0, "muitas_arvores": 100.0, "vao": 0.0, "V05400": 1, "V05421": 1, "V05406": 1, "V05412": 1, "V05422": 0, "V05424": 0, "V05427": 1, "V05409": 1, "V05415": 1, "V05418": 1, "V05430": 0, "V05433": 1, "criancas_0a4": 18, "em_favela": false }, "geometry": { "type": "Polygon", "coordinates": [ [ [ -46.589967, -23.546789 ], [ -46.590502, -23.546892 ], [ -46.590695, -23.546172 ], [ -46.590152, -23.546062 ], [ -46.589967, -23.546789 ] ] ] } },
{ "type": "Feature", "properties": { "CD_SETOR": "355030808000073", "faces": 1, "pavimentada": 100.0, "bueiro": 100.0, "iluminacao": 100.0, "onibus": 100.0, "ciclovia": 100.0, "calcada": 100.0, "obstaculo": 0.0, "rampa": 100.0, "rampa_faces": 100.0, "sem_calcada": 0.0, "sem_arvore": 0.0, "muitas_arvores": 100.0, "vao": 0.0, "V05400": 1, "V05421": 1, "V05406": 1, "V05412": 1, "V05422": 0, "V05424": 0, "V05427": 1, "V05409": 1, "V05415": 1, "V05418": 1, "V05430": 0, "V05433": 1, "criancas_0a4": 16, "em_favela": false }, "geometry": { "type": "Polygon", "coordinates": [ [ [ -46.590152, -23.546062 ], [ -46.590695, -23.546172 ], [ -46.590785, -23.545894 ], [ -46.590709, -23.545869 ], [ -46.590861, -23.545387 ], [ -46.590191, -23.545251 ], [ -46.590113, -23.545623 ], [ -46.590249, -23.545645 ], [ -46.590152, -23.546062 ] ] ] } },
{ "type": "Feature", "properties": { "CD_SETOR": "355030808000074", "faces": 1, "pavimentada": 100.0, "bueiro": 100.0, "iluminacao": 100.0, "onibus": 0.0, "ciclovia": 100.0, "calcada": 100.0, "obstaculo": 0.0, "rampa": 100.0, "rampa_faces": 100.0, "sem_calcada": 0.0, "sem_arvore": 0.0, "muitas_arvores": 0.0, "vao": 0.0, "V05400": 1, "V05421": 1, "V05406": 1, "V05412": 1, "V05422": 0, "V05424": 0, "V05427": 1, "V05409": 1, "V05415": 0, "V05418": 1, "V05430": 0, "V05433": 0, "criancas_0a4": 12, "em_favela": false }, "geometry": { "type": "Polygon", "coordinates": [ [ [ -46.592591, -23.54008 ], [ -46.593051, -23.540235 ], [ -46.593119, -23.540178 ], [ -46.59344, -23.540117 ], [ -46.593479, -23.539467 ], [ -46.592847, -23.539427 ], [ -46.592591, -23.54008 ] ] ] } },
{ "type": "Feature", "properties": { "CD_SETOR": "355030808000075", "faces": 1, "pavimentada": 100.0, "bueiro": 100.0, "iluminacao": 100.0, "onibus": 0.0, "ciclovia": 0.0, "calcada": 100.0, "obstaculo": 0.0, "rampa": 100.0, "rampa_faces": 100.0, "sem_calcada": 0.0, "sem_arvore": 0.0, "muitas_arvores": 100.0, "vao": 0.0, "V05400": 1, "V05421": 1, "V05406": 1, "V05412": 1, "V05422": 0, "V05424": 0, "V05427": 1, "V05409": 1, "V05415": 0, "V05418": 0, "V05430": 0, "V05433": 1, "criancas_0a4": 22, "em_favela": false }, "geometry": { "type": "Polygon", "coordinates": [ [ [ -46.591718, -23.540569 ], [ -46.592296, -23.540778 ], [ -46.592847, -23.539427 ], [ -46.591993, -23.539349 ], [ -46.591932, -23.53992 ], [ -46.591718, -23.540569 ] ] ] } },
{ "type": "Feature", "properties": { "CD_SETOR": "355030808000076", "faces": 1, "pavimentada": 100.0, "bueiro": 100.0, "iluminacao": 100.0, "onibus": 100.0, "ciclovia": 0.0, "calcada": 100.0, "obstaculo": 0.0, "rampa": 100.0, "rampa_faces": 100.0, "sem_calcada": 0.0, "sem_arvore": 0.0, "muitas_arvores": 100.0, "vao": 0.0, "V05400": 1, "V05421": 1, "V05406": 1, "V05412": 1, "V05422": 0, "V05424": 0, "V05427": 1, "V05409": 1, "V05415": 1, "V05418": 0, "V05430": 0, "V05433": 1, "criancas_0a4": 18, "em_favela": false }, "geometry": { "type": "Polygon", "coordinates": [ [ [ -46.59235, -23.536224 ], [ -46.592266, -23.537009 ], [ -46.593092, -23.537088 ], [ -46.593191, -23.536198 ], [ -46.592863, -23.536168 ], [ -46.592848, -23.536282 ], [ -46.59235, -23.536224 ] ] ] } },
{ "type": "Feature", "properties": { "CD_SETOR": "355030808000077", "faces": 1, "pavimentada": 100.0, "bueiro": 100.0, "iluminacao": 100.0, "onibus": 100.0, "ciclovia": 0.0, "calcada": 100.0, "obstaculo": 0.0, "rampa": 100.0, "rampa_faces": 100.0, "sem_calcada": 0.0, "sem_arvore": 0.0, "muitas_arvores": 100.0, "vao": 0.0, "V05400": 1, "V05421": 1, "V05406": 1, "V05412": 1, "V05422": 0, "V05424": 0, "V05427": 1, "V05409": 1, "V05415": 1, "V05418": 0, "V05430": 0, "V05433": 1, "criancas_0a4": 23, "em_favela": false }, "geometry": { "type": "Polygon", "coordinates": [ [ [ -46.592433, -23.535482 ], [ -46.59235, -23.536224 ], [ -46.592848, -23.536282 ], [ -46.592863, -23.536168 ], [ -46.593191, -23.536198 ], [ -46.593239, -23.53572 ], [ -46.59331, -23.535547 ], [ -46.592433, -23.535482 ] ] ] } },
{ "type": "Feature", "properties": { "CD_SETOR": "355030808000078", "faces": 1, "pavimentada": 100.0, "bueiro": 100.0, "iluminacao": 100.0, "onibus": 100.0, "ciclovia": 0.0, "calcada": 100.0, "obstaculo": 0.0, "rampa": 100.0, "rampa_faces": 100.0, "sem_calcada": 0.0, "sem_arvore": 0.0, "muitas_arvores": 100.0, "vao": 0.0, "V05400": 1, "V05421": 1, "V05406": 1, "V05412": 1, "V05422": 0, "V05424": 0, "V05427": 1, "V05409": 1, "V05415": 1, "V05418": 0, "V05430": 0, "V05433": 1, "criancas_0a4": 20, "em_favela": false }, "geometry": { "type": "Polygon", "coordinates": [ [ [ -46.592488, -23.534995 ], [ -46.592433, -23.535482 ], [ -46.59331, -23.535547 ], [ -46.593419, -23.535374 ], [ -46.593465, -23.534982 ], [ -46.59315, -23.53495 ], [ -46.593132, -23.535075 ], [ -46.592488, -23.534995 ] ] ] } },
{ "type": "Feature", "properties": { "CD_SETOR": "355030808000079", "faces": 1, "pavimentada": 100.0, "bueiro": 100.0, "iluminacao": 100.0, "onibus": 100.0, "ciclovia": 0.0, "calcada": 100.0, "obstaculo": 0.0, "rampa": 100.0, "rampa_faces": 100.0, "sem_calcada": 0.0, "sem_arvore": 0.0, "muitas_arvores": 100.0, "vao": 0.0, "V05400": 1, "V05421": 1, "V05406": 1, "V05412": 1, "V05422": 0, "V05424": 0, "V05427": 1, "V05409": 1, "V05415": 1, "V05418": 0, "V05430": 0, "V05433": 1, "criancas_0a4": 18, "em_favela": false }, "geometry": { "type": "Polygon", "coordinates": [ [ [ -46.592488, -23.534995 ], [ -46.593132, -23.535075 ], [ -46.59315, -23.53495 ], [ -46.593465, -23.534982 ], [ -46.593617, -23.533899 ], [ -46.592762, -23.534102 ], [ -46.592338, -23.53413 ], [ -46.592272, -23.534766 ], [ -46.59251, -23.534788 ], [ -46.592488, -23.534995 ] ] ] } },
{ "type": "Feature", "properties": { "CD_SETOR": "355030808000081", "faces": 2, "pavimentada": 100.0, "bueiro": 100.0, "iluminacao": 100.0, "onibus": 50.0, "ciclovia": 0.0, "calcada": 100.0, "obstaculo": 0.0, "rampa": 0.0, "rampa_faces": 0.0, "sem_calcada": 0.0, "sem_arvore": 0.0, "muitas_arvores": 50.0, "vao": 100.0, "V05400": 2, "V05421": 2, "V05406": 2, "V05412": 2, "V05422": 0, "V05424": 0, "V05427": 0, "V05409": 2, "V05415": 1, "V05418": 0, "V05430": 0, "V05433": 1, "criancas_0a4": 31, "em_favela": false }, "geometry": { "type": "Polygon", "coordinates": [ [ [ -46.591327, -23.538292 ], [ -46.591509, -23.538309 ], [ -46.591559, -23.537907 ], [ -46.59179, -23.537933 ], [ -46.591889, -23.53698 ], [ -46.591524, -23.536952 ], [ -46.591327, -23.538292 ] ] ] } },
{ "type": "Feature", "properties": { "CD_SETOR": "355030808000082", "faces": 10, "pavimentada": 100.0, "bueiro": 80.0, "iluminacao": 100.0, "onibus": 40.0, "ciclovia": 0.0, "calcada": 100.0, "obstaculo": 30.0, "rampa": 30.0, "rampa_faces": 30.0, "sem_calcada": 0.0, "sem_arvore": 30.0, "muitas_arvores": 50.0, "vao": 70.0, "V05400": 10, "V05421": 10, "V05406": 10, "V05412": 10, "V05422": 0, "V05424": 3, "V05427": 3, "V05409": 8, "V05415": 4, "V05418": 0, "V05430": 3, "V05433": 5, "criancas_0a4": 12, "em_favela": false }, "geometry": { "type": "Polygon", "coordinates": [ [ [ -46.583725, -23.53163 ], [ -46.582815, -23.535273 ], [ -46.58406, -23.53545 ], [ -46.586845, -23.536193 ], [ -46.588184, -23.536465 ], [ -46.590046, -23.53681 ], [ -46.591524, -23.536952 ], [ -46.591789, -23.534341 ], [ -46.591843, -23.534214 ], [ -46.591141, -23.53401 ], [ -46.590372, -23.533668 ], [ -46.58881, -23.532552 ], [ -46.588301, -23.532314 ], [ -46.587411, -23.532146 ], [ -46.585792, -23.531717 ], [ -46.586014, -23.531463 ], [ -46.584468, -23.53167 ], [ -46.583725, -23.53163 ] ] ] } },
{ "type": "Feature", "properties": { "CD_SETOR": "355030808000083", "faces": 1, "pavimentada": 100.0, "bueiro": 0.0, "iluminacao": 100.0, "onibus": 0.0, "ciclovia": 0.0, "calcada": 100.0, "obstaculo": 0.0, "rampa": 0.0, "rampa_faces": 0.0, "sem_calcada": 0.0, "sem_arvore": 0.0, "muitas_arvores": 0.0, "vao": 100.0, "V05400": 1, "V05421": 1, "V05406": 1, "V05412": 1, "V05422": 0, "V05424": 0, "V05427": 0, "V05409": 0, "V05415": 0, "V05418": 0, "V05430": 0, "V05433": 0, "criancas_0a4": 19, "em_favela": false }, "geometry": { "type": "Polygon", "coordinates": [ [ [ -46.590596, -23.539125 ], [ -46.591353, -23.539195 ], [ -46.591426, -23.538301 ], [ -46.59071, -23.538234 ], [ -46.590596, -23.539125 ] ] ] } },
{ "type": "Feature", "properties": { "CD_SETOR": "355030808000084", "faces": 1, "pavimentada": 100.0, "bueiro": 0.0, "iluminacao": 100.0, "onibus": 0.0, "ciclovia": 0.0, "calcada": 100.0, "obstaculo": 0.0, "rampa": 0.0, "rampa_faces": 0.0, "sem_calcada": 0.0, "sem_arvore": 0.0, "muitas_arvores": 0.0, "vao": 100.0, "V05400": 1, "V05421": 1, "V05406": 1, "V05412": 1, "V05422": 0, "V05424": 0, "V05427": 0, "V05409": 0, "V05415": 0, "V05418": 0, "V05430": 0, "V05433": 0, "criancas_0a4": 25, "em_favela": false }, "geometry": { "type": "Polygon", "coordinates": [ [ [ -46.589836, -23.539051 ], [ -46.590596, -23.539125 ], [ -46.59071, -23.538234 ], [ -46.589916, -23.538159 ], [ -46.589836, -23.539051 ] ] ] } },
{ "type": "Feature", "properties": { "CD_SETOR": "355030808000085", "faces": 9, "pavimentada": 100.0, "bueiro": 66.67, "iluminacao": 100.0, "onibus": 11.11, "ciclovia": 0.0, "calcada": 100.0, "obstaculo": 11.11, "rampa": 77.78, "rampa_faces": 77.78, "sem_calcada": 0.0, "sem_arvore": 22.22, "muitas_arvores": 66.67, "vao": 22.22, "V05400": 9, "V05421": 9, "V05406": 9, "V05412": 9, "V05422": 0, "V05424": 1, "V05427": 7, "V05409": 6, "V05415": 1, "V05418": 0, "V05430": 2, "V05433": 6, "criancas_0a4": 31, "em_favela": false }, "geometry": { "type": "Polygon", "coordinates": [ [ [ -46.582427, -23.541223 ], [ -46.591035, -23.542953 ], [ -46.591072, -23.542763 ], [ -46.590957, -23.542505 ], [ -46.588419, -23.541736 ], [ -46.586661, -23.541382 ], [ -46.586516, -23.541948 ], [ -46.585984, -23.541829 ], [ -46.586115, -23.541267 ], [ -46.582459, -23.54054 ], [ -46.582375, -23.540833 ], [ -46.582443, -23.541032 ], [ -46.582427, -23.541223 ] ] ] } },
{ "type": "Feature", "properties": { "CD_SETOR": "355030808000086", "faces": 1, "pavimentada": 100.0, "bueiro": 0.0, "iluminacao": 100.0, "onibus": 0.0, "ciclovia": 0.0, "calcada": 100.0, "obstaculo": 0.0, "rampa": 0.0, "rampa_faces": 0.0, "sem_calcada": 0.0, "sem_arvore": 0.0, "muitas_arvores": 100.0, "vao": 100.0, "V05400": 1, "V05421": 1, "V05406": 1, "V05412": 1, "V05422": 0, "V05424": 0, "V05427": 0, "V05409": 0, "V05415": 0, "V05418": 0, "V05430": 0, "V05433": 1, "criancas_0a4": 28, "em_favela": false }, "geometry": { "type": "Polygon", "coordinates": [ [ [ -46.586661, -23.541382 ], [ -46.586115, -23.541267 ], [ -46.585984, -23.541829 ], [ -46.586516, -23.541948 ], [ -46.586661, -23.541382 ] ] ] } },
{ "type": "Feature", "properties": { "CD_SETOR": "355030808000087", "faces": 30, "pavimentada": 100.0, "bueiro": 46.67, "iluminacao": 100.0, "onibus": 26.67, "ciclovia": 3.33, "calcada": 100.0, "obstaculo": 20.0, "rampa": 76.67, "rampa_faces": 76.67, "sem_calcada": 0.0, "sem_arvore": 33.33, "muitas_arvores": 43.33, "vao": 23.33, "V05400": 30, "V05421": 30, "V05406": 30, "V05412": 30, "V05422": 0, "V05424": 6, "V05427": 23, "V05409": 14, "V05415": 8, "V05418": 1, "V05430": 10, "V05433": 13, "criancas_0a4": 26, "em_favela": false }, "geometry": { "type": "Polygon", "coordinates": [ [ [ -46.580818, -23.540893 ], [ -46.580198, -23.543411 ], [ -46.580429, -23.543104 ], [ -46.581141, -23.543173 ], [ -46.581476, -23.54328 ], [ -46.581846, -23.5435 ], [ -46.582576, -23.544266 ], [ -46.582654, -23.543944 ], [ -46.583338, -23.543896 ], [ -46.586079, -23.544441 ], [ -46.585512, -23.545141 ], [ -46.586872, -23.545416 ], [ -46.586936, -23.545204 ], [ -46.587645, -23.54534 ], [ -46.587859, -23.544783 ], [ -46.591681, -23.545557 ], [ -46.592107, -23.545976 ], [ -46.592362, -23.54568 ], [ -46.59239, -23.545504 ], [ -46.592475, -23.54539 ], [ -46.593255, -23.544495 ], [ -46.593709, -23.543493 ], [ -46.580818, -23.540893 ] ], [ [ -46.58648, -23.543913 ], [ -46.586937, -23.544029 ], [ -46.586959, -23.543949 ], [ -46.587466, -23.544074 ], [ -46.587285, -23.544315 ], [ -46.586351, -23.54407 ], [ -46.58648, -23.543913 ] ] ] } },
{ "type": "Feature", "properties": { "CD_SETOR": "355030808000088", "faces": 1, "pavimentada": 100.0, "bueiro": 100.0, "iluminacao": 100.0, "onibus": 100.0, "ciclovia": 0.0, "calcada": 100.0, "obstaculo": 0.0, "rampa": 100.0, "rampa_faces": 100.0, "sem_calcada": 0.0, "sem_arvore": 0.0, "muitas_arvores": 100.0, "vao": 0.0, "V05400": 1, "V05421": 1, "V05406": 1, "V05412": 1, "V05422": 0, "V05424": 0, "V05427": 1, "V05409": 1, "V05415": 1, "V05418": 0, "V05430": 0, "V05433": 1, "criancas_0a4": 15, "em_favela": false }, "geometry": { "type": "Polygon", "coordinates": [ [ [ -46.58648, -23.543913 ], [ -46.586351, -23.54407 ], [ -46.587285, -23.544315 ], [ -46.587466, -23.544074 ], [ -46.586959, -23.543949 ], [ -46.586937, -23.544029 ], [ -46.58648, -23.543913 ] ] ] } },
{ "type": "Feature", "properties": { "CD_SETOR": "355030808000089", "faces": 109, "pavimentada": 99.08, "bueiro": 60.55, "iluminacao": 99.08, "onibus": 2.75, "ciclovia": 1.83, "calcada": 98.17, "obstaculo": 63.55, "rampa": 14.95, "rampa_faces": 14.68, "sem_calcada": 0.92, "sem_arvore": 48.62, "muitas_arvores": 25.69, "vao": 84.4, "V05400": 109, "V05421": 107, "V05406": 108, "V05412": 108, "V05422": 1, "V05424": 68, "V05427": 16, "V05409": 66, "V05415": 3, "V05418": 2, "V05430": 53, "V05433": 28, "criancas_0a4": 23, "em_favela": false }, "geometry": { "type": "Polygon", "coordinates": [ [ [ -46.597898, -23.526849 ], [ -46.59527, -23.52891 ], [ -46.594896, -23.529141 ], [ -46.594279, -23.529416 ], [ -46.593301, -23.52966 ], [ -46.595795, -23.532364 ], [ -46.596221, -23.532013 ], [ -46.597841, -23.533701 ], [ -46.59903, -23.533619 ], [ -46.597801, -23.535782 ], [ -46.599522, -23.536577 ], [ -46.599823, -23.535905 ], [ -46.59906, -23.535701 ], [ -46.599323, -23.53504 ], [ -46.600096, -23.535295 ], [ -46.600667, -23.534022 ], [ -46.600038, -23.533811 ], [ -46.600523, -23.531322 ], [ -46.600352, -23.530581 ], [ -46.599368, -23.530608 ], [ -46.599201, -23.53045 ], [ -46.598412, -23.52932 ], [ -46.599662, -23.528396 ], [ -46.599802, -23.528125 ], [ -46.599842, -23.527969 ], [ -46.599779, -23.527708 ], [ -46.599866, -23.527604 ], [ -46.597898, -23.526849 ] ] ] } },
{ "type": "Feature", "properties": { "CD_SETOR": "355030808000090", "faces": 1, "pavimentada": 100.0, "bueiro": 100.0, "iluminacao": 100.0, "onibus": 0.0, "ciclovia": 0.0, "calcada": 100.0, "obstaculo": 0.0, "rampa": 100.0, "rampa_faces": 100.0, "sem_calcada": 0.0, "sem_arvore": 0.0, "muitas_arvores": 0.0, "vao": 0.0, "V05400": 1, "V05421": 1, "V05406": 1, "V05412": 1, "V05422": 0, "V05424": 0, "V05427": 1, "V05409": 1, "V05415": 0, "V05418": 0, "V05430": 0, "V05433": 0, "criancas_0a4": 21, "em_favela": false }, "geometry": { "type": "Polygon", "coordinates": [ [ [ -46.599823, -23.535905 ], [ -46.600096, -23.535295 ], [ -46.599323, -23.53504 ], [ -46.59906, -23.535701 ], [ -46.599823, -23.535905 ] ] ] } },
{ "type": "Feature", "properties": { "CD_SETOR": "355030808000091", "faces": 32, "pavimentada": 100.0, "bueiro": 65.62, "iluminacao": 100.0, "onibus": 12.5, "ciclovia": 3.12, "calcada": 100.0, "obstaculo": 34.38, "rampa": 21.88, "rampa_faces": 21.88, "sem_calcada": 0.0, "sem_arvore": 34.38, "muitas_arvores": 40.62, "vao": 78.12, "V05400": 32, "V05421": 32, "V05406": 32, "V05412": 32, "V05422": 0, "V05424": 11, "V05427": 7, "V05409": 21, "V05415": 4, "V05418": 1, "V05430": 11, "V05433": 13, "criancas_0a4": 38, "em_favela": false }, "geometry": { "type": "Polygon", "coordinates": [ [ [ -46.597898, -23.526849 ], [ -46.599866, -23.527604 ], [ -46.602197, -23.528383 ], [ -46.602165, -23.527805 ], [ -46.602186, -23.527644 ], [ -46.602272, -23.527507 ], [ -46.602901, -23.527513 ], [ -46.603049, -23.527634 ], [ -46.603004, -23.529536 ], [ -46.604324, -23.528223 ], [ -46.603305, -23.527427 ], [ -46.603329, -23.527124 ], [ -46.60276, -23.526746 ], [ -46.603361, -23.525736 ], [ -46.603443, -23.525468 ], [ -46.602424, -23.525392 ], [ -46.602453, -23.524971 ], [ -46.603482, -23.525037 ], [ -46.603583, -23.52382 ], [ -46.603225, -23.523017 ], [ -46.602428, -23.523354 ], [ -46.601565, -23.523896 ], [ -46.597898, -23.526849 ] ] ] } },
{ "type": "Feature", "properties": { "CD_SETOR": "355030808000092", "faces": 1, "pavimentada": 100.0, "bueiro": 0.0, "iluminacao": 100.0, "onibus": 0.0, "ciclovia": 0.0, "calcada": 100.0, "obstaculo": 0.0, "rampa": 0.0, "rampa_faces": 0.0, "sem_calcada": 0.0, "sem_arvore": 0.0, "muitas_arvores": 100.0, "vao": 100.0, "V05400": 1, "V05421": 1, "V05406": 1, "V05412": 1, "V05422": 0, "V05424": 0, "V05427": 0, "V05409": 0, "V05415": 0, "V05418": 0, "V05430": 0, "V05433": 1, "criancas_0a4": 39, "em_favela": false }, "geometry": { "type": "Polygon", "coordinates": [ [ [ -46.603443, -23.525468 ], [ -46.603482, -23.525037 ], [ -46.602453, -23.524971 ], [ -46.602424, -23.525392 ], [ -46.603443, -23.525468 ] ] ] } },
{ "type": "Feature", "properties": { "CD_SETOR": "355030808000093", "faces": 2, "pavimentada": 100.0, "bueiro": 100.0, "iluminacao": 100.0, "onibus": 0.0, "ciclovia": 100.0, "calcada": 100.0, "obstaculo": 0.0, "rampa": 100.0, "rampa_faces": 100.0, "sem_calcada": 0.0, "sem_arvore": 0.0, "muitas_arvores": 100.0, "vao": 0.0, "V05400": 2, "V05421": 2, "V05406": 2, "V05412": 2, "V05422": 0, "V05424": 0, "V05427": 2, "V05409": 2, "V05415": 0, "V05418": 2, "V05430": 0, "V05433": 2, "criancas_0a4": 46, "em_favela": false }, "geometry": { "type": "Polygon", "coordinates": [ [ [ -46.602156, -23.529376 ], [ -46.603004, -23.529536 ], [ -46.603, -23.528679 ], [ -46.602188, -23.528605 ], [ -46.602156, -23.529376 ] ] ] } },
{ "type": "Feature", "properties": { "CD_SETOR": "355030808000094", "faces": 1, "pavimentada": 100.0, "bueiro": 100.0, "iluminacao": 100.0, "onibus": 0.0, "ciclovia": 0.0, "calcada": 100.0, "obstaculo": 0.0, "rampa": 100.0, "rampa_faces": 100.0, "sem_calcada": 0.0, "sem_arvore": 0.0, "muitas_arvores": 100.0, "vao": 0.0, "V05400": 1, "V05421": 1, "V05406": 1, "V05412": 1, "V05422": 0, "V05424": 0, "V05427": 1, "V05409": 1, "V05415": 0, "V05418": 0, "V05430": 0, "V05433": 1, "criancas_0a4": 41, "em_favela": false }, "geometry": { "type": "Polygon", "coordinates": [ [ [ -46.602169, -23.528036 ], [ -46.602188, -23.528605 ], [ -46.603, -23.528679 ], [ -46.603037, -23.528083 ], [ -46.602169, -23.528036 ] ] ] } },
{ "type": "Feature", "properties": { "CD_SETOR": "355030808000095", "faces": 1, "pavimentada": 100.0, "bueiro": 100.0, "iluminacao": 100.0, "onibus": 0.0, "ciclovia": 0.0, "calcada": 100.0, "obstaculo": 0.0, "rampa": 100.0, "rampa_faces": 100.0, "sem_calcada": 0.0, "sem_arvore": 0.0, "muitas_arvores": 100.0, "vao": 0.0, "V05400": 1, "V05421": 1, "V05406": 1, "V05412": 1, "V05422": 0, "V05424": 0, "V05427": 1, "V05409": 1, "V05415": 0, "V05418": 0, "V05430": 0, "V05433": 1, "criancas_0a4": 35, "em_favela": false }, "geometry": { "type": "Polygon", "coordinates": [ [ [ -46.602169, -23.528036 ], [ -46.603037, -23.528083 ], [ -46.603049, -23.527634 ], [ -46.602901, -23.527513 ], [ -46.602272, -23.527507 ], [ -46.602186, -23.527644 ], [ -46.602169, -23.528036 ] ] ] } },
{ "type": "Feature", "properties": { "CD_SETOR": "355030808000096", "faces": 22, "pavimentada": 100.0, "bueiro": 95.45, "iluminacao": 100.0, "onibus": 18.18, "ciclovia": 0.0, "calcada": 90.91, "obstaculo": 45.0, "rampa": 60.0, "rampa_faces": 54.55, "sem_calcada": 9.09, "sem_arvore": 54.55, "muitas_arvores": 36.36, "vao": 45.45, "V05400": 22, "V05421": 20, "V05406": 22, "V05412": 22, "V05422": 2, "V05424": 9, "V05427": 12, "V05409": 21, "V05415": 4, "V05418": 0, "V05430": 12, "V05433": 8, "criancas_0a4": 17, "em_favela": false }, "geometry": { "type": "Polygon", "coordinates": [ [ [ -46.60187, -23.544315 ], [ -46.603231, -23.545048 ], [ -46.603043, -23.545218 ], [ -46.601231, -23.544847 ], [ -46.600995, -23.545159 ], [ -46.604451, -23.545851 ], [ -46.606338, -23.543118 ], [ -46.60489, -23.542555 ], [ -46.604674, -23.543095 ], [ -46.604216, -23.542905 ], [ -46.604718, -23.542492 ], [ -46.604326, -23.542349 ], [ -46.60187, -23.544315 ] ] ] } },
{ "type": "Feature", "properties": { "CD_SETOR": "355030808000097", "faces": 4, "pavimentada": 100.0, "bueiro": 75.0, "iluminacao": 100.0, "onibus": 25.0, "ciclovia": 0.0, "calcada": 100.0, "obstaculo": 0.0, "rampa": 75.0, "rampa_faces": 75.0, "sem_calcada": 0.0, "sem_arvore": 0.0, "muitas_arvores": 75.0, "vao": 25.0, "V05400": 4, "V05421": 4, "V05406": 4, "V05412": 4, "V05422": 0, "V05424": 0, "V05427": 3, "V05409": 3, "V05415": 1, "V05418": 0, "V05430": 0, "V05433": 3, "criancas_0a4": 28, "em_favela": false }, "geometry": { "type": "Polygon", "coordinates": [ [ [ -46.601231, -23.544847 ], [ -46.603043, -23.545218 ], [ -46.603231, -23.545048 ], [ -46.60187, -23.544315 ], [ -46.601231, -23.544847 ] ] ] } },
{ "type": "Feature", "properties": { "CD_SETOR": "355030808000098", "faces": 4, "pavimentada": 100.0, "bueiro": 75.0, "iluminacao": 100.0, "onibus": 50.0, "ciclovia": 0.0, "calcada": 100.0, "obstaculo": 50.0, "rampa": 75.0, "rampa_faces": 75.0, "sem_calcada": 0.0, "sem_arvore": 25.0, "muitas_arvores": 50.0, "vao": 25.0, "V05400": 4, "V05421": 4, "V05406": 4, "V05412": 4, "V05422": 0, "V05424": 2, "V05427": 3, "V05409": 3, "V05415": 2, "V05418": 0, "V05430": 1, "V05433": 2, "criancas_0a4": 48, "em_favela": false }, "geometry": { "type": "Polygon", "coordinates": [ [ [ -46.602828, -23.538424 ], [ -46.605091, -23.538768 ], [ -46.605644, -23.538847 ], [ -46.605261, -23.537199 ], [ -46.604927, -23.537172 ], [ -46.604558, -23.538078 ], [ -46.60422, -23.537938 ], [ -46.604593, -23.537146 ], [ -46.603027, -23.537023 ], [ -46.602828, -23.538424 ] ] ] } },
{ "type": "Feature", "properties": { "CD_SETOR": "355030808000099", "faces": 1, "pavimentada": 100.0, "bueiro": 0.0, "iluminacao": 100.0, "onibus": 0.0, "ciclovia": 0.0, "calcada": 100.0, "obstaculo": 0.0, "rampa": 0.0, "rampa_faces": 0.0, "sem_calcada": 0.0, "sem_arvore": 0.0, "muitas_arvores": 0.0, "vao": 100.0, "V05400": 1, "V05421": 1, "V05406": 1, "V05412": 1, "V05422": 0, "V05424": 0, "V05427": 0, "V05409": 0, "V05415": 0, "V05418": 0, "V05430": 0, "V05433": 0, "criancas_0a4": 16, "em_favela": false }, "geometry": { "type": "Polygon", "coordinates": [ [ [ -46.604927, -23.537172 ], [ -46.604593, -23.537146 ], [ -46.60422, -23.537938 ], [ -46.604558, -23.538078 ], [ -46.604927, -23.537172 ] ] ] } },
{ "type": "Feature", "properties": { "CD_SETOR": "355030808000100", "faces": 5, "pavimentada": 40.0, "bueiro": 40.0, "iluminacao": 40.0, "onibus": 20.0, "ciclovia": 0.0, "calcada": 40.0, "obstaculo": 0.0, "rampa": 50.0, "rampa_faces": 20.0, "sem_calcada": 0.0, "sem_arvore": 0.0, "muitas_arvores": 40.0, "vao": 20.0, "V05400": 5, "V05421": 2, "V05406": 2, "V05412": 2, "V05422": 0, "V05424": 0, "V05427": 1, "V05409": 2, "V05415": 1, "V05418": 0, "V05430": 0, "V05433": 2, "criancas_0a4": 0, "em_favela": false }, "geometry": { "type": "Polygon", "coordinates": [ [ [ -46.583725, -23.53163 ], [ -46.584468, -23.53167 ], [ -46.586014, -23.531463 ], [ -46.585792, -23.531717 ], [ -46.587411, -23.532146 ], [ -46.588301, -23.532314 ], [ -46.58881, -23.532552 ], [ -46.590372, -23.533668 ], [ -46.591141, -23.53401 ], [ -46.591843, -23.534214 ], [ -46.592067, -23.534095 ], [ -46.59306, -23.533983 ], [ -46.593476, -23.53384 ], [ -46.594294, -23.533654 ], [ -46.594374, -23.533585 ], [ -46.594571, -23.534053 ], [ -46.594602, -23.533902 ], [ -46.595005, -23.533646 ], [ -46.595498, -23.533483 ], [ -46.595429, -23.533309 ], [ -46.596578, -23.532385 ], [ -46.596221, -23.532013 ], [ -46.595795, -23.532364 ], [ -46.593301, -23.52966 ], [ -46.592275, -23.529789 ], [ -46.590936, -23.529777 ], [ -46.590157, -23.529633 ], [ -46.585013, -23.528335 ], [ -46.584129, -23.530331 ], [ -46.58391, -23.530926 ], [ -46.583725, -23.53163 ] ] ] } },
{ "type": "Feature", "properties": { "CD_SETOR": "355030808000101", "faces": 1, "pavimentada": 100.0, "bueiro": 100.0, "iluminacao": 100.0, "onibus": 0.0, "ciclovia": 0.0, "calcada": 100.0, "obstaculo": 0.0, "rampa": 100.0, "rampa_faces": 100.0, "sem_calcada": 0.0, "sem_arvore": 0.0, "muitas_arvores": 0.0, "vao": 0.0, "V05400": 1, "V05421": 1, "V05406": 1, "V05412": 1, "V05422": 0, "V05424": 0, "V05427": 1, "V05409": 1, "V05415": 0, "V05418": 0, "V05430": 0, "V05433": 0, "criancas_0a4": 25, "em_favela": false }, "geometry": { "type": "Polygon", "coordinates": [ [ [ -46.595082, -23.533614 ], [ -46.595223, -23.534024 ], [ -46.595191, -23.534076 ], [ -46.595234, -23.534186 ], [ -46.595707, -23.53404 ], [ -46.595498, -23.533483 ], [ -46.595082, -23.533614 ] ] ] } },
{ "type": "Feature", "properties": { "CD_SETOR": "355030808000102", "faces": 7, "pavimentada": 28.57, "bueiro": 28.57, "iluminacao": 28.57, "onibus": 0.0, "ciclovia": 0.0, "calcada": 28.57, "obstaculo": 0.0, "rampa": 100.0, "rampa_faces": 28.57, "sem_calcada": 0.0, "sem_arvore": 0.0, "muitas_arvores": 0.0, "vao": 0.0, "V05400": 7, "V05421": 2, "V05406": 2, "V05412": 2, "V05422": 0, "V05424": 0, "V05427": 2, "V05409": 2, "V05415": 0, "V05418": 0, "V05430": 0, "V05433": 0, "criancas_0a4": 31, "em_favela": false }, "geometry": { "type": "Polygon", "coordinates": [ [ [ -46.594602, -23.533902 ], [ -46.59456, -23.534119 ], [ -46.595234, -23.534186 ], [ -46.595191, -23.534076 ], [ -46.595223, -23.534024 ], [ -46.595082, -23.533614 ], [ -46.594602, -23.533902 ] ] ] } },
{ "type": "Feature", "properties": { "CD_SETOR": "355030808000103", "faces": 1, "pavimentada": 100.0, "bueiro": 100.0, "iluminacao": 100.0, "onibus": 0.0, "ciclovia": 0.0, "calcada": 100.0, "obstaculo": 0.0, "rampa": 100.0, "rampa_faces": 100.0, "sem_calcada": 0.0, "sem_arvore": 0.0, "muitas_arvores": 0.0, "vao": 0.0, "V05400": 1, "V05421": 1, "V05406": 1, "V05412": 1, "V05422": 0, "V05424": 0, "V05427": 1, "V05409": 1, "V05415": 0, "V05418": 0, "V05430": 0, "V05433": 0, "criancas_0a4": 39, "em_favela": false }, "geometry": { "type": "Polygon", "coordinates": [ [ [ -46.595234, -23.534186 ], [ -46.595301, -23.534577 ], [ -46.595683, -23.534641 ], [ -46.595909, -23.534578 ], [ -46.595707, -23.53404 ], [ -46.595234, -23.534186 ] ] ] } },
{ "type": "Feature", "properties": { "CD_SETOR": "355030808000104", "faces": 1, "pavimentada": 100.0, "bueiro": 100.0, "iluminacao": 100.0, "onibus": 0.0, "ciclovia": 0.0, "calcada": 100.0, "obstaculo": 0.0, "rampa": 100.0, "rampa_faces": 100.0, "sem_calcada": 0.0, "sem_arvore": 0.0, "muitas_arvores": 100.0, "vao": 0.0, "V05400": 1, "V05421": 1, "V05406": 1, "V05412": 1, "V05422": 0, "V05424": 0, "V05427": 1, "V05409": 1, "V05415": 0, "V05418": 0, "V05430": 0, "V05433": 1, "criancas_0a4": 49, "em_favela": false }, "geometry": { "type": "Polygon", "coordinates": [ [ [ -46.594434, -23.534839 ], [ -46.595135, -23.53494 ], [ -46.595258, -23.534753 ], [ -46.595301, -23.534577 ], [ -46.595234, -23.534186 ], [ -46.59456, -23.534119 ], [ -46.594434, -23.534839 ] ] ] } },
{ "type": "Feature", "properties": { "CD_SETOR": "355030808000105", "faces": 1, "pavimentada": 100.0, "bueiro": 100.0, "iluminacao": 100.0, "onibus": 0.0, "ciclovia": 0.0, "calcada": 100.0, "obstaculo": 0.0, "rampa": 100.0, "rampa_faces": 100.0, "sem_calcada": 0.0, "sem_arvore": 0.0, "muitas_arvores": 100.0, "vao": 0.0, "V05400": 1, "V05421": 1, "V05406": 1, "V05412": 1, "V05422": 0, "V05424": 0, "V05427": 1, "V05409": 1, "V05415": 0, "V05418": 0, "V05430": 0, "V05433": 1, "criancas_0a4": 10, "em_favela": false }, "geometry": { "type": "Polygon", "coordinates": [ [ [ -46.595135, -23.53494 ], [ -46.595185, -23.535245 ], [ -46.595081, -23.535739 ], [ -46.595479, -23.53574 ], [ -46.596135, -23.535195 ], [ -46.595909, -23.534578 ], [ -46.595683, -23.534641 ], [ -46.595301, -23.534577 ], [ -46.595258, -23.534753 ], [ -46.595135, -23.53494 ] ] ] } },
{ "type": "Feature", "properties": { "CD_SETOR": "355030808000106", "faces": 13, "pavimentada": 100.0, "bueiro": 53.85, "iluminacao": 100.0, "onibus": 30.77, "ciclovia": 38.46, "calcada": 92.31, "obstaculo": 50.0, "rampa": 16.67, "rampa_faces": 15.38, "sem_calcada": 7.69, "sem_arvore": 53.85, "muitas_arvores": 23.08, "vao": 84.62, "V05400": 13, "V05421": 12, "V05406": 13, "V05412": 13, "V05422": 1, "V05424": 6, "V05427": 2, "V05409": 7, "V05415": 4, "V05418": 5, "V05430": 7, "V05433": 3, "criancas_0a4": 44, "em_favela": false }, "geometry": { "type": "Polygon", "coordinates": [ [ [ -46.587859, -23.544783 ], [ -46.587293, -23.546255 ], [ -46.589967, -23.546789 ], [ -46.590249, -23.545645 ], [ -46.590113, -23.545623 ], [ -46.590191, -23.545251 ], [ -46.587859, -23.544783 ] ] ] } },
{ "type": "Feature", "properties": { "CD_SETOR": "355030808000107", "faces": 4, "pavimentada": 100.0, "bueiro": 100.0, "iluminacao": 100.0, "onibus": 75.0, "ciclovia": 50.0, "calcada": 100.0, "obstaculo": 0.0, "rampa": 75.0, "rampa_faces": 75.0, "sem_calcada": 0.0, "sem_arvore": 50.0, "muitas_arvores": 50.0, "vao": 25.0, "V05400": 4, "V05421": 4, "V05406": 4, "V05412": 4, "V05422": 0, "V05424": 0, "V05427": 3, "V05409": 4, "V05415": 3, "V05418": 2, "V05430": 2, "V05433": 2, "criancas_0a4": 0, "em_favela": false }, "geometry": { "type": "Polygon", "coordinates": [ [ [ -46.590785, -23.545894 ], [ -46.590502, -23.546892 ], [ -46.591154, -23.547036 ], [ -46.592107, -23.545976 ], [ -46.591681, -23.545557 ], [ -46.590861, -23.545387 ], [ -46.590709, -23.545869 ], [ -46.590785, -23.545894 ] ] ] } },
{ "type": "Feature", "properties": { "CD_SETOR": "355030808000108", "faces": 3, "pavimentada": 100.0, "bueiro": 100.0, "iluminacao": 100.0, "onibus": 0.0, "ciclovia": 0.0, "calcada": 100.0, "obstaculo": 0.0, "rampa": 66.67, "rampa_faces": 66.67, "sem_calcada": 0.0, "sem_arvore": 0.0, "muitas_arvores": 100.0, "vao": 33.33, "V05400": 3, "V05421": 3, "V05406": 3, "V05412": 3, "V05422": 0, "V05424": 0, "V05427": 2, "V05409": 3, "V05415": 0, "V05418": 0, "V05430": 0, "V05433": 3, "criancas_0a4": 20, "em_favela": false }, "geometry": { "type": "Polygon", "coordinates": [ [ [ -46.591353, -23.539195 ], [ -46.592002, -23.539255 ], [ -46.592087, -23.538362 ], [ -46.591426, -23.538301 ], [ -46.591353, -23.539195 ] ] ] } },
{ "type": "Feature", "properties": { "CD_SETOR": "355030808000109", "faces": 1, "pavimentada": 100.0, "bueiro": 0.0, "iluminacao": 100.0, "onibus": 0.0, "ciclovia": 0.0, "calcada": 100.0, "obstaculo": 0.0, "rampa": 100.0, "rampa_faces": 100.0, "sem_calcada": 0.0, "sem_arvore": 0.0, "muitas_arvores": 0.0, "vao": 0.0, "V05400": 1, "V05421": 1, "V05406": 1, "V05412": 1, "V05422": 0, "V05424": 0, "V05427": 1, "V05409": 0, "V05415": 0, "V05418": 0, "V05430": 0, "V05433": 0, "criancas_0a4": 9, "em_favela": false }, "geometry": { "type": "Polygon", "coordinates": [ [ [ -46.589254, -23.538994 ], [ -46.589836, -23.539051 ], [ -46.589916, -23.538159 ], [ -46.589302, -23.538109 ], [ -46.589254, -23.538994 ] ] ] } },
{ "type": "Feature", "properties": { "CD_SETOR": "355030808000110", "faces": 5, "pavimentada": 100.0, "bueiro": 100.0, "iluminacao": 100.0, "onibus": 20.0, "ciclovia": 0.0, "calcada": 100.0, "obstaculo": 0.0, "rampa": 60.0, "rampa_faces": 60.0, "sem_calcada": 0.0, "sem_arvore": 40.0, "muitas_arvores": 20.0, "vao": 40.0, "V05400": 5, "V05421": 5, "V05406": 5, "V05412": 5, "V05422": 0, "V05424": 0, "V05427": 3, "V05409": 5, "V05415": 1, "V05418": 0, "V05430": 2, "V05433": 1, "criancas_0a4": 0, "em_favela": false }, "geometry": { "type": "Polygon", "coordinates": [ [ [ -46.591509, -23.538309 ], [ -46.592087, -23.538362 ], [ -46.59221, -23.537005 ], [ -46.591889, -23.53698 ], [ -46.59179, -23.537933 ], [ -46.591559, -23.537907 ], [ -46.591509, -23.538309 ] ] ] } },
{ "type": "Feature", "properties": { "CD_SETOR": "355030808000111", "faces": 19, "pavimentada": 100.0, "bueiro": 52.63, "iluminacao": 100.0, "onibus": 26.32, "ciclovia": 0.0, "calcada": 100.0, "obstaculo": 0.0, "rampa": 68.42, "rampa_faces": 68.42, "sem_calcada": 0.0, "sem_arvore": 15.79, "muitas_arvores": 21.05, "vao": 31.58, "V05400": 19, "V05421": 19, "V05406": 19, "V05412": 19, "V05422": 0, "V05424": 0, "V05427": 13, "V05409": 10, "V05415": 5, "V05418": 0, "V05430": 3, "V05433": 4, "criancas_0a4": 23, "em_favela": false }, "geometry": { "type": "Polygon", "coordinates": [ [ [ -46.588184, -23.536465 ], [ -46.587523, -23.539133 ], [ -46.589247, -23.539463 ], [ -46.589302, -23.538109 ], [ -46.591327, -23.538292 ], [ -46.591524, -23.536952 ], [ -46.590046, -23.53681 ], [ -46.588184, -23.536465 ] ] ] } },
{ "type": "Feature", "properties": { "CD_SETOR": "355030808000112", "faces": 21, "pavimentada": 95.24, "bueiro": 95.24, "iluminacao": 95.24, "onibus": 19.05, "ciclovia": 4.76, "calcada": 95.24, "obstaculo": 0.0, "rampa": 90.0, "rampa_faces": 85.71, "sem_calcada": 0.0, "sem_arvore": 23.81, "muitas_arvores": 28.57, "vao": 9.52, "V05400": 21, "V05421": 20, "V05406": 20, "V05412": 20, "V05422": 0, "V05424": 0, "V05427": 18, "V05409": 20, "V05415": 4, "V05418": 1, "V05430": 5, "V05433": 6, "criancas_0a4": 9, "em_favela": false }, "geometry": { "type": "Polygon", "coordinates": [ [ [ -46.593901, -23.540015 ], [ -46.593072, -23.540199 ], [ -46.59275, -23.540939 ], [ -46.591718, -23.540569 ], [ -46.591629, -23.540798 ], [ -46.592202, -23.541011 ], [ -46.591892, -23.541759 ], [ -46.591334, -23.541557 ], [ -46.590957, -23.542505 ], [ -46.591072, -23.542763 ], [ -46.591035, -23.542953 ], [ -46.592984, -23.543347 ], [ -46.594324, -23.540243 ], [ -46.593901, -23.540015 ] ] ] } },
{ "type": "Feature", "properties": { "CD_SETOR": "355030808000113", "faces": 2, "pavimentada": 100.0, "bueiro": 100.0, "iluminacao": 100.0, "onibus": 0.0, "ciclovia": 50.0, "calcada": 100.0, "obstaculo": 0.0, "rampa": 100.0, "rampa_faces": 100.0, "sem_calcada": 0.0, "sem_arvore": 0.0, "muitas_arvores": 100.0, "vao": 0.0, "V05400": 2, "V05421": 2, "V05406": 2, "V05412": 2, "V05422": 0, "V05424": 0, "V05427": 2, "V05409": 2, "V05415": 0, "V05418": 1, "V05430": 0, "V05433": 2, "criancas_0a4": 12, "em_favela": false }, "geometry": { "type": "Polygon", "coordinates": [ [ [ -46.591334, -23.541557 ], [ -46.591892, -23.541759 ], [ -46.592202, -23.541011 ], [ -46.591629, -23.540798 ], [ -46.591334, -23.541557 ] ] ] } },
{ "type": "Feature", "properties": { "CD_SETOR": "355030808000114", "faces": 19, "pavimentada": 100.0, "bueiro": 84.21, "iluminacao": 100.0, "onibus": 26.32, "ciclovia": 31.58, "calcada": 89.47, "obstaculo": 47.06, "rampa": 23.53, "rampa_faces": 21.05, "sem_calcada": 10.53, "sem_arvore": 47.37, "muitas_arvores": 21.05, "vao": 78.95, "V05400": 19, "V05421": 17, "V05406": 19, "V05412": 19, "V05422": 2, "V05424": 8, "V05427": 4, "V05409": 16, "V05415": 5, "V05418": 6, "V05430": 9, "V05433": 4, "criancas_0a4": 16, "em_favela": false }, "geometry": { "type": "Polygon", "coordinates": [ [ [ -46.586816, -23.547451 ], [ -46.587528, -23.547685 ], [ -46.588363, -23.547859 ], [ -46.588451, -23.547682 ], [ -46.589181, -23.54821 ], [ -46.589674, -23.548631 ], [ -46.591154, -23.547036 ], [ -46.589593, -23.546714 ], [ -46.58935, -23.547731 ], [ -46.588796, -23.547603 ], [ -46.589064, -23.546609 ], [ -46.587293, -23.546255 ], [ -46.586816, -23.547451 ] ] ] } },
{ "type": "Feature", "properties": { "CD_SETOR": "355030808000115", "faces": 1, "pavimentada": 100.0, "bueiro": 100.0, "iluminacao": 100.0, "onibus": 100.0, "ciclovia": 100.0, "calcada": 100.0, "obstaculo": 0.0, "rampa": 0.0, "rampa_faces": 0.0, "sem_calcada": 0.0, "sem_arvore": 0.0, "muitas_arvores": 100.0, "vao": 100.0, "V05400": 1, "V05421": 1, "V05406": 1, "V05412": 1, "V05422": 0, "V05424": 0, "V05427": 0, "V05409": 1, "V05415": 1, "V05418": 1, "V05430": 0, "V05433": 1, "criancas_0a4": 51, "em_favela": false }, "geometry": { "type": "Polygon", "coordinates": [ [ [ -46.589593, -23.546714 ], [ -46.589064, -23.546609 ], [ -46.588796, -23.547603 ], [ -46.58935, -23.547731 ], [ -46.589593, -23.546714 ] ] ] } },
{ "type": "Feature", "properties": { "CD_SETOR": "355030808000116", "faces": 14, "pavimentada": 100.0, "bueiro": 78.57, "iluminacao": 100.0, "onibus": 28.57, "ciclovia": 0.0, "calcada": 100.0, "obstaculo": 7.14, "rampa": 57.14, "rampa_faces": 57.14, "sem_calcada": 0.0, "sem_arvore": 57.14, "muitas_arvores": 28.57, "vao": 42.86, "V05400": 14, "V05421": 14, "V05406": 14, "V05412": 14, "V05422": 0, "V05424": 1, "V05427": 8, "V05409": 11, "V05415": 4, "V05418": 0, "V05430": 8, "V05433": 4, "criancas_0a4": 24, "em_favela": false }, "geometry": { "type": "Polygon", "coordinates": [ [ [ -46.599205, -23.53643 ], [ -46.598607, -23.537577 ], [ -46.597968, -23.537273 ], [ -46.59868, -23.536189 ], [ -46.597801, -23.535782 ], [ -46.59903, -23.533619 ], [ -46.597841, -23.533701 ], [ -46.596578, -23.532385 ], [ -46.595429, -23.533309 ], [ -46.596135, -23.535195 ], [ -46.595479, -23.53574 ], [ -46.595081, -23.535739 ], [ -46.595185, -23.535245 ], [ -46.595135, -23.53494 ], [ -46.594434, -23.534839 ], [ -46.594308, -23.5356 ], [ -46.594251, -23.535594 ], [ -46.594129, -23.536755 ], [ -46.593532, -23.536681 ], [ -46.593467, -23.537126 ], [ -46.594981, -23.537309 ], [ -46.598298, -23.538054 ], [ -46.598874, -23.538087 ], [ -46.599522, -23.536577 ], [ -46.599205, -23.53643 ] ] ] } },
{ "type": "Feature", "properties": { "CD_SETOR": "355030808000117", "faces": 4, "pavimentada": 100.0, "bueiro": 50.0, "iluminacao": 100.0, "onibus": 0.0, "ciclovia": 0.0, "calcada": 50.0, "obstaculo": 0.0, "rampa": 0.0, "rampa_faces": 0.0, "sem_calcada": 50.0, "sem_arvore": 50.0, "muitas_arvores": 25.0, "vao": 100.0, "V05400": 4, "V05421": 2, "V05406": 4, "V05412": 4, "V05422": 2, "V05424": 0, "V05427": 0, "V05409": 2, "V05415": 0, "V05418": 0, "V05430": 2, "V05433": 1, "criancas_0a4": 16, "em_favela": false }, "geometry": { "type": "Polygon", "coordinates": [ [ [ -46.598424, -23.536583 ], [ -46.598999, -23.536815 ], [ -46.599205, -23.53643 ], [ -46.59868, -23.536189 ], [ -46.598424, -23.536583 ] ] ] } },
{ "type": "Feature", "properties": { "CD_SETOR": "355030808000118", "faces": 1, "pavimentada": 100.0, "bueiro": 0.0, "iluminacao": 100.0, "onibus": 0.0, "ciclovia": 0.0, "calcada": 0.0, "obstaculo": null, "rampa": null, "rampa_faces": 0.0, "sem_calcada": 100.0, "sem_arvore": 100.0, "muitas_arvores": 0.0, "vao": 100.0, "V05400": 1, "V05421": 0, "V05406": 1, "V05412": 1, "V05422": 1, "V05424": 0, "V05427": 0, "V05409": 0, "V05415": 0, "V05418": 0, "V05430": 1, "V05433": 0, "criancas_0a4": 20, "em_favela": false }, "geometry": { "type": "Polygon", "coordinates": [ [ [ -46.598999, -23.536815 ], [ -46.598424, -23.536583 ], [ -46.598279, -23.536804 ], [ -46.598882, -23.537054 ], [ -46.598999, -23.536815 ] ] ] } },
{ "type": "Feature", "properties": { "CD_SETOR": "355030808000119", "faces": 1, "pavimentada": 100.0, "bueiro": 0.0, "iluminacao": 100.0, "onibus": 0.0, "ciclovia": 0.0, "calcada": 0.0, "obstaculo": null, "rampa": null, "rampa_faces": 0.0, "sem_calcada": 100.0, "sem_arvore": 100.0, "muitas_arvores": 0.0, "vao": 100.0, "V05400": 1, "V05421": 0, "V05406": 1, "V05412": 1, "V05422": 1, "V05424": 0, "V05427": 0, "V05409": 0, "V05415": 0, "V05418": 0, "V05430": 1, "V05433": 0, "criancas_0a4": 0, "em_favela": false }, "geometry": { "type": "Polygon", "coordinates": [ [ [ -46.598882, -23.537054 ], [ -46.598279, -23.536804 ], [ -46.598123, -23.537036 ], [ -46.598752, -23.537303 ], [ -46.598882, -23.537054 ] ] ] } },
{ "type": "Feature", "properties": { "CD_SETOR": "355030808000120", "faces": 1, "pavimentada": 100.0, "bueiro": 0.0, "iluminacao": 100.0, "onibus": 0.0, "ciclovia": 0.0, "calcada": 0.0, "obstaculo": null, "rampa": null, "rampa_faces": 0.0, "sem_calcada": 100.0, "sem_arvore": 100.0, "muitas_arvores": 0.0, "vao": 100.0, "V05400": 1, "V05421": 0, "V05406": 1, "V05412": 1, "V05422": 1, "V05424": 0, "V05427": 0, "V05409": 0, "V05415": 0, "V05418": 0, "V05430": 1, "V05433": 0, "criancas_0a4": 17, "em_favela": false }, "geometry": { "type": "Polygon", "coordinates": [ [ [ -46.598752, -23.537303 ], [ -46.598123, -23.537036 ], [ -46.597968, -23.537273 ], [ -46.598607, -23.537577 ], [ -46.598752, -23.537303 ] ] ] } }
]
}
