{
"type": "FeatureCollection",
"name": "bom-retiro",
"crs": { "type": "name", "properties": { "name": "urn:ogc:def:crs:OGC:1.3:CRS84" } },
"xy_coordinate_resolution": 1e-06,
"features": [
{ "type": "Feature", "properties": { "CD_SETOR": "355030809000001", "faces": 12, "pavimentada": 100.0, "bueiro": 100.0, "iluminacao": 100.0, "onibus": 25.0, "ciclovia": 33.33, "calcada": 100.0, "obstaculo": 0.0, "rampa": 100.0, "rampa_faces": 100.0, "sem_calcada": 0.0, "sem_arvore": 0.0, "muitas_arvores": 66.67, "vao": 0.0, "V05400": 12, "V05421": 12, "V05406": 12, "V05412": 12, "V05422": 0, "V05424": 0, "V05427": 12, "V05409": 12, "V05415": 3, "V05418": 4, "V05430": 0, "V05433": 8, "criancas_0a4": 6, "em_favela": false }, "geometry": { "type": "Polygon", "coordinates": [ [ [ -46.63552, -23.528378 ], [ -46.635878, -23.529511 ], [ -46.637129, -23.529186 ], [ -46.638056, -23.531022 ], [ -46.638158, -23.530991 ], [ -46.638463, -23.53017 ], [ -46.637624, -23.527692 ], [ -46.63552, -23.528378 ] ] ] } },
{ "type": "Feature", "properties": { "CD_SETOR": "355030809000005", "faces": 1, "pavimentada": 100.0, "bueiro": 100.0, "iluminacao": 100.0, "onibus": 0.0, "ciclovia": 0.0, "calcada": 100.0, "obstaculo": 0.0, "rampa": 100.0, "rampa_faces": 100.0, "sem_calcada": 0.0, "sem_arvore": 0.0, "muitas_arvores": 100.0, "vao": 0.0, "V05400": 1, "V05421": 1, "V05406": 1, "V05412": 1, "V05422": 0, "V05424": 0, "V05427": 1, "V05409": 1, "V05415": 0, "V05418": 0, "V05430": 0, "V05433": 1, "criancas_0a4": 0, "em_favela": false }, "geometry": { "type": "Polygon", "coordinates": [ [ [ -46.636283, -23.531057 ], [ -46.635661, -23.531202 ], [ -46.635778, -23.531618 ], [ -46.636399, -23.531462 ], [ -46.636283, -23.531057 ] ] ] } },
{ "type": "Feature", "properties": { "CD_SETOR": "355030809000007", "faces": 7, "pavimentada": 100.0, "bueiro": 100.0, "iluminacao": 100.0, "onibus": 28.57, "ciclovia": 28.57, "calcada": 100.0, "obstaculo": 14.29, "rampa": 100.0, "rampa_faces": 100.0, "sem_calcada": 0.0, "sem_arvore": 0.0, "muitas_arvores": 28.57, "vao": 0.0, "V05400": 7, "V05421": 7, "V05406": 7, "V05412": 7, "V05422": 0, "V05424": 1, "V05427": 7, "V05409": 7, "V05415": 2, "V05418": 2, "V05430": 0, "V05433": 2, "criancas_0a4": 17, "em_favela": false }, "geometry": { "type": "Polygon", "coordinates": [ [ [ -46.637624, -23.527692 ], [ -46.637661, -23.527841 ], [ -46.638463, -23.53017 ], [ -46.63905, -23.52854 ], [ -46.638447, -23.527415 ], [ -46.637624, -23.527692 ] ] ] } },
{ "type": "Feature", "properties": { "CD_SETOR": "355030809000008", "faces": 8, "pavimentada": 100.0, "bueiro": 100.0, "iluminacao": 100.0, "onibus": 0.0, "ciclovia": 0.0, "calcada": 100.0, "obstaculo": 50.0, "rampa": 50.0, "rampa_faces": 50.0, "sem_calcada": 0.0, "sem_arvore": 0.0, "muitas_arvores": 25.0, "vao": 50.0, "V05400": 8, "V05421": 8, "V05406": 8, "V05412": 8, "V05422": 0, "V05424": 4, "V05427": 4, "V05409": 8, "V05415": 0, "V05418": 0, "V05430": 0, "V05433": 2, "criancas_0a4": 20, "em_favela": false }, "geometry": { "type": "Polygon", "coordinates": [ [ [ -46.637596, -23.527578 ], [ -46.637624, -23.527692 ], [ -46.638447, -23.527415 ], [ -46.63844, -23.527327 ], [ -46.639626, -23.525189 ], [ -46.639046, -23.524919 ], [ -46.637596, -23.527578 ] ] ] } },
{ "type": "Feature", "properties": { "CD_SETOR": "355030809000010", "faces": 16, "pavimentada": 100.0, "bueiro": 100.0, "iluminacao": 100.0, "onibus": 12.5, "ciclovia": 25.0, "calcada": 100.0, "obstaculo": 68.75, "rampa": 37.5, "rampa_faces": 37.5, "sem_calcada": 0.0, "sem_arvore": 6.25, "muitas_arvores": 43.75, "vao": 62.5, "V05400": 16, "V05421": 16, "V05406": 16, "V05412": 16, "V05422": 0, "V05424": 11, "V05427": 6, "V05409": 16, "V05415": 2, "V05418": 4, "V05430": 1, "V05433": 7, "criancas_0a4": 12, "em_favela": false }, "geometry": { "type": "Polygon", "coordinates": [ [ [ -46.633105, -23.526409 ], [ -46.633605, -23.528155 ], [ -46.636391, -23.527295 ], [ -46.636233, -23.526521 ], [ -46.636063, -23.525179 ], [ -46.637651, -23.524766 ], [ -46.637519, -23.524195 ], [ -46.634479, -23.525072 ], [ -46.634763, -23.525968 ], [ -46.633105, -23.526409 ] ] ] } },
{ "type": "Feature", "properties": { "CD_SETOR": "355030809000012", "faces": 19, "pavimentada": 100.0, "bueiro": 100.0, "iluminacao": 100.0, "onibus": 47.37, "ciclovia": 0.0, "calcada": 94.74, "obstaculo": 0.0, "rampa": 100.0, "rampa_faces": 94.74, "sem_calcada": 5.26, "sem_arvore": 21.05, "muitas_arvores": 57.89, "vao": 5.26, "V05400": 19, "V05421": 18, "V05406": 19, "V05412": 19, "V05422": 1, "V05424": 0, "V05427": 18, "V05409": 19, "V05415": 9, "V05418": 0, "V05430": 4, "V05433": 11, "criancas_0a4": 15, "em_favela": false }, "geometry": { "type": "Polygon", "coordinates": [ [ [ -46.633605, -23.528155 ], [ -46.63168, -23.528748 ], [ -46.631544, -23.5287 ], [ -46.632099, -23.530651 ], [ -46.633194, -23.53417 ], [ -46.633564, -23.535467 ], [ -46.633592, -23.535819 ], [ -46.636875, -23.535017 ], [ -46.636657, -23.534439 ], [ -46.636767, -23.534204 ], [ -46.637056, -23.533827 ], [ -46.637053, -23.53367 ], [ -46.636473, -23.531735 ], [ -46.636482, -23.531433 ], [ -46.634727, -23.531884 ], [ -46.633605, -23.528155 ] ] ] } },
{ "type": "Feature", "properties": { "CD_SETOR": "355030809000015", "faces": 4, "pavimentada": 100.0, "bueiro": 100.0, "iluminacao": 100.0, "onibus": 50.0, "ciclovia": 0.0, "calcada": 100.0, "obstaculo": 0.0, "rampa": 75.0, "rampa_faces": 75.0, "sem_calcada": 0.0, "sem_arvore": 0.0, "muitas_arvores": 50.0, "vao": 25.0, "V05400": 4, "V05421": 4, "V05406": 4, "V05412": 4, "V05422": 0, "V05424": 0, "V05427": 3, "V05409": 4, "V05415": 2, "V05418": 0, "V05430": 0, "V05433": 2, "criancas_0a4": 15, "em_favela": false }, "geometry": { "type": "Polygon", "coordinates": [ [ [ -46.638447, -23.527415 ], [ -46.63905, -23.52854 ], [ -46.640038, -23.526764 ], [ -46.639013, -23.5263 ], [ -46.63844, -23.527327 ], [ -46.638447, -23.527415 ] ] ] } },
{ "type": "Feature", "properties": { "CD_SETOR": "355030809000016", "faces": 4, "pavimentada": 100.0, "bueiro": 100.0, "iluminacao": 100.0, "onibus": 0.0, "ciclovia": 0.0, "calcada": 100.0, "obstaculo": 0.0, "rampa": 50.0, "rampa_faces": 50.0, "sem_calcada": 0.0, "sem_arvore": 0.0, "muitas_arvores": 25.0, "vao": 50.0, "V05400": 4, "V05421": 4, "V05406": 4, "V05412": 4, "V05422": 0, "V05424": 0, "V05427": 2, "V05409": 4, "V05415": 0, "V05418": 0, "V05430": 0, "V05433": 1, "criancas_0a4": 15, "em_favela": false }, "geometry": { "type": "Polygon", "coordinates": [ [ [ -46.639013, -23.5263 ], [ -46.640038, -23.526764 ], [ -46.640636, -23.52567 ], [ -46.639626, -23.525189 ], [ -46.639013, -23.5263 ] ] ] } },
{ "type": "Feature", "properties": { "CD_SETOR": "355030809000017", "faces": 6, "pavimentada": 100.0, "bueiro": 100.0, "iluminacao": 100.0, "onibus": 0.0, "ciclovia": 0.0, "calcada": 100.0, "obstaculo": 50.0, "rampa": 83.33, "rampa_faces": 83.33, "sem_calcada": 0.0, "sem_arvore": 0.0, "muitas_arvores": 50.0, "vao": 16.67, "V05400": 6, "V05421": 6, "V05406": 6, "V05412": 6, "V05422": 0, "V05424": 3, "V05427": 5, "V05409": 6, "V05415": 0, "V05418": 0, "V05430": 0, "V05433": 3, "criancas_0a4": 15, "em_favela": false }, "geometry": { "type": "Polygon", "coordinates": [ [ [ -46.638339, -23.52459 ], [ -46.636958, -23.524946 ], [ -46.637095, -23.525393 ], [ -46.637679, -23.525684 ], [ -46.637077, -23.526444 ], [ -46.637133, -23.527128 ], [ -46.637596, -23.527578 ], [ -46.639046, -23.524919 ], [ -46.638339, -23.52459 ] ] ] } },
{ "type": "Feature", "properties": { "CD_SETOR": "355030809000019", "faces": 43, "pavimentada": 100.0, "bueiro": 76.74, "iluminacao": 100.0, "onibus": 37.21, "ciclovia": 27.91, "calcada": 97.67, "obstaculo": 28.57, "rampa": 76.19, "rampa_faces": 74.42, "sem_calcada": 2.33, "sem_arvore": 11.63, "muitas_arvores": 55.81, "vao": 25.58, "V05400": 43, "V05421": 42, "V05406": 43, "V05412": 43, "V05422": 1, "V05424": 12, "V05427": 32, "V05409": 33, "V05415": 16, "V05418": 12, "V05430": 5, "V05433": 24, "criancas_0a4": 34, "em_favela": false }, "geometry": { "type": "Polygon", "coordinates": [ [ [ -46.625201, -23.519303 ], [ -46.625359, -23.524688 ], [ -46.627441, -23.524297 ], [ -46.627251, -23.523404 ], [ -46.628522, -23.523164 ], [ -46.62889, -23.524899 ], [ -46.629077, -23.525138 ], [ -46.629771, -23.52484 ], [ -46.630859, -23.524178 ], [ -46.630817, -23.523651 ], [ -46.630494, -23.523054 ], [ -46.630152, -23.520708 ], [ -46.630079, -23.519537 ], [ -46.629999, -23.519004 ], [ -46.625201, -23.519303 ] ], [ [ -46.628476, -23.522687 ], [ -46.628594, -23.522671 ], [ -46.628572, -23.522537 ], [ -46.629373, -23.522408 ], [ -46.629428, -23.522765 ], [ -46.628526, -23.522932 ], [ -46.628476, -23.522687 ] ] ] } },
{ "type": "Feature", "properties": { "CD_SETOR": "355030809000020", "faces": 21, "pavimentada": 100.0, "bueiro": 100.0, "iluminacao": 100.0, "onibus": 57.14, "ciclovia": 14.29, "calcada": 100.0, "obstaculo": 33.33, "rampa": 80.95, "rampa_faces": 80.95, "sem_calcada": 0.0, "sem_arvore": 19.05, "muitas_arvores": 57.14, "vao": 19.05, "V05400": 21, "V05421": 21, "V05406": 21, "V05412": 21, "V05422": 0, "V05424": 7, "V05427": 17, "V05409": 21, "V05415": 12, "V05418": 3, "V05430": 4, "V05433": 12, "criancas_0a4": 41, "em_favela": false }, "geometry": { "type": "Polygon", "coordinates": [ [ [ -46.625359, -23.524688 ], [ -46.625415, -23.526352 ], [ -46.626995, -23.527091 ], [ -46.62747, -23.526093 ], [ -46.628782, -23.526226 ], [ -46.628945, -23.525883 ], [ -46.628878, -23.525476 ], [ -46.629077, -23.525138 ], [ -46.62889, -23.524899 ], [ -46.628522, -23.523164 ], [ -46.627251, -23.523404 ], [ -46.627441, -23.524297 ], [ -46.625359, -23.524688 ] ] ] } },
{ "type": "Feature", "properties": { "CD_SETOR": "355030809000027", "faces": 12, "pavimentada": 100.0, "bueiro": 75.0, "iluminacao": 100.0, "onibus": 33.33, "ciclovia": 0.0, "calcada": 100.0, "obstaculo": 8.33, "rampa": 100.0, "rampa_faces": 100.0, "sem_calcada": 0.0, "sem_arvore": 25.0, "muitas_arvores": 25.0, "vao": 0.0, "V05400": 12, "V05421": 12, "V05406": 12, "V05412": 12, "V05422": 0, "V05424": 1, "V05427": 12, "V05409": 9, "V05415": 4, "V05418": 0, "V05430": 3, "V05433": 3, "criancas_0a4": 35, "em_favela": false }, "geometry": { "type": "Polygon", "coordinates": [ [ [ -46.629831, -23.533125 ], [ -46.630314, -23.534906 ], [ -46.63327, -23.534435 ], [ -46.632663, -23.532426 ], [ -46.629831, -23.533125 ] ] ] } },
{ "type": "Feature", "properties": { "CD_SETOR": "355030809000028", "faces": 17, "pavimentada": 100.0, "bueiro": 100.0, "iluminacao": 100.0, "onibus": 47.06, "ciclovia": 41.18, "calcada": 100.0, "obstaculo": 11.76, "rampa": 52.94, "rampa_faces": 52.94, "sem_calcada": 0.0, "sem_arvore": 23.53, "muitas_arvores": 23.53, "vao": 47.06, "V05400": 17, "V05421": 17, "V05406": 17, "V05412": 17, "V05422": 0, "V05424": 2, "V05427": 9, "V05409": 17, "V05415": 8, "V05418": 7, "V05430": 4, "V05433": 4, "criancas_0a4": 31, "em_favela": false }, "geometry": { "type": "Polygon", "coordinates": [ [ [ -46.641049, -23.527247 ], [ -46.641984, -23.527837 ], [ -46.641074, -23.529506 ], [ -46.642217, -23.530084 ], [ -46.642611, -23.529595 ], [ -46.642926, -23.529291 ], [ -46.6437, -23.528739 ], [ -46.644569, -23.528308 ], [ -46.645423, -23.528028 ], [ -46.641527, -23.526203 ], [ -46.641446, -23.526521 ], [ -46.641049, -23.527247 ] ] ] } },
{ "type": "Feature", "properties": { "CD_SETOR": "355030809000029", "faces": 19, "pavimentada": 100.0, "bueiro": 100.0, "iluminacao": 100.0, "onibus": 26.32, "ciclovia": 21.05, "calcada": 94.74, "obstaculo": 38.89, "rampa": 33.33, "rampa_faces": 31.58, "sem_calcada": 5.26, "sem_arvore": 5.26, "muitas_arvores": 42.11, "vao": 68.42, "V05400": 19, "V05421": 18, "V05406": 19, "V05412": 19, "V05422": 1, "V05424": 7, "V05427": 6, "V05409": 19, "V05415": 5, "V05418": 4, "V05430": 1, "V05433": 8, "criancas_0a4": 28, "em_favela": false }, "geometry": { "type": "Polygon", "coordinates": [ [ [ -46.640636, -23.52567 ], [ -46.641429, -23.526052 ], [ -46.641438, -23.526135 ], [ -46.641527, -23.526203 ], [ -46.64483, -23.52773 ], [ -46.645605, -23.526246 ], [ -46.641438, -23.524213 ], [ -46.640636, -23.52567 ] ] ] } },
{ "type": "Feature", "properties": { "CD_SETOR": "355030809000030", "faces": 12, "pavimentada": 100.0, "bueiro": 91.67, "iluminacao": 100.0, "onibus": 0.0, "ciclovia": 0.0, "calcada": 100.0, "obstaculo": 25.0, "rampa": 50.0, "rampa_faces": 50.0, "sem_calcada": 0.0, "sem_arvore": 8.33, "muitas_arvores": 16.67, "vao": 50.0, "V05400": 12, "V05421": 12, "V05406": 12, "V05412": 12, "V05422": 0, "V05424": 3, "V05427": 6, "V05409": 11, "V05415": 0, "V05418": 0, "V05430": 1, "V05433": 2, "criancas_0a4": 8, "em_favela": false }, "geometry": { "type": "Polygon", "coordinates": [ [ [ -46.640439, -23.523725 ], [ -46.639626, -23.525189 ], [ -46.640636, -23.52567 ], [ -46.641995, -23.523177 ], [ -46.641073, -23.522763 ], [ -46.640535, -23.523757 ], [ -46.640439, -23.523725 ] ] ] } },
{ "type": "Feature", "properties": { "CD_SETOR": "355030809000031", "faces": 23, "pavimentada": 100.0, "bueiro": 78.26, "iluminacao": 100.0, "onibus": 0.0, "ciclovia": 17.39, "calcada": 100.0, "obstaculo": 52.17, "rampa": 39.13, "rampa_faces": 39.13, "sem_calcada": 0.0, "sem_arvore": 17.39, "muitas_arvores": 60.87, "vao": 60.87, "V05400": 23, "V05421": 23, "V05406": 23, "V05412": 23, "V05422": 0, "V05424": 12, "V05427": 9, "V05409": 18, "V05415": 0, "V05418": 4, "V05430": 4, "V05433": 14, "criancas_0a4": 20, "em_favela": false }, "geometry": { "type": "Polygon", "coordinates": [ [ [ -46.63703, -23.522057 ], [ -46.637651, -23.524766 ], [ -46.638339, -23.52459 ], [ -46.639626, -23.525189 ], [ -46.640439, -23.523725 ], [ -46.63703, -23.522057 ] ] ] } },
{ "type": "Feature", "properties": { "CD_SETOR": "355030809000032", "faces": 19, "pavimentada": 100.0, "bueiro": 100.0, "iluminacao": 100.0, "onibus": 15.79, "ciclovia": 0.0, "calcada": 94.74, "obstaculo": 83.33, "rampa": 100.0, "rampa_faces": 94.74, "sem_calcada": 5.26, "sem_arvore": 21.05, "muitas_arvores": 5.26, "vao": 5.26, "V05400": 19, "V05421": 18, "V05406": 19, "V05412": 19, "V05422": 1, "V05424": 15, "V05427": 18, "V05409": 19, "V05415": 3, "V05418": 0, "V05430": 4, "V05433": 1, "criancas_0a4": 27, "em_favela": false }, "geometry": { "type": "Polygon", "coordinates": [ [ [ -46.627338, -23.535393 ], [ -46.625661, -23.535665 ], [ -46.626544, -23.537605 ], [ -46.6281, -23.537209 ], [ -46.627338, -23.535393 ] ] ] } },
{ "type": "Feature", "properties": { "CD_SETOR": "355030809000033", "faces": 31, "pavimentada": 100.0, "bueiro": 90.32, "iluminacao": 100.0, "onibus": 6.45, "ciclovia": 0.0, "calcada": 100.0, "obstaculo": 25.81, "rampa": 61.29, "rampa_faces": 61.29, "sem_calcada": 0.0, "sem_arvore": 25.81, "muitas_arvores": 35.48, "vao": 38.71, "V05400": 31, "V05421": 31, "V05406": 31, "V05412": 31, "V05422": 0, "V05424": 8, "V05427": 19, "V05409": 28, "V05415": 2, "V05418": 0, "V05430": 8, "V05433": 11, "criancas_0a4": 37, "em_favela": false }, "geometry": { "type": "Polygon", "coordinates": [ [ [ -46.63327, -23.534435 ], [ -46.627338, -23.535393 ], [ -46.6281, -23.537209 ], [ -46.633592, -23.535819 ], [ -46.633564, -23.535467 ], [ -46.63327, -23.534435 ] ], [ [ -46.632156, -23.535023 ], [ -46.632231, -23.535793 ], [ -46.630793, -23.536002 ], [ -46.630737, -23.535488 ], [ -46.631213, -23.535443 ], [ -46.631176, -23.535115 ], [ -46.632156, -23.535023 ] ] ] } },
{ "type": "Feature", "properties": { "CD_SETOR": "355030809000037", "faces": 5, "pavimentada": 100.0, "bueiro": 40.0, "iluminacao": 100.0, "onibus": 20.0, "ciclovia": 0.0, "calcada": 40.0, "obstaculo": 0.0, "rampa": 50.0, "rampa_faces": 20.0, "sem_calcada": 60.0, "sem_arvore": 0.0, "muitas_arvores": 20.0, "vao": 80.0, "V05400": 5, "V05421": 2, "V05406": 5, "V05412": 5, "V05422": 3, "V05424": 0, "V05427": 1, "V05409": 2, "V05415": 1, "V05418": 0, "V05430": 0, "V05433": 1, "criancas_0a4": 47, "em_favela": false }, "geometry": { "type": "Polygon", "coordinates": [ [ [ -46.639304, -23.520505 ], [ -46.639193, -23.52055 ], [ -46.639156, -23.520456 ], [ -46.637996, -23.52091 ], [ -46.638169, -23.52129 ], [ -46.638435, -23.52125 ], [ -46.638449, -23.521296 ], [ -46.638203, -23.521395 ], [ -46.638289, -23.521582 ], [ -46.638799, -23.521646 ], [ -46.6396, -23.521526 ], [ -46.639446, -23.520816 ], [ -46.639304, -23.520505 ] ] ] } },
{ "type": "Feature", "properties": { "CD_SETOR": "355030809000042", "faces": 10, "pavimentada": 100.0, "bueiro": 80.0, "iluminacao": 100.0, "onibus": 10.0, "ciclovia": 0.0, "calcada": 90.0, "obstaculo": 11.11, "rampa": 44.44, "rampa_faces": 40.0, "sem_calcada": 10.0, "sem_arvore": 20.0, "muitas_arvores": 80.0, "vao": 60.0, "V05400": 10, "V05421": 9, "V05406": 10, "V05412": 10, "V05422": 1, "V05424": 1, "V05427": 4, "V05409": 8, "V05415": 1, "V05418": 0, "V05430": 2, "V05433": 8, "criancas_0a4": 0, "em_favela": false }, "geometry": { "type": "Polygon", "coordinates": [ [ [ -46.650419, -23.517256 ], [ -46.650527, -23.518047 ], [ -46.650677, -23.518209 ], [ -46.650846, -23.518252 ], [ -46.652609, -23.519534 ], [ -46.653082, -23.51874 ], [ -46.654024, -23.517955 ], [ -46.654092, -23.517781 ], [ -46.653948, -23.516764 ], [ -46.650419, -23.517256 ] ] ] } },
{ "type": "Feature", "properties": { "CD_SETOR": "355030809000045", "faces": 26, "pavimentada": 0.0, "bueiro": 50.0, "iluminacao": 0.0, "onibus": 0.0, "ciclovia": 0.0, "calcada": 0.0, "obstaculo": null, "rampa": null, "rampa_faces": 0.0, "sem_calcada": 96.15, "sem_arvore": 96.15, "muitas_arvores": 0.0, "vao": 0.0, "V05400": 26, "V05421": 0, "V05406": 0, "V05412": 0, "V05422": 25, "V05424": 0, "V05427": 0, "V05409": 13, "V05415": 0, "V05418": 0, "V05430": 25, "V05433": 0, "criancas_0a4": 132, "em_favela": true }, "geometry": { "type": "Polygon", "coordinates": [ [ [ -46.645423, -23.528028 ], [ -46.644569, -23.528308 ], [ -46.6437, -23.528739 ], [ -46.642926, -23.529291 ], [ -46.642611, -23.529595 ], [ -46.642217, -23.530084 ], [ -46.642369, -23.530182 ], [ -46.642704, -23.529798 ], [ -46.643266, -23.529328 ], [ -46.643904, -23.528955 ], [ -46.644489, -23.528724 ], [ -46.645341, -23.52856 ], [ -46.645957, -23.528547 ], [ -46.646901, -23.528633 ], [ -46.646922, -23.527878 ], [ -46.646604, -23.527864 ], [ -46.645423, -23.528028 ] ] ] } },
{ "type": "Feature", "properties": { "CD_SETOR": "355030809000046", "faces": 1, "pavimentada": 100.0, "bueiro": 0.0, "iluminacao": 100.0, "onibus": 0.0, "ciclovia": 0.0, "calcada": 100.0, "obstaculo": 0.0, "rampa": 0.0, "rampa_faces": 0.0, "sem_calcada": 0.0, "sem_arvore": 0.0, "muitas_arvores": 0.0, "vao": 100.0, "V05400": 1, "V05421": 1, "V05406": 1, "V05412": 1, "V05422": 0, "V05424": 0, "V05427": 0, "V05409": 0, "V05415": 0, "V05418": 0, "V05430": 0, "V05433": 0, "criancas_0a4": 29, "em_favela": false }, "geometry": { "type": "Polygon", "coordinates": [ [ [ -46.628476, -23.522687 ], [ -46.628526, -23.522932 ], [ -46.629428, -23.522765 ], [ -46.629373, -23.522408 ], [ -46.628572, -23.522537 ], [ -46.628594, -23.522671 ], [ -46.628476, -23.522687 ] ] ] } },
{ "type": "Feature", "properties": { "CD_SETOR": "355030809000047", "faces": 3, "pavimentada": 100.0, "bueiro": 33.33, "iluminacao": 100.0, "onibus": 33.33, "ciclovia": 0.0, "calcada": 100.0, "obstaculo": 33.33, "rampa": 100.0, "rampa_faces": 100.0, "sem_calcada": 0.0, "sem_arvore": 0.0, "muitas_arvores": 66.67, "vao": 0.0, "V05400": 3, "V05421": 3, "V05406": 3, "V05412": 3, "V05422": 0, "V05424": 1, "V05427": 3, "V05409": 1, "V05415": 1, "V05418": 0, "V05430": 0, "V05433": 2, "criancas_0a4": 9, "em_favela": false }, "geometry": { "type": "Polygon", "coordinates": [ [ [ -46.631319, -23.52676 ], [ -46.631439, -23.527503 ], [ -46.63238, -23.527232 ], [ -46.631534, -23.526758 ], [ -46.631319, -23.52676 ] ] ] } },
{ "type": "Feature", "properties": { "CD_SETOR": "355030809000048", "faces": 1, "pavimentada": 100.0, "bueiro": 100.0, "iluminacao": 100.0, "onibus": 0.0, "ciclovia": 0.0, "calcada": 100.0, "obstaculo": 0.0, "rampa": 100.0, "rampa_faces": 100.0, "sem_calcada": 0.0, "sem_arvore": 0.0, "muitas_arvores": 100.0, "vao": 0.0, "V05400": 1, "V05421": 1, "V05406": 1, "V05412": 1, "V05422": 0, "V05424": 0, "V05427": 1, "V05409": 1, "V05415": 0, "V05418": 0, "V05430": 0, "V05433": 1, "criancas_0a4": 4, "em_favela": false }, "geometry": { "type": "Polygon", "coordinates": [ [ [ -46.63218, -23.535352 ], [ -46.631889, -23.535379 ], [ -46.631928, -23.535866 ], [ -46.632231, -23.535793 ], [ -46.63218, -23.535352 ] ] ] } },
{ "type": "Feature", "properties": { "CD_SETOR": "355030809000051", "faces": 8, "pavimentada": 100.0, "bueiro": 75.0, "iluminacao": 100.0, "onibus": 25.0, "ciclovia": 0.0, "calcada": 100.0, "obstaculo": 0.0, "rampa": 87.5, "rampa_faces": 87.5, "sem_calcada": 0.0, "sem_arvore": 37.5, "muitas_arvores": 0.0, "vao": 12.5, "V05400": 8, "V05421": 8, "V05406": 8, "V05412": 8, "V05422": 0, "V05424": 0, "V05427": 7, "V05409": 6, "V05415": 2, "V05418": 0, "V05430": 3, "V05433": 0, "criancas_0a4": 40, "em_favela": false }, "geometry": { "type": "Polygon", "coordinates": [ [ [ -46.625192, -23.534278 ], [ -46.625323, -23.534922 ], [ -46.625661, -23.535665 ], [ -46.626824, -23.535477 ], [ -46.626483, -23.534533 ], [ -46.626625, -23.534483 ], [ -46.626746, -23.534776 ], [ -46.627057, -23.534722 ], [ -46.626723, -23.533933 ], [ -46.626595, -23.533928 ], [ -46.625192, -23.534278 ] ] ] } },
{ "type": "Feature", "properties": { "CD_SETOR": "355030809000052", "faces": 2, "pavimentada": 100.0, "bueiro": 100.0, "iluminacao": 100.0, "onibus": 50.0, "ciclovia": 0.0, "calcada": 100.0, "obstaculo": 0.0, "rampa": 100.0, "rampa_faces": 100.0, "sem_calcada": 0.0, "sem_arvore": 0.0, "muitas_arvores": 0.0, "vao": 0.0, "V05400": 2, "V05421": 2, "V05406": 2, "V05412": 2, "V05422": 0, "V05424": 0, "V05427": 2, "V05409": 2, "V05415": 1, "V05418": 0, "V05430": 0, "V05433": 0, "criancas_0a4": 23, "em_favela": false }, "geometry": { "type": "Polygon", "coordinates": [ [ [ -46.626824, -23.535477 ], [ -46.627338, -23.535393 ], [ -46.627057, -23.534722 ], [ -46.626746, -23.534776 ], [ -46.626625, -23.534483 ], [ -46.626483, -23.534533 ], [ -46.626824, -23.535477 ] ] ] } },
{ "type": "Feature", "properties": { "CD_SETOR": "355030809000053", "faces": 1, "pavimentada": 100.0, "bueiro": 100.0, "iluminacao": 100.0, "onibus": 0.0, "ciclovia": 0.0, "calcada": 100.0, "obstaculo": 0.0, "rampa": 100.0, "rampa_faces": 100.0, "sem_calcada": 0.0, "sem_arvore": 0.0, "muitas_arvores": 100.0, "vao": 0.0, "V05400": 1, "V05421": 1, "V05406": 1, "V05412": 1, "V05422": 0, "V05424": 0, "V05427": 1, "V05409": 1, "V05415": 0, "V05418": 0, "V05430": 0, "V05433": 1, "criancas_0a4": 17, "em_favela": false }, "geometry": { "type": "Polygon", "coordinates": [ [ [ -46.631483, -23.535418 ], [ -46.630737, -23.535488 ], [ -46.630793, -23.536002 ], [ -46.631531, -23.535913 ], [ -46.631483, -23.535418 ] ] ] } },
{ "type": "Feature", "properties": { "CD_SETOR": "355030809000054", "faces": 1, "pavimentada": 100.0, "bueiro": 100.0, "iluminacao": 100.0, "onibus": 0.0, "ciclovia": 0.0, "calcada": 100.0, "obstaculo": 0.0, "rampa": 100.0, "rampa_faces": 100.0, "sem_calcada": 0.0, "sem_arvore": 0.0, "muitas_arvores": 100.0, "vao": 0.0, "V05400": 1, "V05421": 1, "V05406": 1, "V05412": 1, "V05422": 0, "V05424": 0, "V05427": 1, "V05409": 1, "V05415": 0, "V05418": 0, "V05430": 0, "V05433": 1, "criancas_0a4": 17, "em_favela": false }, "geometry": { "type": "Polygon", "coordinates": [ [ [ -46.631889, -23.535379 ], [ -46.631483, -23.535418 ], [ -46.631531, -23.535913 ], [ -46.631928, -23.535866 ], [ -46.631889, -23.535379 ] ] ] } },
{ "type": "Feature", "properties": { "CD_SETOR": "355030809000055", "faces": 1, "pavimentada": 100.0, "bueiro": 100.0, "iluminacao": 100.0, "onibus": 0.0, "ciclovia": 0.0, "calcada": 100.0, "obstaculo": 0.0, "rampa": 100.0, "rampa_faces": 100.0, "sem_calcada": 0.0, "sem_arvore": 0.0, "muitas_arvores": 100.0, "vao": 0.0, "V05400": 1, "V05421": 1, "V05406": 1, "V05412": 1, "V05422": 0, "V05424": 0, "V05427": 1, "V05409": 1, "V05415": 0, "V05418": 0, "V05430": 0, "V05433": 1, "criancas_0a4": 14, "em_favela": false }, "geometry": { "type": "Polygon", "coordinates": [ [ [ -46.631213, -23.535443 ], [ -46.631841, -23.535384 ], [ -46.631814, -23.535055 ], [ -46.631176, -23.535115 ], [ -46.631213, -23.535443 ] ] ] } },
{ "type": "Feature", "properties": { "CD_SETOR": "355030809000056", "faces": 1, "pavimentada": 100.0, "bueiro": 100.0, "iluminacao": 100.0, "onibus": 0.0, "ciclovia": 0.0, "calcada": 100.0, "obstaculo": 0.0, "rampa": 100.0, "rampa_faces": 100.0, "sem_calcada": 0.0, "sem_arvore": 0.0, "muitas_arvores": 100.0, "vao": 0.0, "V05400": 1, "V05421": 1, "V05406": 1, "V05412": 1, "V05422": 0, "V05424": 0, "V05427": 1, "V05409": 1, "V05415": 0, "V05418": 0, "V05430": 0, "V05433": 1, "criancas_0a4": 11, "em_favela": false }, "geometry": { "type": "Polygon", "coordinates": [ [ [ -46.631814, -23.535055 ], [ -46.631841, -23.535384 ], [ -46.63218, -23.535352 ], [ -46.632156, -23.535023 ], [ -46.631814, -23.535055 ] ] ] } },
{ "type": "Feature", "properties": { "CD_SETOR": "355030809000057", "faces": 11, "pavimentada": 100.0, "bueiro": 81.82, "iluminacao": 100.0, "onibus": 27.27, "ciclovia": 9.09, "calcada": 100.0, "obstaculo": 27.27, "rampa": 54.55, "rampa_faces": 54.55, "sem_calcada": 0.0, "sem_arvore": 27.27, "muitas_arvores": 54.55, "vao": 45.45, "V05400": 11, "V05421": 11, "V05406": 11, "V05412": 11, "V05422": 0, "V05424": 3, "V05427": 6, "V05409": 9, "V05415": 3, "V05418": 1, "V05430": 3, "V05433": 6, "criancas_0a4": 14, "em_favela": false }, "geometry": { "type": "Polygon", "coordinates": [ [ [ -46.648657, -23.517461 ], [ -46.648164, -23.518497 ], [ -46.646647, -23.521238 ], [ -46.647246, -23.521516 ], [ -46.647957, -23.520214 ], [ -46.648234, -23.520342 ], [ -46.648157, -23.520502 ], [ -46.648533, -23.520644 ], [ -46.649177, -23.519494 ], [ -46.649938, -23.519231 ], [ -46.650218, -23.518966 ], [ -46.650502, -23.518578 ], [ -46.651001, -23.519162 ], [ -46.651183, -23.51904 ], [ -46.651498, -23.519388 ], [ -46.652367, -23.519938 ], [ -46.652609, -23.519534 ], [ -46.650846, -23.518252 ], [ -46.650677, -23.518209 ], [ -46.650527, -23.518047 ], [ -46.650419, -23.517256 ], [ -46.648657, -23.517461 ] ] ] } },
{ "type": "Feature", "properties": { "CD_SETOR": "355030809000058", "faces": 8, "pavimentada": 100.0, "bueiro": 100.0, "iluminacao": 100.0, "onibus": 50.0, "ciclovia": 37.5, "calcada": 100.0, "obstaculo": 25.0, "rampa": 62.5, "rampa_faces": 62.5, "sem_calcada": 0.0, "sem_arvore": 0.0, "muitas_arvores": 62.5, "vao": 37.5, "V05400": 8, "V05421": 8, "V05406": 8, "V05412": 8, "V05422": 0, "V05424": 2, "V05427": 5, "V05409": 8, "V05415": 4, "V05418": 3, "V05430": 0, "V05433": 5, "criancas_0a4": 14, "em_favela": false }, "geometry": { "type": "Polygon", "coordinates": [ [ [ -46.646037, -23.522386 ], [ -46.648585, -23.52352 ], [ -46.649147, -23.522539 ], [ -46.647808, -23.521926 ], [ -46.647876, -23.521805 ], [ -46.646647, -23.521238 ], [ -46.646037, -23.522386 ] ] ] } },
{ "type": "Feature", "properties": { "CD_SETOR": "355030809000059", "faces": 2, "pavimentada": 100.0, "bueiro": 100.0, "iluminacao": 100.0, "onibus": 50.0, "ciclovia": 50.0, "calcada": 100.0, "obstaculo": 50.0, "rampa": 100.0, "rampa_faces": 100.0, "sem_calcada": 0.0, "sem_arvore": 0.0, "muitas_arvores": 100.0, "vao": 0.0, "V05400": 2, "V05421": 2, "V05406": 2, "V05412": 2, "V05422": 0, "V05424": 1, "V05427": 2, "V05409": 2, "V05415": 1, "V05418": 1, "V05430": 0, "V05433": 2, "criancas_0a4": 19, "em_favela": false }, "geometry": { "type": "Polygon", "coordinates": [ [ [ -46.647246, -23.521516 ], [ -46.647876, -23.521805 ], [ -46.648141, -23.521332 ], [ -46.647513, -23.521036 ], [ -46.647246, -23.521516 ] ] ] } },
{ "type": "Feature", "properties": { "CD_SETOR": "355030809000060", "faces": 1, "pavimentada": 100.0, "bueiro": 100.0, "iluminacao": 100.0, "onibus": 0.0, "ciclovia": 0.0, "calcada": 100.0, "obstaculo": 100.0, "rampa": 0.0, "rampa_faces": 0.0, "sem_calcada": 0.0, "sem_arvore": 0.0, "muitas_arvores": 0.0, "vao": 100.0, "V05400": 1, "V05421": 1, "V05406": 1, "V05412": 1, "V05422": 0, "V05424": 1, "V05427": 0, "V05409": 1, "V05415": 0, "V05418": 0, "V05430": 0, "V05433": 0, "criancas_0a4": 14, "em_favela": false }, "geometry": { "type": "Polygon", "coordinates": [ [ [ -46.647513, -23.521036 ], [ -46.648141, -23.521332 ], [ -46.648267, -23.521107 ], [ -46.647994, -23.520972 ], [ -46.647933, -23.520787 ], [ -46.647706, -23.520685 ], [ -46.647513, -23.521036 ] ] ] } },
{ "type": "Feature", "properties": { "CD_SETOR": "355030809000061", "faces": 1, "pavimentada": 100.0, "bueiro": 100.0, "iluminacao": 100.0, "onibus": 0.0, "ciclovia": 0.0, "calcada": 100.0, "obstaculo": 0.0, "rampa": 0.0, "rampa_faces": 0.0, "sem_calcada": 0.0, "sem_arvore": 0.0, "muitas_arvores": 0.0, "vao": 100.0, "V05400": 1, "V05421": 1, "V05406": 1, "V05412": 1, "V05422": 0, "V05424": 0, "V05427": 0, "V05409": 1, "V05415": 0, "V05418": 0, "V05430": 0, "V05433": 0, "criancas_0a4": 27, "em_favela": false }, "geometry": { "type": "Polygon", "coordinates": [ [ [ -46.647706, -23.520685 ], [ -46.647933, -23.520787 ], [ -46.647994, -23.520972 ], [ -46.648199, -23.5206 ], [ -46.648509, -23.520688 ], [ -46.648533, -23.520644 ], [ -46.648157, -23.520502 ], [ -46.648234, -23.520342 ], [ -46.647957, -23.520214 ], [ -46.647706, -23.520685 ] ] ] } },
{ "type": "Feature", "properties": { "CD_SETOR": "355030809000062", "faces": 1, "pavimentada": 100.0, "bueiro": 100.0, "iluminacao": 100.0, "onibus": 0.0, "ciclovia": 0.0, "calcada": 100.0, "obstaculo": 0.0, "rampa": 0.0, "rampa_faces": 0.0, "sem_calcada": 0.0, "sem_arvore": 0.0, "muitas_arvores": 0.0, "vao": 100.0, "V05400": 1, "V05421": 1, "V05406": 1, "V05412": 1, "V05422": 0, "V05424": 0, "V05427": 0, "V05409": 1, "V05415": 0, "V05418": 0, "V05430": 0, "V05433": 0, "criancas_0a4": 28, "em_favela": false }, "geometry": { "type": "Polygon", "coordinates": [ [ [ -46.647994, -23.520972 ], [ -46.648267, -23.521107 ], [ -46.648509, -23.520688 ], [ -46.648199, -23.5206 ], [ -46.647994, -23.520972 ] ] ] } },
{ "type": "Feature", "properties": { "CD_SETOR": "355030809000063", "faces": 2, "pavimentada": 100.0, "bueiro": 0.0, "iluminacao": 100.0, "onibus": 0.0, "ciclovia": 0.0, "calcada": 50.0, "obstaculo": 0.0, "rampa": 0.0, "rampa_faces": 0.0, "sem_calcada": 50.0, "sem_arvore": 0.0, "muitas_arvores": 100.0, "vao": 100.0, "V05400": 2, "V05421": 1, "V05406": 2, "V05412": 2, "V05422": 1, "V05424": 0, "V05427": 0, "V05409": 0, "V05415": 0, "V05418": 0, "V05430": 0, "V05433": 2, "criancas_0a4": 14, "em_favela": false }, "geometry": { "type": "Polygon", "coordinates": [ [ [ -46.640333, -23.52002 ], [ -46.639757, -23.520239 ], [ -46.639777, -23.520283 ], [ -46.639304, -23.520505 ], [ -46.639446, -23.520816 ], [ -46.640561, -23.520553 ], [ -46.640333, -23.52002 ] ] ] } },
{ "type": "Feature", "properties": { "CD_SETOR": "355030809000064", "faces": 3, "pavimentada": 100.0, "bueiro": 66.67, "iluminacao": 100.0, "onibus": 0.0, "ciclovia": 0.0, "calcada": 33.33, "obstaculo": 0.0, "rampa": 100.0, "rampa_faces": 33.33, "sem_calcada": 66.67, "sem_arvore": 0.0, "muitas_arvores": 66.67, "vao": 66.67, "V05400": 3, "V05421": 1, "V05406": 3, "V05412": 3, "V05422": 2, "V05424": 0, "V05427": 1, "V05409": 2, "V05415": 0, "V05418": 0, "V05430": 0, "V05433": 2, "criancas_0a4": 37, "em_favela": false }, "geometry": { "type": "Polygon", "coordinates": [ [ [ -46.639446, -23.520816 ], [ -46.6396, -23.521526 ], [ -46.64083, -23.521281 ], [ -46.640561, -23.520553 ], [ -46.639446, -23.520816 ] ] ] } },
{ "type": "Feature", "properties": { "CD_SETOR": "355030809000065", "faces": 2, "pavimentada": 100.0, "bueiro": 100.0, "iluminacao": 100.0, "onibus": 0.0, "ciclovia": 0.0, "calcada": 100.0, "obstaculo": 0.0, "rampa": 100.0, "rampa_faces": 100.0, "sem_calcada": 0.0, "sem_arvore": 0.0, "muitas_arvores": 50.0, "vao": 0.0, "V05400": 2, "V05421": 2, "V05406": 2, "V05412": 2, "V05422": 0, "V05424": 0, "V05427": 2, "V05409": 2, "V05415": 0, "V05418": 0, "V05430": 0, "V05433": 1, "criancas_0a4": 3, "em_favela": false }, "geometry": { "type": "Polygon", "coordinates": [ [ [ -46.634671, -23.528654 ], [ -46.635001, -23.529726 ], [ -46.635108, -23.5297 ], [ -46.635075, -23.529544 ], [ -46.635248, -23.5295 ], [ -46.63522, -23.52938 ], [ -46.635346, -23.529345 ], [ -46.635262, -23.528835 ], [ -46.635437, -23.528779 ], [ -46.635327, -23.528441 ], [ -46.634671, -23.528654 ] ] ] } },
{ "type": "Feature", "properties": { "CD_SETOR": "355030809000066", "faces": 3, "pavimentada": 100.0, "bueiro": 100.0, "iluminacao": 100.0, "onibus": 0.0, "ciclovia": 33.33, "calcada": 100.0, "obstaculo": 0.0, "rampa": 100.0, "rampa_faces": 100.0, "sem_calcada": 0.0, "sem_arvore": 0.0, "muitas_arvores": 33.33, "vao": 0.0, "V05400": 3, "V05421": 3, "V05406": 3, "V05412": 3, "V05422": 0, "V05424": 0, "V05427": 3, "V05409": 3, "V05415": 0, "V05418": 1, "V05430": 0, "V05433": 1, "criancas_0a4": 0, "em_favela": false }, "geometry": { "type": "Polygon", "coordinates": [ [ [ -46.635327, -23.528441 ], [ -46.635437, -23.528779 ], [ -46.635262, -23.528835 ], [ -46.635346, -23.529345 ], [ -46.63522, -23.52938 ], [ -46.635248, -23.5295 ], [ -46.635075, -23.529544 ], [ -46.635108, -23.5297 ], [ -46.635878, -23.529511 ], [ -46.63552, -23.528378 ], [ -46.635327, -23.528441 ] ] ] } },
{ "type": "Feature", "properties": { "CD_SETOR": "355030809000067", "faces": 7, "pavimentada": 100.0, "bueiro": 85.71, "iluminacao": 100.0, "onibus": 28.57, "ciclovia": 0.0, "calcada": 71.43, "obstaculo": 0.0, "rampa": 100.0, "rampa_faces": 71.43, "sem_calcada": 28.57, "sem_arvore": 0.0, "muitas_arvores": 57.14, "vao": 28.57, "V05400": 7, "V05421": 5, "V05406": 7, "V05412": 7, "V05422": 2, "V05424": 0, "V05427": 5, "V05409": 6, "V05415": 2, "V05418": 0, "V05430": 0, "V05433": 4, "criancas_0a4": 4, "em_favela": false }, "geometry": { "type": "Polygon", "coordinates": [ [ [ -46.635878, -23.529511 ], [ -46.634145, -23.529953 ], [ -46.634727, -23.531884 ], [ -46.635778, -23.531618 ], [ -46.635661, -23.531202 ], [ -46.635874, -23.531153 ], [ -46.635823, -23.530979 ], [ -46.63544, -23.531087 ], [ -46.635181, -23.530155 ], [ -46.63576, -23.53 ], [ -46.63572, -23.529839 ], [ -46.635836, -23.529812 ], [ -46.635818, -23.529735 ], [ -46.635942, -23.529713 ], [ -46.635878, -23.529511 ] ] ] } },
{ "type": "Feature", "properties": { "CD_SETOR": "355030809000068", "faces": 5, "pavimentada": 100.0, "bueiro": 100.0, "iluminacao": 100.0, "onibus": 0.0, "ciclovia": 40.0, "calcada": 100.0, "obstaculo": 40.0, "rampa": 100.0, "rampa_faces": 100.0, "sem_calcada": 0.0, "sem_arvore": 20.0, "muitas_arvores": 0.0, "vao": 0.0, "V05400": 5, "V05421": 5, "V05406": 5, "V05412": 5, "V05422": 0, "V05424": 2, "V05427": 5, "V05409": 5, "V05415": 0, "V05418": 2, "V05430": 1, "V05433": 0, "criancas_0a4": 12, "em_favela": false }, "geometry": { "type": "Polygon", "coordinates": [ [ [ -46.635874, -23.531153 ], [ -46.636283, -23.531057 ], [ -46.636399, -23.531462 ], [ -46.636482, -23.531433 ], [ -46.635942, -23.529713 ], [ -46.635818, -23.529735 ], [ -46.635836, -23.529812 ], [ -46.63572, -23.529839 ], [ -46.63576, -23.53 ], [ -46.635181, -23.530155 ], [ -46.63544, -23.531087 ], [ -46.635823, -23.530979 ], [ -46.635874, -23.531153 ] ] ] } },
{ "type": "Feature", "properties": { "CD_SETOR": "355030809000069", "faces": 6, "pavimentada": 100.0, "bueiro": 100.0, "iluminacao": 100.0, "onibus": 16.67, "ciclovia": 16.67, "calcada": 100.0, "obstaculo": 66.67, "rampa": 83.33, "rampa_faces": 83.33, "sem_calcada": 0.0, "sem_arvore": 0.0, "muitas_arvores": 33.33, "vao": 16.67, "V05400": 6, "V05421": 6, "V05406": 6, "V05412": 6, "V05422": 0, "V05424": 4, "V05427": 5, "V05409": 6, "V05415": 1, "V05418": 1, "V05430": 0, "V05433": 2, "criancas_0a4": 9, "em_favela": false }, "geometry": { "type": "Polygon", "coordinates": [ [ [ -46.636094, -23.52542 ], [ -46.636233, -23.526521 ], [ -46.636391, -23.527295 ], [ -46.635288, -23.527645 ], [ -46.63552, -23.528378 ], [ -46.637624, -23.527692 ], [ -46.637596, -23.527578 ], [ -46.637342, -23.527593 ], [ -46.637284, -23.527478 ], [ -46.63698, -23.527578 ], [ -46.636953, -23.527433 ], [ -46.636876, -23.527443 ], [ -46.636874, -23.526978 ], [ -46.63676, -23.526982 ], [ -46.636754, -23.526911 ], [ -46.636837, -23.526911 ], [ -46.636826, -23.526822 ], [ -46.636656, -23.526842 ], [ -46.636637, -23.526671 ], [ -46.636855, -23.526635 ], [ -46.636707, -23.525492 ], [ -46.636649, -23.525318 ], [ -46.636094, -23.52542 ] ] ] } },
{ "type": "Feature", "properties": { "CD_SETOR": "355030809000070", "faces": 5, "pavimentada": 100.0, "bueiro": 100.0, "iluminacao": 100.0, "onibus": 0.0, "ciclovia": 0.0, "calcada": 100.0, "obstaculo": 0.0, "rampa": 60.0, "rampa_faces": 60.0, "sem_calcada": 0.0, "sem_arvore": 40.0, "muitas_arvores": 20.0, "vao": 40.0, "V05400": 5, "V05421": 5, "V05406": 5, "V05412": 5, "V05422": 0, "V05424": 0, "V05427": 3, "V05409": 5, "V05415": 0, "V05418": 0, "V05430": 2, "V05433": 1, "criancas_0a4": 19, "em_favela": false }, "geometry": { "type": "Polygon", "coordinates": [ [ [ -46.636094, -23.52542 ], [ -46.636649, -23.525318 ], [ -46.636707, -23.525492 ], [ -46.636855, -23.526635 ], [ -46.636637, -23.526671 ], [ -46.636656, -23.526842 ], [ -46.636826, -23.526822 ], [ -46.636837, -23.526911 ], [ -46.636754, -23.526911 ], [ -46.63676, -23.526982 ], [ -46.636874, -23.526978 ], [ -46.636876, -23.527443 ], [ -46.636953, -23.527433 ], [ -46.63698, -23.527578 ], [ -46.637284, -23.527478 ], [ -46.637342, -23.527593 ], [ -46.637596, -23.527578 ], [ -46.637133, -23.527128 ], [ -46.637077, -23.526444 ], [ -46.637679, -23.525684 ], [ -46.637095, -23.525393 ], [ -46.636958, -23.524946 ], [ -46.636063, -23.525179 ], [ -46.636094, -23.52542 ] ] ] } },
{ "type": "Feature", "properties": { "CD_SETOR": "355030809000071", "faces": 7, "pavimentada": 100.0, "bueiro": 71.43, "iluminacao": 100.0, "onibus": 14.29, "ciclovia": 0.0, "calcada": 100.0, "obstaculo": 57.14, "rampa": 85.71, "rampa_faces": 85.71, "sem_calcada": 0.0, "sem_arvore": 28.57, "muitas_arvores": 71.43, "vao": 14.29, "V05400": 7, "V05421": 7, "V05406": 7, "V05412": 7, "V05422": 0, "V05424": 4, "V05427": 6, "V05409": 5, "V05415": 1, "V05418": 0, "V05430": 2, "V05433": 5, "criancas_0a4": 14, "em_favela": false }, "geometry": { "type": "Polygon", "coordinates": [ [ [ -46.629077, -23.525138 ], [ -46.628878, -23.525476 ], [ -46.629416, -23.525867 ], [ -46.630172, -23.526571 ], [ -46.630751, -23.527606 ], [ -46.630933, -23.528048 ], [ -46.629122, -23.528547 ], [ -46.628983, -23.529164 ], [ -46.62908, -23.52952 ], [ -46.631273, -23.528874 ], [ -46.631185, -23.528659 ], [ -46.63168, -23.528748 ], [ -46.631281, -23.526522 ], [ -46.631138, -23.526101 ], [ -46.630907, -23.524792 ], [ -46.630859, -23.524178 ], [ -46.629771, -23.52484 ], [ -46.629077, -23.525138 ] ] ] } },
{ "type": "Feature", "properties": { "CD_SETOR": "355030809000072", "faces": 9, "pavimentada": 100.0, "bueiro": 33.33, "iluminacao": 100.0, "onibus": 11.11, "ciclovia": 0.0, "calcada": 100.0, "obstaculo": 77.78, "rampa": 33.33, "rampa_faces": 33.33, "sem_calcada": 0.0, "sem_arvore": 22.22, "muitas_arvores": 22.22, "vao": 66.67, "V05400": 9, "V05421": 9, "V05406": 9, "V05412": 9, "V05422": 0, "V05424": 7, "V05427": 3, "V05409": 3, "V05415": 1, "V05418": 0, "V05430": 2, "V05433": 2, "criancas_0a4": 11, "em_favela": false }, "geometry": { "type": "Polygon", "coordinates": [ [ [ -46.63238, -23.527232 ], [ -46.631439, -23.527503 ], [ -46.63168, -23.528748 ], [ -46.632504, -23.528494 ], [ -46.632362, -23.528081 ], [ -46.632566, -23.528027 ], [ -46.632563, -23.527786 ], [ -46.63273, -23.527746 ], [ -46.632698, -23.527454 ], [ -46.632829, -23.527538 ], [ -46.632893, -23.527529 ], [ -46.633019, -23.52799 ], [ -46.633512, -23.527839 ], [ -46.633331, -23.527229 ], [ -46.63238, -23.527232 ] ] ] } },
{ "type": "Feature", "properties": { "CD_SETOR": "355030809000073", "faces": 1, "pavimentada": 100.0, "bueiro": 100.0, "iluminacao": 100.0, "onibus": 0.0, "ciclovia": 0.0, "calcada": 100.0, "obstaculo": 0.0, "rampa": 100.0, "rampa_faces": 100.0, "sem_calcada": 0.0, "sem_arvore": 0.0, "muitas_arvores": 100.0, "vao": 0.0, "V05400": 1, "V05421": 1, "V05406": 1, "V05412": 1, "V05422": 0, "V05424": 0, "V05427": 1, "V05409": 1, "V05415": 0, "V05418": 0, "V05430": 0, "V05433": 1, "criancas_0a4": 19, "em_favela": false }, "geometry": { "type": "Polygon", "coordinates": [ [ [ -46.632504, -23.528494 ], [ -46.633605, -23.528155 ], [ -46.633512, -23.527839 ], [ -46.633019, -23.52799 ], [ -46.632893, -23.527529 ], [ -46.632829, -23.527538 ], [ -46.632698, -23.527454 ], [ -46.63273, -23.527746 ], [ -46.632563, -23.527786 ], [ -46.632566, -23.528027 ], [ -46.632362, -23.528081 ], [ -46.632504, -23.528494 ] ] ] } },
{ "type": "Feature", "properties": { "CD_SETOR": "355030809000074", "faces": 20, "pavimentada": 100.0, "bueiro": 90.0, "iluminacao": 100.0, "onibus": 25.0, "ciclovia": 25.0, "calcada": 95.0, "obstaculo": 26.32, "rampa": 84.21, "rampa_faces": 80.0, "sem_calcada": 5.0, "sem_arvore": 15.0, "muitas_arvores": 70.0, "vao": 20.0, "V05400": 20, "V05421": 19, "V05406": 20, "V05412": 20, "V05422": 1, "V05424": 5, "V05427": 16, "V05409": 18, "V05415": 5, "V05418": 5, "V05430": 3, "V05433": 14, "criancas_0a4": 32, "em_favela": false }, "geometry": { "type": "Polygon", "coordinates": [ [ [ -46.634481, -23.518705 ], [ -46.629999, -23.519004 ], [ -46.630079, -23.519537 ], [ -46.630152, -23.520708 ], [ -46.630494, -23.523054 ], [ -46.630817, -23.523651 ], [ -46.630907, -23.524792 ], [ -46.631138, -23.526101 ], [ -46.631319, -23.52676 ], [ -46.631534, -23.526758 ], [ -46.631578, -23.526711 ], [ -46.631555, -23.526557 ], [ -46.63215, -23.526352 ], [ -46.632181, -23.526445 ], [ -46.632603, -23.526337 ], [ -46.632734, -23.526402 ], [ -46.633031, -23.526322 ], [ -46.633043, -23.526391 ], [ -46.633105, -23.526409 ], [ -46.634763, -23.525968 ], [ -46.634479, -23.525072 ], [ -46.637519, -23.524195 ], [ -46.63703, -23.522057 ], [ -46.637124, -23.522104 ], [ -46.637031, -23.521636 ], [ -46.638799, -23.521646 ], [ -46.638194, -23.521556 ], [ -46.637536, -23.521229 ], [ -46.637252, -23.520988 ], [ -46.636282, -23.519872 ], [ -46.635938, -23.519605 ], [ -46.635361, -23.519395 ], [ -46.634973, -23.519348 ], [ -46.634496, -23.519363 ], [ -46.634481, -23.518705 ] ] ] } },
{ "type": "Feature", "properties": { "CD_SETOR": "355030809000075", "faces": 24, "pavimentada": 100.0, "bueiro": 41.67, "iluminacao": 100.0, "onibus": 0.0, "ciclovia": 8.33, "calcada": 100.0, "obstaculo": 50.0, "rampa": 20.83, "rampa_faces": 20.83, "sem_calcada": 0.0, "sem_arvore": 25.0, "muitas_arvores": 29.17, "vao": 79.17, "V05400": 24, "V05421": 24, "V05406": 24, "V05412": 24, "V05422": 0, "V05424": 12, "V05427": 5, "V05409": 10, "V05415": 0, "V05418": 2, "V05430": 6, "V05433": 7, "criancas_0a4": 39, "em_favela": false }, "geometry": { "type": "Polygon", "coordinates": [ [ [ -46.637124, -23.522104 ], [ -46.640535, -23.523757 ], [ -46.641073, -23.522763 ], [ -46.638819, -23.521716 ], [ -46.638799, -23.521646 ], [ -46.637031, -23.521636 ], [ -46.637124, -23.522104 ] ] ] } },
{ "type": "Feature", "properties": { "CD_SETOR": "355030809000076", "faces": 10, "pavimentada": 100.0, "bueiro": 90.0, "iluminacao": 100.0, "onibus": 10.0, "ciclovia": 0.0, "calcada": 90.0, "obstaculo": 44.44, "rampa": 77.78, "rampa_faces": 70.0, "sem_calcada": 10.0, "sem_arvore": 60.0, "muitas_arvores": 20.0, "vao": 30.0, "V05400": 10, "V05421": 9, "V05406": 10, "V05412": 10, "V05422": 1, "V05424": 4, "V05427": 7, "V05409": 9, "V05415": 1, "V05418": 0, "V05430": 6, "V05433": 2, "criancas_0a4": 36, "em_favela": false }, "geometry": { "type": "Polygon", "coordinates": [ [ [ -46.628945, -23.525883 ], [ -46.628297, -23.527178 ], [ -46.629735, -23.526713 ], [ -46.629342, -23.527647 ], [ -46.629122, -23.528547 ], [ -46.630933, -23.528048 ], [ -46.630751, -23.527606 ], [ -46.630172, -23.526571 ], [ -46.629416, -23.525867 ], [ -46.628878, -23.525476 ], [ -46.628945, -23.525883 ] ] ] } },
{ "type": "Feature", "properties": { "CD_SETOR": "355030809000077", "faces": 16, "pavimentada": 100.0, "bueiro": 75.0, "iluminacao": 100.0, "onibus": 0.0, "ciclovia": 0.0, "calcada": 100.0, "obstaculo": 31.25, "rampa": 37.5, "rampa_faces": 37.5, "sem_calcada": 0.0, "sem_arvore": 25.0, "muitas_arvores": 43.75, "vao": 62.5, "V05400": 16, "V05421": 16, "V05406": 16, "V05412": 16, "V05422": 0, "V05424": 5, "V05427": 6, "V05409": 12, "V05415": 0, "V05418": 0, "V05430": 4, "V05433": 7, "criancas_0a4": 24, "em_favela": false }, "geometry": { "type": "Polygon", "coordinates": [ [ [ -46.628297, -23.527178 ], [ -46.626401, -23.530846 ], [ -46.626941, -23.531091 ], [ -46.627507, -23.529975 ], [ -46.62908, -23.52952 ], [ -46.628983, -23.529164 ], [ -46.629268, -23.527913 ], [ -46.629735, -23.526713 ], [ -46.628297, -23.527178 ] ] ] } },
{ "type": "Feature", "properties": { "CD_SETOR": "355030809000078", "faces": 17, "pavimentada": 100.0, "bueiro": 94.12, "iluminacao": 100.0, "onibus": 5.88, "ciclovia": 0.0, "calcada": 100.0, "obstaculo": 35.29, "rampa": 94.12, "rampa_faces": 94.12, "sem_calcada": 0.0, "sem_arvore": 5.88, "muitas_arvores": 76.47, "vao": 5.88, "V05400": 17, "V05421": 17, "V05406": 17, "V05412": 17, "V05422": 0, "V05424": 6, "V05427": 16, "V05409": 16, "V05415": 1, "V05418": 0, "V05430": 1, "V05433": 13, "criancas_0a4": 18, "em_favela": false }, "geometry": { "type": "Polygon", "coordinates": [ [ [ -46.631273, -23.528874 ], [ -46.627507, -23.529975 ], [ -46.627359, -23.530267 ], [ -46.627714, -23.530437 ], [ -46.627298, -23.531249 ], [ -46.627645, -23.531423 ], [ -46.627188, -23.532303 ], [ -46.629145, -23.531795 ], [ -46.629528, -23.533199 ], [ -46.632663, -23.532426 ], [ -46.631544, -23.5287 ], [ -46.631185, -23.528659 ], [ -46.631273, -23.528874 ] ] ] } },
{ "type": "Feature", "properties": { "CD_SETOR": "355030809000079", "faces": 29, "pavimentada": 100.0, "bueiro": 96.55, "iluminacao": 100.0, "onibus": 10.34, "ciclovia": 0.0, "calcada": 100.0, "obstaculo": 17.24, "rampa": 79.31, "rampa_faces": 79.31, "sem_calcada": 0.0, "sem_arvore": 13.79, "muitas_arvores": 17.24, "vao": 20.69, "V05400": 29, "V05421": 29, "V05406": 29, "V05412": 29, "V05422": 0, "V05424": 5, "V05427": 23, "V05409": 28, "V05415": 3, "V05418": 0, "V05430": 4, "V05433": 5, "criancas_0a4": 19, "em_favela": false }, "geometry": { "type": "Polygon", "coordinates": [ [ [ -46.626401, -23.530846 ], [ -46.625272, -23.532947 ], [ -46.625159, -23.533351 ], [ -46.625192, -23.534278 ], [ -46.626595, -23.533928 ], [ -46.626678, -23.533945 ], [ -46.62699, -23.533822 ], [ -46.629528, -23.533199 ], [ -46.629145, -23.531795 ], [ -46.627188, -23.532303 ], [ -46.627645, -23.531423 ], [ -46.627298, -23.531249 ], [ -46.627714, -23.530437 ], [ -46.627359, -23.530267 ], [ -46.626941, -23.531091 ], [ -46.626401, -23.530846 ] ] ] } },
{ "type": "Feature", "properties": { "CD_SETOR": "355030809000080", "faces": 8, "pavimentada": 100.0, "bueiro": 75.0, "iluminacao": 100.0, "onibus": 25.0, "ciclovia": 0.0, "calcada": 100.0, "obstaculo": 0.0, "rampa": 100.0, "rampa_faces": 100.0, "sem_calcada": 0.0, "sem_arvore": 25.0, "muitas_arvores": 12.5, "vao": 0.0, "V05400": 8, "V05421": 8, "V05406": 8, "V05412": 8, "V05422": 0, "V05424": 0, "V05427": 8, "V05409": 6, "V05415": 2, "V05418": 0, "V05430": 2, "V05433": 1, "criancas_0a4": 16, "em_favela": false }, "geometry": { "type": "Polygon", "coordinates": [ [ [ -46.626723, -23.533933 ], [ -46.627338, -23.535393 ], [ -46.628288, -23.535239 ], [ -46.627647, -23.533662 ], [ -46.62699, -23.533822 ], [ -46.626723, -23.533933 ] ] ] } },
{ "type": "Feature", "properties": { "CD_SETOR": "355030809000081", "faces": 4, "pavimentada": 100.0, "bueiro": 25.0, "iluminacao": 100.0, "onibus": 25.0, "ciclovia": 0.0, "calcada": 100.0, "obstaculo": 0.0, "rampa": 75.0, "rampa_faces": 75.0, "sem_calcada": 0.0, "sem_arvore": 0.0, "muitas_arvores": 0.0, "vao": 25.0, "V05400": 4, "V05421": 4, "V05406": 4, "V05412": 4, "V05422": 0, "V05424": 0, "V05427": 3, "V05409": 1, "V05415": 1, "V05418": 0, "V05430": 0, "V05433": 0, "criancas_0a4": 27, "em_favela": false }, "geometry": { "type": "Polygon", "coordinates": [ [ [ -46.627647, -23.533662 ], [ -46.628288, -23.535239 ], [ -46.629051, -23.535116 ], [ -46.628595, -23.533429 ], [ -46.627647, -23.533662 ] ] ] } },
{ "type": "Feature", "properties": { "CD_SETOR": "355030809000082", "faces": 8, "pavimentada": 100.0, "bueiro": 12.5, "iluminacao": 100.0, "onibus": 12.5, "ciclovia": 0.0, "calcada": 87.5, "obstaculo": 14.29, "rampa": 85.71, "rampa_faces": 75.0, "sem_calcada": 12.5, "sem_arvore": 12.5, "muitas_arvores": 0.0, "vao": 25.0, "V05400": 8, "V05421": 7, "V05406": 8, "V05412": 8, "V05422": 1, "V05424": 1, "V05427": 6, "V05409": 1, "V05415": 1, "V05418": 0, "V05430": 1, "V05433": 0, "criancas_0a4": 20, "em_favela": false }, "geometry": { "type": "Polygon", "coordinates": [ [ [ -46.628595, -23.533429 ], [ -46.629051, -23.535116 ], [ -46.630007, -23.534957 ], [ -46.629775, -23.534105 ], [ -46.629474, -23.534179 ], [ -46.629423, -23.533979 ], [ -46.629189, -23.53402 ], [ -46.629178, -23.533967 ], [ -46.629327, -23.533928 ], [ -46.6293, -23.533787 ], [ -46.62935, -23.533775 ], [ -46.629307, -23.533621 ], [ -46.629521, -23.533569 ], [ -46.629503, -23.533496 ], [ -46.629603, -23.533475 ], [ -46.629528, -23.533199 ], [ -46.628595, -23.533429 ] ] ] } },
{ "type": "Feature", "properties": { "CD_SETOR": "355030809000083", "faces": 5, "pavimentada": 100.0, "bueiro": 40.0, "iluminacao": 100.0, "onibus": 20.0, "ciclovia": 0.0, "calcada": 100.0, "obstaculo": 0.0, "rampa": 60.0, "rampa_faces": 60.0, "sem_calcada": 0.0, "sem_arvore": 40.0, "muitas_arvores": 20.0, "vao": 40.0, "V05400": 5, "V05421": 5, "V05406": 5, "V05412": 5, "V05422": 0, "V05424": 0, "V05427": 3, "V05409": 2, "V05415": 1, "V05418": 0, "V05430": 2, "V05433": 1, "criancas_0a4": 17, "em_favela": false }, "geometry": { "type": "Polygon", "coordinates": [ [ [ -46.629528, -23.533199 ], [ -46.629603, -23.533475 ], [ -46.629503, -23.533496 ], [ -46.629521, -23.533569 ], [ -46.629307, -23.533621 ], [ -46.62935, -23.533775 ], [ -46.6293, -23.533787 ], [ -46.629327, -23.533928 ], [ -46.629178, -23.533967 ], [ -46.629189, -23.53402 ], [ -46.629423, -23.533979 ], [ -46.629474, -23.534179 ], [ -46.629775, -23.534105 ], [ -46.630007, -23.534957 ], [ -46.630314, -23.534906 ], [ -46.629831, -23.533125 ], [ -46.629528, -23.533199 ] ] ] } },
{ "type": "Feature", "properties": { "CD_SETOR": "355030809000084", "faces": 11, "pavimentada": 100.0, "bueiro": 63.64, "iluminacao": 100.0, "onibus": 36.36, "ciclovia": 63.64, "calcada": 100.0, "obstaculo": 27.27, "rampa": 18.18, "rampa_faces": 18.18, "sem_calcada": 0.0, "sem_arvore": 0.0, "muitas_arvores": 63.64, "vao": 81.82, "V05400": 11, "V05421": 11, "V05406": 11, "V05412": 11, "V05422": 0, "V05424": 3, "V05427": 2, "V05409": 7, "V05415": 4, "V05418": 7, "V05430": 0, "V05433": 7, "criancas_0a4": 25, "em_favela": false }, "geometry": { "type": "Polygon", "coordinates": [ [ [ -46.644876, -23.524498 ], [ -46.644292, -23.525603 ], [ -46.645605, -23.526246 ], [ -46.64483, -23.52773 ], [ -46.645424, -23.528029 ], [ -46.646604, -23.527864 ], [ -46.648124, -23.52794 ], [ -46.648245, -23.527091 ], [ -46.648687, -23.526255 ], [ -46.647369, -23.525645 ], [ -46.647261, -23.525849 ], [ -46.647123, -23.525771 ], [ -46.647023, -23.525946 ], [ -46.646564, -23.525734 ], [ -46.646528, -23.52581 ], [ -46.646357, -23.525742 ], [ -46.646408, -23.525657 ], [ -46.646199, -23.525559 ], [ -46.645958, -23.52597 ], [ -46.645589, -23.525798 ], [ -46.645709, -23.525528 ], [ -46.645287, -23.52534 ], [ -46.645372, -23.525163 ], [ -46.645028, -23.524993 ], [ -46.645157, -23.524747 ], [ -46.644953, -23.52466 ], [ -46.644876, -23.524498 ] ] ] } },
{ "type": "Feature", "properties": { "CD_SETOR": "355030809000085", "faces": 12, "pavimentada": 100.0, "bueiro": 83.33, "iluminacao": 100.0, "onibus": 41.67, "ciclovia": 8.33, "calcada": 83.33, "obstaculo": 50.0, "rampa": 10.0, "rampa_faces": 8.33, "sem_calcada": 16.67, "sem_arvore": 41.67, "muitas_arvores": 25.0, "vao": 91.67, "V05400": 12, "V05421": 10, "V05406": 12, "V05412": 12, "V05422": 2, "V05424": 5, "V05427": 1, "V05409": 10, "V05415": 5, "V05418": 1, "V05430": 5, "V05433": 3, "criancas_0a4": 22, "em_favela": false }, "geometry": { "type": "Polygon", "coordinates": [ [ [ -46.644876, -23.524498 ], [ -46.644953, -23.52466 ], [ -46.645157, -23.524747 ], [ -46.645028, -23.524993 ], [ -46.645372, -23.525163 ], [ -46.645287, -23.52534 ], [ -46.645709, -23.525528 ], [ -46.645589, -23.525798 ], [ -46.645958, -23.52597 ], [ -46.646199, -23.525559 ], [ -46.646408, -23.525657 ], [ -46.646357, -23.525742 ], [ -46.646528, -23.52581 ], [ -46.646564, -23.525734 ], [ -46.647023, -23.525946 ], [ -46.647123, -23.525771 ], [ -46.647261, -23.525849 ], [ -46.647711, -23.525055 ], [ -46.64641, -23.524494 ], [ -46.646671, -23.524024 ], [ -46.645426, -23.523487 ], [ -46.644876, -23.524498 ] ] ] } },
{ "type": "Feature", "properties": { "CD_SETOR": "355030809000086", "faces": 2, "pavimentada": 100.0, "bueiro": 100.0, "iluminacao": 100.0, "onibus": 0.0, "ciclovia": 50.0, "calcada": 100.0, "obstaculo": 0.0, "rampa": 0.0, "rampa_faces": 0.0, "sem_calcada": 0.0, "sem_arvore": 0.0, "muitas_arvores": 50.0, "vao": 100.0, "V05400": 2, "V05421": 2, "V05406": 2, "V05412": 2, "V05422": 0, "V05424": 0, "V05427": 0, "V05409": 2, "V05415": 0, "V05418": 1, "V05430": 0, "V05433": 1, "criancas_0a4": 24, "em_favela": false }, "geometry": { "type": "Polygon", "coordinates": [ [ [ -46.647427, -23.524916 ], [ -46.647675, -23.524455 ], [ -46.646671, -23.524024 ], [ -46.64641, -23.524494 ], [ -46.647427, -23.524916 ] ] ] } },
{ "type": "Feature", "properties": { "CD_SETOR": "355030809000087", "faces": 2, "pavimentada": 100.0, "bueiro": 100.0, "iluminacao": 100.0, "onibus": 50.0, "ciclovia": 0.0, "calcada": 100.0, "obstaculo": 0.0, "rampa": 100.0, "rampa_faces": 100.0, "sem_calcada": 0.0, "sem_arvore": 0.0, "muitas_arvores": 0.0, "vao": 0.0, "V05400": 2, "V05421": 2, "V05406": 2, "V05412": 2, "V05422": 0, "V05424": 0, "V05427": 2, "V05409": 2, "V05415": 1, "V05418": 0, "V05430": 0, "V05433": 0, "criancas_0a4": 27, "em_favela": false }, "geometry": { "type": "Polygon", "coordinates": [ [ [ -46.647427, -23.524916 ], [ -46.647711, -23.525055 ], [ -46.647971, -23.524593 ], [ -46.647675, -23.524455 ], [ -46.647427, -23.524916 ] ] ] } },
{ "type": "Feature", "properties": { "CD_SETOR": "355030809000088", "faces": 16, "pavimentada": 100.0, "bueiro": 81.25, "iluminacao": 100.0, "onibus": 18.75, "ciclovia": 18.75, "calcada": 100.0, "obstaculo": 12.5, "rampa": 18.75, "rampa_faces": 18.75, "sem_calcada": 0.0, "sem_arvore": 25.0, "muitas_arvores": 18.75, "vao": 81.25, "V05400": 16, "V05421": 16, "V05406": 16, "V05412": 16, "V05422": 0, "V05424": 2, "V05427": 3, "V05409": 13, "V05415": 3, "V05418": 3, "V05430": 4, "V05433": 3, "criancas_0a4": 26, "em_favela": false }, "geometry": { "type": "Polygon", "coordinates": [ [ [ -46.643001, -23.522436 ], [ -46.642752, -23.523528 ], [ -46.644107, -23.524145 ], [ -46.643794, -23.524683 ], [ -46.644565, -23.525047 ], [ -46.646037, -23.522386 ], [ -46.645215, -23.522048 ], [ -46.644626, -23.523175 ], [ -46.643001, -23.522436 ] ] ] } },
{ "type": "Feature", "properties": { "CD_SETOR": "355030809000089", "faces": 12, "pavimentada": 100.0, "bueiro": 75.0, "iluminacao": 100.0, "onibus": 33.33, "ciclovia": 8.33, "calcada": 100.0, "obstaculo": 33.33, "rampa": 16.67, "rampa_faces": 16.67, "sem_calcada": 0.0, "sem_arvore": 8.33, "muitas_arvores": 16.67, "vao": 83.33, "V05400": 12, "V05421": 12, "V05406": 12, "V05412": 12, "V05422": 0, "V05424": 4, "V05427": 2, "V05409": 9, "V05415": 4, "V05418": 1, "V05430": 1, "V05433": 2, "criancas_0a4": 27, "em_favela": false }, "geometry": { "type": "Polygon", "coordinates": [ [ [ -46.641438, -23.524213 ], [ -46.644292, -23.525603 ], [ -46.644565, -23.525047 ], [ -46.643794, -23.524683 ], [ -46.644107, -23.524145 ], [ -46.641995, -23.523177 ], [ -46.641438, -23.524213 ] ] ] } },
{ "type": "Feature", "properties": { "CD_SETOR": "355030809000090", "faces": 9, "pavimentada": 100.0, "bueiro": 88.89, "iluminacao": 100.0, "onibus": 22.22, "ciclovia": 22.22, "calcada": 100.0, "obstaculo": 44.44, "rampa": 22.22, "rampa_faces": 22.22, "sem_calcada": 0.0, "sem_arvore": 0.0, "muitas_arvores": 55.56, "vao": 77.78, "V05400": 9, "V05421": 9, "V05406": 9, "V05412": 9, "V05422": 0, "V05424": 4, "V05427": 2, "V05409": 8, "V05415": 2, "V05418": 2, "V05430": 0, "V05433": 5, "criancas_0a4": 26, "em_favela": false }, "geometry": { "type": "Polygon", "coordinates": [ [ [ -46.64337, -23.520769 ], [ -46.643001, -23.522436 ], [ -46.644626, -23.523175 ], [ -46.645793, -23.521049 ], [ -46.644843, -23.520612 ], [ -46.644473, -23.520602 ], [ -46.64337, -23.520769 ] ] ] } },
{ "type": "Feature", "properties": { "CD_SETOR": "355030809000091", "faces": 22, "pavimentada": 100.0, "bueiro": 100.0, "iluminacao": 100.0, "onibus": 22.73, "ciclovia": 40.91, "calcada": 100.0, "obstaculo": 27.27, "rampa": 50.0, "rampa_faces": 50.0, "sem_calcada": 0.0, "sem_arvore": 9.09, "muitas_arvores": 86.36, "vao": 50.0, "V05400": 22, "V05421": 22, "V05406": 22, "V05412": 22, "V05422": 0, "V05424": 6, "V05427": 11, "V05409": 22, "V05415": 5, "V05418": 9, "V05430": 2, "V05433": 19, "criancas_0a4": 5, "em_favela": false }, "geometry": { "type": "Polygon", "coordinates": [ [ [ -46.642599, -23.518243 ], [ -46.643106, -23.520664 ], [ -46.64337, -23.520769 ], [ -46.644473, -23.520602 ], [ -46.644843, -23.520612 ], [ -46.645793, -23.521049 ], [ -46.645215, -23.522048 ], [ -46.646037, -23.522386 ], [ -46.648164, -23.518497 ], [ -46.648657, -23.517461 ], [ -46.642599, -23.518243 ] ] ] } },
{ "type": "Feature", "properties": { "CD_SETOR": "355030809000092", "faces": 6, "pavimentada": 100.0, "bueiro": 100.0, "iluminacao": 100.0, "onibus": 33.33, "ciclovia": 50.0, "calcada": 100.0, "obstaculo": 33.33, "rampa": 66.67, "rampa_faces": 66.67, "sem_calcada": 0.0, "sem_arvore": 66.67, "muitas_arvores": 0.0, "vao": 33.33, "V05400": 6, "V05421": 6, "V05406": 6, "V05412": 6, "V05422": 0, "V05424": 2, "V05427": 4, "V05409": 6, "V05415": 2, "V05418": 3, "V05430": 4, "V05433": 0, "criancas_0a4": 3, "em_favela": false }, "geometry": { "type": "Polygon", "coordinates": [ [ [ -46.635878, -23.529511 ], [ -46.636482, -23.531433 ], [ -46.636694, -23.531378 ], [ -46.63661, -23.531052 ], [ -46.63672, -23.531016 ], [ -46.6367, -23.530925 ], [ -46.63677, -23.530906 ], [ -46.636636, -23.530352 ], [ -46.636981, -23.530261 ], [ -46.636931, -23.529547 ], [ -46.637093, -23.529509 ], [ -46.637039, -23.529209 ], [ -46.635878, -23.529511 ] ] ] } },
{ "type": "Feature", "properties": { "CD_SETOR": "355030809000093", "faces": 3, "pavimentada": 100.0, "bueiro": 100.0, "iluminacao": 100.0, "onibus": 66.67, "ciclovia": 33.33, "calcada": 100.0, "obstaculo": 0.0, "rampa": 100.0, "rampa_faces": 100.0, "sem_calcada": 0.0, "sem_arvore": 0.0, "muitas_arvores": 0.0, "vao": 0.0, "V05400": 3, "V05421": 3, "V05406": 3, "V05412": 3, "V05422": 0, "V05424": 0, "V05427": 3, "V05409": 3, "V05415": 2, "V05418": 1, "V05430": 0, "V05433": 0, "criancas_0a4": 0, "em_favela": false }, "geometry": { "type": "Polygon", "coordinates": [ [ [ -46.637039, -23.529209 ], [ -46.637093, -23.529509 ], [ -46.636931, -23.529547 ], [ -46.636981, -23.530261 ], [ -46.636636, -23.530352 ], [ -46.63677, -23.530906 ], [ -46.6367, -23.530925 ], [ -46.63672, -23.531016 ], [ -46.63661, -23.531052 ], [ -46.636694, -23.531378 ], [ -46.638056, -23.531022 ], [ -46.637129, -23.529186 ], [ -46.637039, -23.529209 ] ] ] } },
{ "type": "Feature", "properties": { "CD_SETOR": "355030809000094", "faces": 8, "pavimentada": 100.0, "bueiro": 100.0, "iluminacao": 100.0, "onibus": 12.5, "ciclovia": 12.5, "calcada": 100.0, "obstaculo": 12.5, "rampa": 100.0, "rampa_faces": 100.0, "sem_calcada": 0.0, "sem_arvore": 0.0, "muitas_arvores": 0.0, "vao": 0.0, "V05400": 8, "V05421": 8, "V05406": 8, "V05412": 8, "V05422": 0, "V05424": 1, "V05427": 8, "V05409": 8, "V05415": 1, "V05418": 1, "V05430": 0, "V05433": 0, "criancas_0a4": 9, "em_favela": false }, "geometry": { "type": "Polygon", "coordinates": [ [ [ -46.633605, -23.528155 ], [ -46.633843, -23.528924 ], [ -46.63552, -23.528378 ], [ -46.635288, -23.527645 ], [ -46.633605, -23.528155 ] ] ] } },
{ "type": "Feature", "properties": { "CD_SETOR": "355030809000095", "faces": 4, "pavimentada": 100.0, "bueiro": 100.0, "iluminacao": 100.0, "onibus": 25.0, "ciclovia": 0.0, "calcada": 100.0, "obstaculo": 0.0, "rampa": 100.0, "rampa_faces": 100.0, "sem_calcada": 0.0, "sem_arvore": 0.0, "muitas_arvores": 0.0, "vao": 0.0, "V05400": 4, "V05421": 4, "V05406": 4, "V05412": 4, "V05422": 0, "V05424": 0, "V05427": 4, "V05409": 4, "V05415": 1, "V05418": 0, "V05430": 0, "V05433": 0, "criancas_0a4": 6, "em_favela": false }, "geometry": { "type": "Polygon", "coordinates": [ [ [ -46.633843, -23.528924 ], [ -46.634145, -23.529953 ], [ -46.635001, -23.529726 ], [ -46.634671, -23.528654 ], [ -46.633843, -23.528924 ] ] ] } },
{ "type": "Feature", "properties": { "CD_SETOR": "355030809000096", "faces": 5, "pavimentada": 100.0, "bueiro": 100.0, "iluminacao": 100.0, "onibus": 40.0, "ciclovia": 40.0, "calcada": 100.0, "obstaculo": 0.0, "rampa": 80.0, "rampa_faces": 80.0, "sem_calcada": 0.0, "sem_arvore": 20.0, "muitas_arvores": 40.0, "vao": 20.0, "V05400": 5, "V05421": 5, "V05406": 5, "V05412": 5, "V05422": 0, "V05424": 0, "V05427": 4, "V05409": 5, "V05415": 2, "V05418": 2, "V05430": 1, "V05433": 2, "criancas_0a4": 7, "em_favela": false }, "geometry": { "type": "Polygon", "coordinates": [ [ [ -46.63905, -23.52854 ], [ -46.638158, -23.530991 ], [ -46.638056, -23.531022 ], [ -46.638128, -23.531131 ], [ -46.638699, -23.531489 ], [ -46.640055, -23.529034 ], [ -46.63905, -23.52854 ] ] ] } },
{ "type": "Feature", "properties": { "CD_SETOR": "355030809000097", "faces": 12, "pavimentada": 100.0, "bueiro": 91.67, "iluminacao": 100.0, "onibus": 33.33, "ciclovia": 41.67, "calcada": 100.0, "obstaculo": 0.0, "rampa": 100.0, "rampa_faces": 100.0, "sem_calcada": 0.0, "sem_arvore": 41.67, "muitas_arvores": 33.33, "vao": 0.0, "V05400": 12, "V05421": 12, "V05406": 12, "V05412": 12, "V05422": 0, "V05424": 0, "V05427": 12, "V05409": 11, "V05415": 4, "V05418": 5, "V05430": 5, "V05433": 4, "criancas_0a4": 11, "em_favela": false }, "geometry": { "type": "Polygon", "coordinates": [ [ [ -46.639643, -23.532101 ], [ -46.638128, -23.531131 ], [ -46.638056, -23.531022 ], [ -46.636482, -23.531433 ], [ -46.636473, -23.531735 ], [ -46.637053, -23.53367 ], [ -46.637056, -23.533827 ], [ -46.636767, -23.534204 ], [ -46.636657, -23.534439 ], [ -46.636875, -23.535017 ], [ -46.636959, -23.534997 ], [ -46.637049, -23.535088 ], [ -46.637178, -23.535128 ], [ -46.639149, -23.535017 ], [ -46.641243, -23.532242 ], [ -46.641572, -23.531358 ], [ -46.642369, -23.530182 ], [ -46.642013, -23.529952 ], [ -46.641365, -23.529642 ], [ -46.640086, -23.531918 ], [ -46.639733, -23.532097 ], [ -46.639643, -23.532101 ] ] ] } },
{ "type": "Feature", "properties": { "CD_SETOR": "355030809000098", "faces": 5, "pavimentada": 100.0, "bueiro": 100.0, "iluminacao": 100.0, "onibus": 20.0, "ciclovia": 0.0, "calcada": 100.0, "obstaculo": 0.0, "rampa": 100.0, "rampa_faces": 100.0, "sem_calcada": 0.0, "sem_arvore": 40.0, "muitas_arvores": 0.0, "vao": 0.0, "V05400": 5, "V05421": 5, "V05406": 5, "V05412": 5, "V05422": 0, "V05424": 0, "V05427": 5, "V05409": 5, "V05415": 1, "V05418": 0, "V05430": 2, "V05433": 0, "criancas_0a4": 9, "em_favela": false }, "geometry": { "type": "Polygon", "coordinates": [ [ [ -46.640038, -23.526764 ], [ -46.641049, -23.527247 ], [ -46.641446, -23.526521 ], [ -46.641527, -23.526203 ], [ -46.641438, -23.526135 ], [ -46.641429, -23.526052 ], [ -46.640636, -23.52567 ], [ -46.640038, -23.526764 ] ] ] } },
{ "type": "Feature", "properties": { "CD_SETOR": "355030809000100", "faces": 8, "pavimentada": 100.0, "bueiro": 100.0, "iluminacao": 100.0, "onibus": 12.5, "ciclovia": 0.0, "calcada": 100.0, "obstaculo": 37.5, "rampa": 25.0, "rampa_faces": 25.0, "sem_calcada": 0.0, "sem_arvore": 0.0, "muitas_arvores": 100.0, "vao": 75.0, "V05400": 8, "V05421": 8, "V05406": 8, "V05412": 8, "V05422": 0, "V05424": 3, "V05427": 2, "V05409": 8, "V05415": 1, "V05418": 0, "V05430": 0, "V05433": 8, "criancas_0a4": 42, "em_favela": false }, "geometry": { "type": "Polygon", "coordinates": [ [ [ -46.62747, -23.526093 ], [ -46.626185, -23.528726 ], [ -46.627243, -23.529186 ], [ -46.628782, -23.526226 ], [ -46.62747, -23.526093 ] ] ] } },
{ "type": "Feature", "properties": { "CD_SETOR": "355030809000101", "faces": 8, "pavimentada": 100.0, "bueiro": 100.0, "iluminacao": 100.0, "onibus": 25.0, "ciclovia": 0.0, "calcada": 100.0, "obstaculo": 25.0, "rampa": 50.0, "rampa_faces": 50.0, "sem_calcada": 0.0, "sem_arvore": 0.0, "muitas_arvores": 87.5, "vao": 50.0, "V05400": 8, "V05421": 8, "V05406": 8, "V05412": 8, "V05422": 0, "V05424": 2, "V05427": 4, "V05409": 8, "V05415": 2, "V05418": 0, "V05430": 0, "V05433": 7, "criancas_0a4": 31, "em_favela": false }, "geometry": { "type": "Polygon", "coordinates": [ [ [ -46.625475, -23.528397 ], [ -46.626185, -23.528726 ], [ -46.626995, -23.527091 ], [ -46.625415, -23.526352 ], [ -46.625475, -23.528397 ] ] ] } },
{ "type": "Feature", "properties": { "CD_SETOR": "355030809000102", "faces": 7, "pavimentada": 100.0, "bueiro": 100.0, "iluminacao": 100.0, "onibus": 0.0, "ciclovia": 0.0, "calcada": 100.0, "obstaculo": 14.29, "rampa": 100.0, "rampa_faces": 100.0, "sem_calcada": 0.0, "sem_arvore": 0.0, "muitas_arvores": 0.0, "vao": 0.0, "V05400": 7, "V05421": 7, "V05406": 7, "V05412": 7, "V05422": 0, "V05424": 1, "V05427": 7, "V05409": 7, "V05415": 0, "V05418": 0, "V05430": 0, "V05433": 0, "criancas_0a4": 26, "em_favela": false }, "geometry": { "type": "Polygon", "coordinates": [ [ [ -46.625475, -23.528397 ], [ -46.625577, -23.531829 ], [ -46.625592, -23.532325 ], [ -46.626064, -23.531518 ], [ -46.627243, -23.529186 ], [ -46.625475, -23.528397 ] ] ] } },
{ "type": "Feature", "properties": { "CD_SETOR": "355030809000103", "faces": 7, "pavimentada": 100.0, "bueiro": 85.71, "iluminacao": 100.0, "onibus": 0.0, "ciclovia": 0.0, "calcada": 100.0, "obstaculo": 14.29, "rampa": 0.0, "rampa_faces": 0.0, "sem_calcada": 0.0, "sem_arvore": 14.29, "muitas_arvores": 42.86, "vao": 100.0, "V05400": 7, "V05421": 7, "V05406": 7, "V05412": 7, "V05422": 0, "V05424": 1, "V05427": 0, "V05409": 6, "V05415": 0, "V05418": 0, "V05430": 1, "V05433": 3, "criancas_0a4": 32, "em_favela": false }, "geometry": { "type": "Polygon", "coordinates": [ [ [ -46.64319, -23.521611 ], [ -46.64337, -23.520769 ], [ -46.642014, -23.521068 ], [ -46.64183, -23.521399 ], [ -46.642304, -23.521631 ], [ -46.642274, -23.521772 ], [ -46.6426, -23.5219 ], [ -46.642723, -23.521438 ], [ -46.64319, -23.521611 ] ] ] } },
{ "type": "Feature", "properties": { "CD_SETOR": "355030809000104", "faces": 4, "pavimentada": 100.0, "bueiro": 100.0, "iluminacao": 100.0, "onibus": 0.0, "ciclovia": 0.0, "calcada": 100.0, "obstaculo": 25.0, "rampa": 0.0, "rampa_faces": 0.0, "sem_calcada": 0.0, "sem_arvore": 0.0, "muitas_arvores": 0.0, "vao": 100.0, "V05400": 4, "V05421": 4, "V05406": 4, "V05412": 4, "V05422": 0, "V05424": 1, "V05427": 0, "V05409": 4, "V05415": 0, "V05418": 0, "V05430": 0, "V05433": 0, "criancas_0a4": 21, "em_favela": false }, "geometry": { "type": "Polygon", "coordinates": [ [ [ -46.641073, -23.522763 ], [ -46.642752, -23.523528 ], [ -46.643001, -23.522436 ], [ -46.641589, -23.521832 ], [ -46.641073, -23.522763 ] ] ] } },
{ "type": "Feature", "properties": { "CD_SETOR": "355030809000105", "faces": 18, "pavimentada": 100.0, "bueiro": 94.44, "iluminacao": 100.0, "onibus": 5.56, "ciclovia": 11.11, "calcada": 94.44, "obstaculo": 35.29, "rampa": 41.18, "rampa_faces": 38.89, "sem_calcada": 5.56, "sem_arvore": 22.22, "muitas_arvores": 44.44, "vao": 61.11, "V05400": 18, "V05421": 17, "V05406": 18, "V05412": 18, "V05422": 1, "V05424": 6, "V05427": 7, "V05409": 17, "V05415": 1, "V05418": 2, "V05430": 4, "V05433": 8, "criancas_0a4": 5, "em_favela": false }, "geometry": { "type": "Polygon", "coordinates": [ [ [ -46.634481, -23.518705 ], [ -46.634496, -23.519363 ], [ -46.634973, -23.519348 ], [ -46.635361, -23.519395 ], [ -46.635938, -23.519605 ], [ -46.636282, -23.519872 ], [ -46.637038, -23.520743 ], [ -46.640432, -23.519326 ], [ -46.641154, -23.519207 ], [ -46.641321, -23.519314 ], [ -46.640598, -23.519516 ], [ -46.640642, -23.519826 ], [ -46.640302, -23.519946 ], [ -46.64083, -23.521281 ], [ -46.638799, -23.521646 ], [ -46.638819, -23.521716 ], [ -46.641073, -23.522763 ], [ -46.641589, -23.521832 ], [ -46.643001, -23.522436 ], [ -46.64319, -23.521611 ], [ -46.642723, -23.521438 ], [ -46.6426, -23.5219 ], [ -46.642274, -23.521772 ], [ -46.642304, -23.521631 ], [ -46.64183, -23.521399 ], [ -46.642014, -23.521068 ], [ -46.64337, -23.520769 ], [ -46.643106, -23.520664 ], [ -46.642599, -23.518243 ], [ -46.640863, -23.51831 ], [ -46.634481, -23.518705 ] ] ] } },
{ "type": "Feature", "properties": { "CD_SETOR": "355030809000106", "faces": 23, "pavimentada": 100.0, "bueiro": 91.3, "iluminacao": 100.0, "onibus": 13.04, "ciclovia": 4.35, "calcada": 82.61, "obstaculo": 52.63, "rampa": 57.89, "rampa_faces": 47.83, "sem_calcada": 17.39, "sem_arvore": 8.7, "muitas_arvores": 56.52, "vao": 52.17, "V05400": 23, "V05421": 19, "V05406": 23, "V05412": 23, "V05422": 4, "V05424": 10, "V05427": 11, "V05409": 21, "V05415": 3, "V05418": 1, "V05430": 2, "V05433": 13, "criancas_0a4": 20, "em_favela": false }, "geometry": { "type": "Polygon", "coordinates": [ [ [ -46.649177, -23.519494 ], [ -46.647808, -23.521926 ], [ -46.649147, -23.522539 ], [ -46.65045, -23.520216 ], [ -46.650598, -23.520022 ], [ -46.651941, -23.520638 ], [ -46.652367, -23.519938 ], [ -46.651498, -23.519388 ], [ -46.651183, -23.51904 ], [ -46.651001, -23.519162 ], [ -46.650502, -23.518578 ], [ -46.650218, -23.518966 ], [ -46.649938, -23.519231 ], [ -46.649177, -23.519494 ] ] ] } },
{ "type": "Feature", "properties": { "CD_SETOR": "355030809000107", "faces": 7, "pavimentada": 100.0, "bueiro": 100.0, "iluminacao": 100.0, "onibus": 28.57, "ciclovia": 28.57, "calcada": 100.0, "obstaculo": 28.57, "rampa": 100.0, "rampa_faces": 100.0, "sem_calcada": 0.0, "sem_arvore": 0.0, "muitas_arvores": 85.71, "vao": 0.0, "V05400": 7, "V05421": 7, "V05406": 7, "V05412": 7, "V05422": 0, "V05424": 2, "V05427": 7, "V05409": 7, "V05415": 2, "V05418": 2, "V05430": 0, "V05433": 6, "criancas_0a4": 22, "em_favela": false }, "geometry": { "type": "Polygon", "coordinates": [ [ [ -46.65045, -23.520216 ], [ -46.648585, -23.52352 ], [ -46.64994, -23.524132 ], [ -46.651941, -23.520638 ], [ -46.650598, -23.520022 ], [ -46.65045, -23.520216 ] ] ] } },
{ "type": "Feature", "properties": { "CD_SETOR": "355030809000108", "faces": 2, "pavimentada": 50.0, "bueiro": 50.0, "iluminacao": 50.0, "onibus": 0.0, "ciclovia": 0.0, "calcada": 50.0, "obstaculo": 0.0, "rampa": 0.0, "rampa_faces": 0.0, "sem_calcada": 50.0, "sem_arvore": 50.0, "muitas_arvores": 50.0, "vao": 50.0, "V05400": 2, "V05421": 1, "V05406": 1, "V05412": 1, "V05422": 1, "V05424": 0, "V05427": 0, "V05409": 1, "V05415": 0, "V05418": 0, "V05430": 1, "V05433": 1, "criancas_0a4": 65, "em_favela": true }, "geometry": { "type": "Polygon", "coordinates": [ [ [ -46.639193, -23.52055 ], [ -46.639534, -23.520424 ], [ -46.639777, -23.520283 ], [ -46.639757, -23.520239 ], [ -46.640333, -23.52002 ], [ -46.640302, -23.519946 ], [ -46.640642, -23.519826 ], [ -46.640598, -23.519516 ], [ -46.641321, -23.519314 ], [ -46.641154, -23.519207 ], [ -46.640432, -23.519326 ], [ -46.637038, -23.520743 ], [ -46.637536, -23.521229 ], [ -46.637968, -23.521474 ], [ -46.638289, -23.521582 ], [ -46.638203, -23.521395 ], [ -46.638449, -23.521296 ], [ -46.638435, -23.52125 ], [ -46.638169, -23.52129 ], [ -46.637996, -23.52091 ], [ -46.639156, -23.520456 ], [ -46.639193, -23.52055 ] ] ] } },
{ "type": "Feature", "properties": { "CD_SETOR": "355030809000109", "faces": 9, "pavimentada": 0.0, "bueiro": 66.67, "iluminacao": 0.0, "onibus": 0.0, "ciclovia": 0.0, "calcada": 0.0, "obstaculo": null, "rampa": null, "rampa_faces": 0.0, "sem_calcada": 100.0, "sem_arvore": 88.89, "muitas_arvores": 0.0, "vao": 0.0, "V05400": 9, "V05421": 0, "V05406": 0, "V05412": 0, "V05422": 9, "V05424": 0, "V05427": 0, "V05409": 6, "V05415": 0, "V05418": 0, "V05430": 8, "V05433": 0, "criancas_0a4": 16, "em_favela": true }, "geometry": { "type": "Polygon", "coordinates": [ [ [ -46.646907, -23.528405 ], [ -46.647395, -23.528496 ], [ -46.647404, -23.528264 ], [ -46.648086, -23.528299 ], [ -46.648124, -23.52794 ], [ -46.646922, -23.527878 ], [ -46.646907, -23.528405 ] ] ] } },
{ "type": "Feature", "properties": { "CD_SETOR": "355030809000110", "faces": 6, "pavimentada": 16.67, "bueiro": 0.0, "iluminacao": 16.67, "onibus": 0.0, "ciclovia": 0.0, "calcada": 16.67, "obstaculo": 0.0, "rampa": 0.0, "rampa_faces": 0.0, "sem_calcada": 83.33, "sem_arvore": 83.33, "muitas_arvores": 0.0, "vao": 16.67, "V05400": 6, "V05421": 1, "V05406": 1, "V05412": 1, "V05422": 5, "V05424": 0, "V05427": 0, "V05409": 0, "V05415": 0, "V05418": 0, "V05430": 5, "V05433": 0, "criancas_0a4": 15, "em_favela": true }, "geometry": { "type": "Polygon", "coordinates": [ [ [ -46.646907, -23.528405 ], [ -46.646901, -23.528633 ], [ -46.648007, -23.528742 ], [ -46.648086, -23.528299 ], [ -46.647404, -23.528264 ], [ -46.647395, -23.528496 ], [ -46.646907, -23.528405 ] ] ] } },
{ "type": "Feature", "properties": { "CD_SETOR": "355030809000112", "faces": 1, "pavimentada": 100.0, "bueiro": 100.0, "iluminacao": 100.0, "onibus": 0.0, "ciclovia": 100.0, "calcada": 100.0, "obstaculo": 0.0, "rampa": 0.0, "rampa_faces": 0.0, "sem_calcada": 0.0, "sem_arvore": 100.0, "muitas_arvores": 0.0, "vao": 100.0, "V05400": 1, "V05421": 1, "V05406": 1, "V05412": 1, "V05422": 0, "V05424": 0, "V05427": 0, "V05409": 1, "V05415": 0, "V05418": 1, "V05430": 1, "V05433": 0, "criancas_0a4": 0, "em_favela": false }, "geometry": { "type": "Polygon", "coordinates": [ [ [ -46.645781, -23.522849 ], [ -46.646334, -23.5231 ], [ -46.646429, -23.5229 ], [ -46.64589, -23.52265 ], [ -46.645781, -23.522849 ] ] ] } },
{ "type": "Feature", "properties": { "CD_SETOR": "355030809000113", "faces": 1, "pavimentada": 100.0, "bueiro": 100.0, "iluminacao": 100.0, "onibus": 0.0, "ciclovia": 100.0, "calcada": 100.0, "obstaculo": 0.0, "rampa": 0.0, "rampa_faces": 0.0, "sem_calcada": 0.0, "sem_arvore": 0.0, "muitas_arvores": 0.0, "vao": 100.0, "V05400": 1, "V05421": 1, "V05406": 1, "V05412": 1, "V05422": 0, "V05424": 0, "V05427": 0, "V05409": 1, "V05415": 0, "V05418": 1, "V05430": 0, "V05433": 0, "criancas_0a4": 0, "em_favela": false }, "geometry": { "type": "Polygon", "coordinates": [ [ [ -46.646334, -23.5231 ], [ -46.645781, -23.522849 ], [ -46.645671, -23.523044 ], [ -46.646236, -23.523302 ], [ -46.646334, -23.5231 ] ] ] } },
{ "type": "Feature", "properties": { "CD_SETOR": "355030809000114", "faces": 17, "pavimentada": 100.0, "bueiro": 94.12, "iluminacao": 100.0, "onibus": 41.18, "ciclovia": 23.53, "calcada": 100.0, "obstaculo": 35.29, "rampa": 11.76, "rampa_faces": 11.76, "sem_calcada": 0.0, "sem_arvore": 5.88, "muitas_arvores": 52.94, "vao": 88.24, "V05400": 17, "V05421": 17, "V05406": 17, "V05412": 17, "V05422": 0, "V05424": 6, "V05427": 2, "V05409": 16, "V05415": 7, "V05418": 4, "V05430": 1, "V05433": 9, "criancas_0a4": 30, "em_favela": false }, "geometry": { "type": "Polygon", "coordinates": [ [ [ -46.64589, -23.52265 ], [ -46.646429, -23.5229 ], [ -46.646236, -23.523302 ], [ -46.645671, -23.523044 ], [ -46.645426, -23.523487 ], [ -46.647971, -23.524593 ], [ -46.647369, -23.525645 ], [ -46.648687, -23.526255 ], [ -46.64994, -23.524132 ], [ -46.646037, -23.522386 ], [ -46.64589, -23.52265 ] ] ] } },
{ "type": "Feature", "properties": { "CD_SETOR": "355030809000117", "faces": 8, "pavimentada": 100.0, "bueiro": 100.0, "iluminacao": 100.0, "onibus": 62.5, "ciclovia": 25.0, "calcada": 100.0, "obstaculo": 0.0, "rampa": 100.0, "rampa_faces": 100.0, "sem_calcada": 0.0, "sem_arvore": 12.5, "muitas_arvores": 25.0, "vao": 0.0, "V05400": 8, "V05421": 8, "V05406": 8, "V05412": 8, "V05422": 0, "V05424": 0, "V05427": 8, "V05409": 8, "V05415": 5, "V05418": 2, "V05430": 1, "V05433": 2, "criancas_0a4": 5, "em_favela": false }, "geometry": { "type": "Polygon", "coordinates": [ [ [ -46.63905, -23.52854 ], [ -46.641074, -23.529506 ], [ -46.641984, -23.527837 ], [ -46.641049, -23.527247 ], [ -46.640038, -23.526764 ], [ -46.63905, -23.52854 ] ] ] } },
{ "type": "Feature", "properties": { "CD_SETOR": "355030809000118", "faces": 12, "pavimentada": 100.0, "bueiro": 91.67, "iluminacao": 100.0, "onibus": 16.67, "ciclovia": 16.67, "calcada": 100.0, "obstaculo": 8.33, "rampa": 75.0, "rampa_faces": 75.0, "sem_calcada": 0.0, "sem_arvore": 41.67, "muitas_arvores": 8.33, "vao": 25.0, "V05400": 12, "V05421": 12, "V05406": 12, "V05412": 12, "V05422": 0, "V05424": 1, "V05427": 9, "V05409": 11, "V05415": 2, "V05418": 2, "V05430": 5, "V05433": 1, "criancas_0a4": 0, "em_favela": false }, "geometry": { "type": "Polygon", "coordinates": [ [ [ -46.641365, -23.529642 ], [ -46.640055, -23.529034 ], [ -46.638699, -23.531489 ], [ -46.639643, -23.532101 ], [ -46.639733, -23.532097 ], [ -46.640086, -23.531918 ], [ -46.641365, -23.529642 ] ] ] } },
{ "type": "Feature", "properties": { "CD_SETOR": "355030809000119", "faces": 2, "pavimentada": 100.0, "bueiro": 0.0, "iluminacao": 100.0, "onibus": 50.0, "ciclovia": 0.0, "calcada": 100.0, "obstaculo": 0.0, "rampa": 50.0, "rampa_faces": 50.0, "sem_calcada": 0.0, "sem_arvore": 0.0, "muitas_arvores": 50.0, "vao": 50.0, "V05400": 2, "V05421": 2, "V05406": 2, "V05412": 2, "V05422": 0, "V05424": 0, "V05427": 1, "V05409": 0, "V05415": 1, "V05418": 0, "V05430": 0, "V05433": 1, "criancas_0a4": 0, "em_favela": false }, "geometry": { "type": "Polygon", "coordinates": [ [ [ -46.632873, -23.52724 ], [ -46.63276, -23.52678 ], [ -46.632301, -23.526883 ], [ -46.63215, -23.526352 ], [ -46.631555, -23.526557 ], [ -46.631578, -23.526711 ], [ -46.631534, -23.526758 ], [ -46.63238, -23.527232 ], [ -46.632873, -23.52724 ] ] ] } },
{ "type": "Feature", "properties": { "CD_SETOR": "355030809000120", "faces": 1, "pavimentada": 100.0, "bueiro": 100.0, "iluminacao": 100.0, "onibus": 0.0, "ciclovia": 0.0, "calcada": 100.0, "obstaculo": 0.0, "rampa": 0.0, "rampa_faces": 0.0, "sem_calcada": 0.0, "sem_arvore": 0.0, "muitas_arvores": 0.0, "vao": 100.0, "V05400": 1, "V05421": 1, "V05406": 1, "V05412": 1, "V05422": 0, "V05424": 0, "V05427": 0, "V05409": 1, "V05415": 0, "V05418": 0, "V05430": 0, "V05433": 0, "criancas_0a4": 21, "em_favela": false }, "geometry": { "type": "Polygon", "coordinates": [ [ [ -46.63276, -23.52678 ], [ -46.63287, -23.527238 ], [ -46.633331, -23.527229 ], [ -46.633175, -23.526687 ], [ -46.63276, -23.52678 ] ] ] } },
{ "type": "Feature", "properties": { "CD_SETOR": "355030809000122", "faces": 1, "pavimentada": 100.0, "bueiro": 100.0, "iluminacao": 100.0, "onibus": 0.0, "ciclovia": 0.0, "calcada": 100.0, "obstaculo": 0.0, "rampa": 0.0, "rampa_faces": 0.0, "sem_calcada": 0.0, "sem_arvore": 0.0, "muitas_arvores": 0.0, "vao": 100.0, "V05400": 1, "V05421": 1, "V05406": 1, "V05412": 1, "V05422": 0, "V05424": 0, "V05427": 0, "V05409": 1, "V05415": 0, "V05418": 0, "V05430": 0, "V05433": 0, "criancas_0a4": 27, "em_favela": false }, "geometry": { "type": "Polygon", "coordinates": [ [ [ -46.633105, -23.526409 ], [ -46.63255, -23.52653 ], [ -46.632617, -23.526812 ], [ -46.633175, -23.526687 ], [ -46.633105, -23.526409 ] ] ] } }
]
}
