{
"type": "FeatureCollection",
"name": "jaguara",
"crs": { "type": "name", "properties": { "name": "urn:ogc:def:crs:OGC:1.3:CRS84" } },
"xy_coordinate_resolution": 1e-06,
"features": [
{ "type": "Feature", "properties": { "CD_SETOR": "355030840000009", "faces": 22, "pavimentada": 100.0, "bueiro": 13.64, "iluminacao": 100.0, "onibus": 9.09, "ciclovia": 0.0, "calcada": 95.45, "obstaculo": 52.38, "rampa": 19.05, "rampa_faces": 18.18, "sem_calcada": 4.55, "sem_arvore": 22.73, "muitas_arvores": 50.0, "vao": 81.82, "V05400": 22, "V05421": 21, "V05406": 22, "V05412": 22, "V05422": 1, "V05424": 11, "V05427": 4, "V05409": 3, "V05415": 2, "V05418": 0, "V05430": 5, "V05433": 11, "criancas_0a4": 12, "em_favela": false }, "geometry": { "type": "Polygon", "coordinates": [ [ [ -46.750393, -23.509366 ], [ -46.750653, -23.509654 ], [ -46.750723, -23.509849 ], [ -46.750566, -23.51005 ], [ -46.750297, -23.510234 ], [ -46.750325, -23.510405 ], [ -46.750504, -23.510542 ], [ -46.750561, -23.510644 ], [ -46.750528, -23.51102 ], [ -46.75068, -23.511066 ], [ -46.752237, -23.51119 ], [ -46.752523, -23.511068 ], [ -46.752678, -23.51091 ], [ -46.752464, -23.510783 ], [ -46.752357, -23.510598 ], [ -46.752062, -23.508287 ], [ -46.750379, -23.508038 ], [ -46.7504, -23.508291 ], [ -46.750621, -23.508415 ], [ -46.750612, -23.508688 ], [ -46.750675, -23.508901 ], [ -46.750991, -23.509374 ], [ -46.750708, -23.509423 ], [ -46.750393, -23.509366 ] ] ] } },
{ "type": "Feature", "properties": { "CD_SETOR": "355030840000012", "faces": 5, "pavimentada": 100.0, "bueiro": 80.0, "iluminacao": 100.0, "onibus": 40.0, "ciclovia": 0.0, "calcada": 100.0, "obstaculo": 60.0, "rampa": 20.0, "rampa_faces": 20.0, "sem_calcada": 0.0, "sem_arvore": 40.0, "muitas_arvores": 60.0, "vao": 80.0, "V05400": 5, "V05421": 5, "V05406": 5, "V05412": 5, "V05422": 0, "V05424": 3, "V05427": 1, "V05409": 4, "V05415": 2, "V05418": 0, "V05430": 2, "V05433": 3, "criancas_0a4": 16, "em_favela": false }, "geometry": { "type": "Polygon", "coordinates": [ [ [ -46.754037, -23.51179 ], [ -46.754185, -23.512717 ], [ -46.753417, -23.516978 ], [ -46.754283, -23.516678 ], [ -46.754953, -23.512888 ], [ -46.755289, -23.511661 ], [ -46.755063, -23.511613 ], [ -46.754037, -23.51179 ] ] ] } },
{ "type": "Feature", "properties": { "CD_SETOR": "355030840000018", "faces": 11, "pavimentada": 100.0, "bueiro": 90.91, "iluminacao": 100.0, "onibus": 36.36, "ciclovia": 0.0, "calcada": 81.82, "obstaculo": 100.0, "rampa": 0.0, "rampa_faces": 0.0, "sem_calcada": 18.18, "sem_arvore": 18.18, "muitas_arvores": 54.55, "vao": 100.0, "V05400": 11, "V05421": 9, "V05406": 11, "V05412": 11, "V05422": 2, "V05424": 9, "V05427": 0, "V05409": 10, "V05415": 4, "V05418": 0, "V05430": 2, "V05433": 6, "criancas_0a4": 21, "em_favela": false }, "geometry": { "type": "Polygon", "coordinates": [ [ [ -46.75631, -23.508498 ], [ -46.756038, -23.509033 ], [ -46.755582, -23.509652 ], [ -46.755577, -23.509766 ], [ -46.755666, -23.509885 ], [ -46.756421, -23.510109 ], [ -46.757015, -23.50984 ], [ -46.7576, -23.509435 ], [ -46.757217, -23.509031 ], [ -46.758087, -23.508177 ], [ -46.757939, -23.508041 ], [ -46.756925, -23.507474 ], [ -46.757077, -23.508079 ], [ -46.757042, -23.508336 ], [ -46.756854, -23.508734 ], [ -46.75631, -23.508498 ] ] ] } },
{ "type": "Feature", "properties": { "CD_SETOR": "355030840000020", "faces": 15, "pavimentada": 100.0, "bueiro": 46.67, "iluminacao": 100.0, "onibus": 13.33, "ciclovia": 0.0, "calcada": 100.0, "obstaculo": 66.67, "rampa": 20.0, "rampa_faces": 20.0, "sem_calcada": 0.0, "sem_arvore": 33.33, "muitas_arvores": 26.67, "vao": 80.0, "V05400": 15, "V05421": 15, "V05406": 15, "V05412": 15, "V05422": 0, "V05424": 10, "V05427": 3, "V05409": 7, "V05415": 2, "V05418": 0, "V05430": 5, "V05433": 4, "criancas_0a4": 28, "em_favela": false }, "geometry": { "type": "Polygon", "coordinates": [ [ [ -46.758381, -23.504674 ], [ -46.75908, -23.505785 ], [ -46.759365, -23.505855 ], [ -46.759969, -23.505327 ], [ -46.760817, -23.504702 ], [ -46.761379, -23.504333 ], [ -46.7625, -23.503756 ], [ -46.761949, -23.502726 ], [ -46.758381, -23.504674 ] ] ] } },
{ "type": "Feature", "properties": { "CD_SETOR": "355030840000021", "faces": 20, "pavimentada": 100.0, "bueiro": 70.0, "iluminacao": 100.0, "onibus": 35.0, "ciclovia": 0.0, "calcada": 100.0, "obstaculo": 75.0, "rampa": 20.0, "rampa_faces": 20.0, "sem_calcada": 0.0, "sem_arvore": 35.0, "muitas_arvores": 30.0, "vao": 80.0, "V05400": 20, "V05421": 20, "V05406": 20, "V05412": 20, "V05422": 0, "V05424": 15, "V05427": 4, "V05409": 14, "V05415": 7, "V05418": 0, "V05430": 7, "V05433": 6, "criancas_0a4": 27, "em_favela": false }, "geometry": { "type": "Polygon", "coordinates": [ [ [ -46.757716, -23.503642 ], [ -46.758381, -23.504674 ], [ -46.761949, -23.502726 ], [ -46.761539, -23.50173 ], [ -46.757716, -23.503642 ] ] ] } },
{ "type": "Feature", "properties": { "CD_SETOR": "355030840000022", "faces": 38, "pavimentada": 100.0, "bueiro": 42.11, "iluminacao": 94.74, "onibus": 18.42, "ciclovia": 0.0, "calcada": 86.84, "obstaculo": 90.91, "rampa": 3.03, "rampa_faces": 2.63, "sem_calcada": 13.16, "sem_arvore": 26.32, "muitas_arvores": 34.21, "vao": 97.37, "V05400": 38, "V05421": 33, "V05406": 38, "V05412": 36, "V05422": 5, "V05424": 30, "V05427": 1, "V05409": 16, "V05415": 7, "V05418": 0, "V05430": 10, "V05433": 13, "criancas_0a4": 30, "em_favela": false }, "geometry": { "type": "Polygon", "coordinates": [ [ [ -46.758637, -23.500408 ], [ -46.758434, -23.500827 ], [ -46.758192, -23.501193 ], [ -46.757996, -23.501645 ], [ -46.757944, -23.501858 ], [ -46.758036, -23.502196 ], [ -46.757982, -23.502541 ], [ -46.757664, -23.503114 ], [ -46.757483, -23.503278 ], [ -46.757716, -23.503642 ], [ -46.761539, -23.50173 ], [ -46.761396, -23.501569 ], [ -46.760659, -23.501231 ], [ -46.760348, -23.501031 ], [ -46.760209, -23.500831 ], [ -46.759941, -23.500101 ], [ -46.759711, -23.499908 ], [ -46.759095, -23.499763 ], [ -46.758637, -23.500408 ] ] ] } },
{ "type": "Feature", "properties": { "CD_SETOR": "355030840000024", "faces": 19, "pavimentada": 100.0, "bueiro": 47.37, "iluminacao": 89.47, "onibus": 15.79, "ciclovia": 0.0, "calcada": 78.95, "obstaculo": 66.67, "rampa": 26.67, "rampa_faces": 21.05, "sem_calcada": 21.05, "sem_arvore": 52.63, "muitas_arvores": 26.32, "vao": 78.95, "V05400": 19, "V05421": 15, "V05406": 19, "V05412": 17, "V05422": 4, "V05424": 10, "V05427": 4, "V05409": 9, "V05415": 3, "V05418": 0, "V05430": 10, "V05433": 5, "criancas_0a4": 7, "em_favela": false }, "geometry": { "type": "Polygon", "coordinates": [ [ [ -46.754547, -23.515141 ], [ -46.754283, -23.516678 ], [ -46.754774, -23.516535 ], [ -46.756536, -23.516366 ], [ -46.756274, -23.515542 ], [ -46.756306, -23.515521 ], [ -46.756034, -23.514562 ], [ -46.756041, -23.514275 ], [ -46.756142, -23.514109 ], [ -46.756066, -23.513976 ], [ -46.755777, -23.514308 ], [ -46.755554, -23.514722 ], [ -46.755447, -23.515144 ], [ -46.754915, -23.515174 ], [ -46.754547, -23.515141 ] ] ] } },
{ "type": "Feature", "properties": { "CD_SETOR": "355030840000025", "faces": 25, "pavimentada": 100.0, "bueiro": 56.0, "iluminacao": 100.0, "onibus": 20.0, "ciclovia": 0.0, "calcada": 88.0, "obstaculo": 72.73, "rampa": 4.55, "rampa_faces": 4.0, "sem_calcada": 12.0, "sem_arvore": 32.0, "muitas_arvores": 32.0, "vao": 96.0, "V05400": 25, "V05421": 22, "V05406": 25, "V05412": 25, "V05422": 3, "V05424": 16, "V05427": 1, "V05409": 14, "V05415": 5, "V05418": 0, "V05430": 8, "V05433": 8, "criancas_0a4": 42, "em_favela": false }, "geometry": { "type": "Polygon", "coordinates": [ [ [ -46.757386, -23.512131 ], [ -46.757611, -23.512944 ], [ -46.757549, -23.513268 ], [ -46.757387, -23.513312 ], [ -46.756753, -23.513248 ], [ -46.756662, -23.513315 ], [ -46.756566, -23.513522 ], [ -46.756596, -23.513739 ], [ -46.756733, -23.513937 ], [ -46.756919, -23.514048 ], [ -46.75655, -23.514223 ], [ -46.756234, -23.51391 ], [ -46.756066, -23.513976 ], [ -46.756142, -23.514109 ], [ -46.756041, -23.514275 ], [ -46.756034, -23.514562 ], [ -46.756306, -23.515521 ], [ -46.756274, -23.515542 ], [ -46.756536, -23.516366 ], [ -46.757209, -23.516208 ], [ -46.757502, -23.516059 ], [ -46.757782, -23.515808 ], [ -46.757822, -23.515638 ], [ -46.75784, -23.514613 ], [ -46.757465, -23.513947 ], [ -46.757533, -23.513859 ], [ -46.757993, -23.513818 ], [ -46.758039, -23.513647 ], [ -46.757943, -23.513225 ], [ -46.757975, -23.513101 ], [ -46.758384, -23.512856 ], [ -46.75881, -23.512864 ], [ -46.759027, -23.512812 ], [ -46.759399, -23.512643 ], [ -46.759702, -23.512431 ], [ -46.758857, -23.512366 ], [ -46.757386, -23.512131 ] ] ] } },
{ "type": "Feature", "properties": { "CD_SETOR": "355030840000028", "faces": 21, "pavimentada": 100.0, "bueiro": 85.71, "iluminacao": 100.0, "onibus": 9.52, "ciclovia": 0.0, "calcada": 95.24, "obstaculo": 100.0, "rampa": 5.0, "rampa_faces": 4.76, "sem_calcada": 4.76, "sem_arvore": 42.86, "muitas_arvores": 28.57, "vao": 95.24, "V05400": 21, "V05421": 20, "V05406": 21, "V05412": 21, "V05422": 1, "V05424": 20, "V05427": 1, "V05409": 18, "V05415": 2, "V05418": 0, "V05430": 9, "V05433": 6, "criancas_0a4": 27, "em_favela": false }, "geometry": { "type": "Polygon", "coordinates": [ [ [ -46.762062, -23.506779 ], [ -46.761359, -23.507775 ], [ -46.762123, -23.508472 ], [ -46.76221, -23.50874 ], [ -46.762882, -23.508177 ], [ -46.763197, -23.507523 ], [ -46.763971, -23.506406 ], [ -46.763994, -23.506013 ], [ -46.763914, -23.505748 ], [ -46.763797, -23.505562 ], [ -46.763057, -23.505924 ], [ -46.762812, -23.505951 ], [ -46.761401, -23.506365 ], [ -46.762062, -23.506779 ] ] ] } },
{ "type": "Feature", "properties": { "CD_SETOR": "355030840000030", "faces": 26, "pavimentada": 96.15, "bueiro": 38.46, "iluminacao": 100.0, "onibus": 30.77, "ciclovia": 0.0, "calcada": 80.77, "obstaculo": 90.48, "rampa": 4.76, "rampa_faces": 3.85, "sem_calcada": 19.23, "sem_arvore": 7.69, "muitas_arvores": 50.0, "vao": 92.31, "V05400": 26, "V05421": 21, "V05406": 25, "V05412": 26, "V05422": 5, "V05424": 19, "V05427": 1, "V05409": 10, "V05415": 8, "V05418": 0, "V05430": 2, "V05433": 13, "criancas_0a4": 20, "em_favela": false }, "geometry": { "type": "Polygon", "coordinates": [ [ [ -46.753457, -23.508518 ], [ -46.753616, -23.509545 ], [ -46.754552, -23.509921 ], [ -46.75498, -23.510182 ], [ -46.755011, -23.510292 ], [ -46.755121, -23.510387 ], [ -46.756066, -23.510676 ], [ -46.756421, -23.510109 ], [ -46.755666, -23.509885 ], [ -46.755608, -23.509837 ], [ -46.755576, -23.509694 ], [ -46.756038, -23.509033 ], [ -46.756444, -23.508222 ], [ -46.75643, -23.508001 ], [ -46.75632, -23.50788 ], [ -46.7555, -23.507404 ], [ -46.755143, -23.508149 ], [ -46.754821, -23.508426 ], [ -46.754348, -23.508522 ], [ -46.753457, -23.508518 ] ] ] } },
{ "type": "Feature", "properties": { "CD_SETOR": "355030840000031", "faces": 17, "pavimentada": 100.0, "bueiro": 52.94, "iluminacao": 100.0, "onibus": 17.65, "ciclovia": 0.0, "calcada": 82.35, "obstaculo": 100.0, "rampa": 0.0, "rampa_faces": 0.0, "sem_calcada": 17.65, "sem_arvore": 41.18, "muitas_arvores": 41.18, "vao": 100.0, "V05400": 17, "V05421": 14, "V05406": 17, "V05412": 17, "V05422": 3, "V05424": 14, "V05427": 0, "V05409": 9, "V05415": 3, "V05418": 0, "V05430": 7, "V05433": 7, "criancas_0a4": 23, "em_favela": false }, "geometry": { "type": "Polygon", "coordinates": [ [ [ -46.758087, -23.508177 ], [ -46.757217, -23.509031 ], [ -46.7576, -23.509435 ], [ -46.757015, -23.50984 ], [ -46.756421, -23.510109 ], [ -46.756066, -23.510676 ], [ -46.756545, -23.510812 ], [ -46.757525, -23.510821 ], [ -46.757105, -23.510486 ], [ -46.758473, -23.509498 ], [ -46.758954, -23.509283 ], [ -46.758903, -23.508161 ], [ -46.758087, -23.508177 ] ] ] } },
{ "type": "Feature", "properties": { "CD_SETOR": "355030840000033", "faces": 21, "pavimentada": 100.0, "bueiro": 38.1, "iluminacao": 100.0, "onibus": 0.0, "ciclovia": 0.0, "calcada": 90.48, "obstaculo": 84.21, "rampa": 21.05, "rampa_faces": 19.05, "sem_calcada": 9.52, "sem_arvore": 9.52, "muitas_arvores": 76.19, "vao": 80.95, "V05400": 21, "V05421": 19, "V05406": 21, "V05412": 21, "V05422": 2, "V05424": 16, "V05427": 4, "V05409": 8, "V05415": 0, "V05418": 0, "V05430": 2, "V05433": 16, "criancas_0a4": 9, "em_favela": false }, "geometry": { "type": "Polygon", "coordinates": [ [ [ -46.74888, -23.510129 ], [ -46.748804, -23.510879 ], [ -46.750528, -23.51102 ], [ -46.750561, -23.510644 ], [ -46.750504, -23.510542 ], [ -46.750325, -23.510405 ], [ -46.750297, -23.510234 ], [ -46.750566, -23.51005 ], [ -46.750723, -23.509849 ], [ -46.750617, -23.509604 ], [ -46.749833, -23.508828 ], [ -46.749105, -23.508568 ], [ -46.748862, -23.508835 ], [ -46.748769, -23.509064 ], [ -46.748746, -23.509286 ], [ -46.74888, -23.510129 ] ] ] } },
{ "type": "Feature", "properties": { "CD_SETOR": "355030840000034", "faces": 14, "pavimentada": 100.0, "bueiro": 7.14, "iluminacao": 100.0, "onibus": 7.14, "ciclovia": 0.0, "calcada": 92.86, "obstaculo": 84.62, "rampa": 0.0, "rampa_faces": 0.0, "sem_calcada": 7.14, "sem_arvore": 42.86, "muitas_arvores": 7.14, "vao": 100.0, "V05400": 14, "V05421": 13, "V05406": 14, "V05412": 14, "V05422": 1, "V05424": 11, "V05427": 0, "V05409": 1, "V05415": 1, "V05418": 0, "V05430": 6, "V05433": 1, "criancas_0a4": 27, "em_favela": false }, "geometry": { "type": "Polygon", "coordinates": [ [ [ -46.751965, -23.513318 ], [ -46.75344, -23.513528 ], [ -46.753349, -23.514064 ], [ -46.753934, -23.514147 ], [ -46.754185, -23.512717 ], [ -46.754116, -23.512235 ], [ -46.752709, -23.512046 ], [ -46.752621, -23.512539 ], [ -46.752097, -23.512492 ], [ -46.751965, -23.513318 ] ] ] } },
{ "type": "Feature", "properties": { "CD_SETOR": "355030840000035", "faces": 11, "pavimentada": 100.0, "bueiro": 100.0, "iluminacao": 100.0, "onibus": 0.0, "ciclovia": 0.0, "calcada": 100.0, "obstaculo": 100.0, "rampa": 45.45, "rampa_faces": 45.45, "sem_calcada": 0.0, "sem_arvore": 0.0, "muitas_arvores": 63.64, "vao": 54.55, "V05400": 11, "V05421": 11, "V05406": 11, "V05412": 11, "V05422": 0, "V05424": 11, "V05427": 5, "V05409": 11, "V05415": 0, "V05418": 0, "V05430": 0, "V05433": 7, "criancas_0a4": 12, "em_favela": false }, "geometry": { "type": "Polygon", "coordinates": [ [ [ -46.761208, -23.504444 ], [ -46.761862, -23.505632 ], [ -46.763194, -23.505236 ], [ -46.763441, -23.505093 ], [ -46.7625, -23.503756 ], [ -46.761208, -23.504444 ] ] ] } },
{ "type": "Feature", "properties": { "CD_SETOR": "355030840000036", "faces": 16, "pavimentada": 100.0, "bueiro": 56.25, "iluminacao": 100.0, "onibus": 37.5, "ciclovia": 6.25, "calcada": 43.75, "obstaculo": 42.86, "rampa": 14.29, "rampa_faces": 6.25, "sem_calcada": 56.25, "sem_arvore": 81.25, "muitas_arvores": 6.25, "vao": 93.75, "V05400": 16, "V05421": 7, "V05406": 16, "V05412": 16, "V05422": 9, "V05424": 3, "V05427": 1, "V05409": 9, "V05415": 6, "V05418": 1, "V05430": 13, "V05433": 1, "criancas_0a4": 0, "em_favela": false }, "geometry": { "type": "Polygon", "coordinates": [ [ [ -46.746697, -23.5075 ], [ -46.739415, -23.508096 ], [ -46.739447, -23.508219 ], [ -46.739407, -23.508481 ], [ -46.739134, -23.508547 ], [ -46.738816, -23.508694 ], [ -46.738426, -23.509036 ], [ -46.738178, -23.509473 ], [ -46.738097, -23.509902 ], [ -46.738113, -23.514938 ], [ -46.738175, -23.515288 ], [ -46.738321, -23.515713 ], [ -46.7386, -23.516104 ], [ -46.739017, -23.516427 ], [ -46.74018, -23.515679 ], [ -46.73973, -23.515228 ], [ -46.740575, -23.513593 ], [ -46.740948, -23.513032 ], [ -46.741398, -23.512826 ], [ -46.741632, -23.512793 ], [ -46.742049, -23.512587 ], [ -46.742577, -23.511975 ], [ -46.743158, -23.511458 ], [ -46.743625, -23.511114 ], [ -46.743853, -23.510785 ], [ -46.745132, -23.510185 ], [ -46.74553, -23.509882 ], [ -46.745783, -23.509579 ], [ -46.745913, -23.509165 ], [ -46.746294, -23.508332 ], [ -46.747077, -23.507792 ], [ -46.746816, -23.507765 ], [ -46.746697, -23.5075 ] ] ] } },
{ "type": "Feature", "properties": { "CD_SETOR": "355030840000037", "faces": 37, "pavimentada": 100.0, "bueiro": 35.14, "iluminacao": 100.0, "onibus": 18.92, "ciclovia": 8.11, "calcada": 75.68, "obstaculo": 57.14, "rampa": 14.29, "rampa_faces": 10.81, "sem_calcada": 24.32, "sem_arvore": 40.54, "muitas_arvores": 43.24, "vao": 89.19, "V05400": 37, "V05421": 28, "V05406": 37, "V05412": 37, "V05422": 9, "V05424": 16, "V05427": 4, "V05409": 13, "V05415": 7, "V05418": 3, "V05430": 15, "V05433": 16, "criancas_0a4": 27, "em_favela": false }, "geometry": { "type": "Polygon", "coordinates": [ [ [ -46.74018, -23.515679 ], [ -46.741049, -23.51464 ], [ -46.741573, -23.513634 ], [ -46.741624, -23.513418 ], [ -46.741759, -23.513259 ], [ -46.741863, -23.513201 ], [ -46.742002, -23.513227 ], [ -46.74346, -23.512196 ], [ -46.746338, -23.510555 ], [ -46.746659, -23.510312 ], [ -46.747708, -23.509258 ], [ -46.747645, -23.507861 ], [ -46.747077, -23.507792 ], [ -46.746294, -23.508332 ], [ -46.745913, -23.509165 ], [ -46.745783, -23.509579 ], [ -46.74553, -23.509882 ], [ -46.745132, -23.510185 ], [ -46.743853, -23.510785 ], [ -46.743625, -23.511114 ], [ -46.743158, -23.511458 ], [ -46.742577, -23.511975 ], [ -46.742049, -23.512587 ], [ -46.741632, -23.512793 ], [ -46.741398, -23.512826 ], [ -46.740948, -23.513032 ], [ -46.740575, -23.513593 ], [ -46.73973, -23.515228 ], [ -46.74018, -23.515679 ] ] ] } },
{ "type": "Feature", "properties": { "CD_SETOR": "355030840000038", "faces": 16, "pavimentada": 100.0, "bueiro": 75.0, "iluminacao": 100.0, "onibus": 12.5, "ciclovia": 6.25, "calcada": 100.0, "obstaculo": 31.25, "rampa": 43.75, "rampa_faces": 43.75, "sem_calcada": 0.0, "sem_arvore": 0.0, "muitas_arvores": 62.5, "vao": 56.25, "V05400": 16, "V05421": 16, "V05406": 16, "V05412": 16, "V05422": 0, "V05424": 5, "V05427": 7, "V05409": 12, "V05415": 2, "V05418": 1, "V05430": 0, "V05433": 10, "criancas_0a4": 34, "em_favela": false }, "geometry": { "type": "Polygon", "coordinates": [ [ [ -46.741599, -23.513545 ], [ -46.743507, -23.515227 ], [ -46.744731, -23.514814 ], [ -46.743555, -23.513781 ], [ -46.744268, -23.513097 ], [ -46.74334, -23.512278 ], [ -46.742002, -23.513227 ], [ -46.741815, -23.513213 ], [ -46.74168, -23.513331 ], [ -46.741599, -23.513545 ] ] ] } },
{ "type": "Feature", "properties": { "CD_SETOR": "355030840000039", "faces": 40, "pavimentada": 100.0, "bueiro": 75.0, "iluminacao": 97.5, "onibus": 17.5, "ciclovia": 0.0, "calcada": 80.0, "obstaculo": 34.38, "rampa": 12.5, "rampa_faces": 10.0, "sem_calcada": 20.0, "sem_arvore": 27.5, "muitas_arvores": 12.5, "vao": 90.0, "V05400": 40, "V05421": 32, "V05406": 40, "V05412": 39, "V05422": 8, "V05424": 11, "V05427": 4, "V05409": 30, "V05415": 7, "V05418": 0, "V05430": 11, "V05433": 5, "criancas_0a4": 27, "em_favela": false }, "geometry": { "type": "Polygon", "coordinates": [ [ [ -46.74018, -23.515679 ], [ -46.739017, -23.516427 ], [ -46.739563, -23.516665 ], [ -46.739983, -23.516731 ], [ -46.739969, -23.517595 ], [ -46.741751, -23.517535 ], [ -46.742721, -23.517606 ], [ -46.743188, -23.51769 ], [ -46.743266, -23.516738 ], [ -46.744069, -23.516473 ], [ -46.74386, -23.51593 ], [ -46.7438, -23.51595 ], [ -46.743507, -23.515227 ], [ -46.741599, -23.513545 ], [ -46.741014, -23.514693 ], [ -46.74018, -23.515679 ] ] ] } },
{ "type": "Feature", "properties": { "CD_SETOR": "355030840000040", "faces": 12, "pavimentada": 100.0, "bueiro": 0.0, "iluminacao": 100.0, "onibus": 50.0, "ciclovia": 25.0, "calcada": 83.33, "obstaculo": 30.0, "rampa": 60.0, "rampa_faces": 50.0, "sem_calcada": 16.67, "sem_arvore": 25.0, "muitas_arvores": 58.33, "vao": 50.0, "V05400": 12, "V05421": 10, "V05406": 12, "V05412": 12, "V05422": 2, "V05424": 3, "V05427": 6, "V05409": 0, "V05415": 6, "V05418": 3, "V05430": 3, "V05433": 7, "criancas_0a4": 5, "em_favela": false }, "geometry": { "type": "Polygon", "coordinates": [ [ [ -46.745092, -23.51127 ], [ -46.745307, -23.511467 ], [ -46.746062, -23.511762 ], [ -46.745265, -23.513984 ], [ -46.746164, -23.514777 ], [ -46.746417, -23.514901 ], [ -46.747403, -23.511597 ], [ -46.745979, -23.511111 ], [ -46.745845, -23.510931 ], [ -46.745767, -23.510895 ], [ -46.745092, -23.51127 ] ] ] } },
{ "type": "Feature", "properties": { "CD_SETOR": "355030840000041", "faces": 12, "pavimentada": 100.0, "bueiro": 25.0, "iluminacao": 100.0, "onibus": 33.33, "ciclovia": 8.33, "calcada": 100.0, "obstaculo": 33.33, "rampa": 41.67, "rampa_faces": 41.67, "sem_calcada": 0.0, "sem_arvore": 33.33, "muitas_arvores": 41.67, "vao": 58.33, "V05400": 12, "V05421": 12, "V05406": 12, "V05412": 12, "V05422": 0, "V05424": 4, "V05427": 5, "V05409": 3, "V05415": 4, "V05418": 1, "V05430": 4, "V05433": 5, "criancas_0a4": 11, "em_favela": false }, "geometry": { "type": "Polygon", "coordinates": [ [ [ -46.74334, -23.512278 ], [ -46.744268, -23.513097 ], [ -46.743555, -23.513781 ], [ -46.744731, -23.514814 ], [ -46.745039, -23.514705 ], [ -46.74552, -23.514212 ], [ -46.745265, -23.513984 ], [ -46.746062, -23.511762 ], [ -46.745307, -23.511467 ], [ -46.745092, -23.51127 ], [ -46.74334, -23.512278 ] ] ] } },
{ "type": "Feature", "properties": { "CD_SETOR": "355030840000042", "faces": 2, "pavimentada": 100.0, "bueiro": 0.0, "iluminacao": 100.0, "onibus": 100.0, "ciclovia": 50.0, "calcada": 100.0, "obstaculo": 0.0, "rampa": 50.0, "rampa_faces": 50.0, "sem_calcada": 0.0, "sem_arvore": 0.0, "muitas_arvores": 100.0, "vao": 50.0, "V05400": 2, "V05421": 2, "V05406": 2, "V05412": 2, "V05422": 0, "V05424": 0, "V05427": 1, "V05409": 0, "V05415": 2, "V05418": 1, "V05430": 0, "V05433": 2, "criancas_0a4": 8, "em_favela": false }, "geometry": { "type": "Polygon", "coordinates": [ [ [ -46.747481, -23.511353 ], [ -46.74649, -23.514614 ], [ -46.746421, -23.514875 ], [ -46.74734, -23.51479 ], [ -46.748235, -23.512779 ], [ -46.748261, -23.512609 ], [ -46.748163, -23.512299 ], [ -46.747481, -23.511353 ] ] ] } },
{ "type": "Feature", "properties": { "CD_SETOR": "355030840000043", "faces": 12, "pavimentada": 100.0, "bueiro": 25.0, "iluminacao": 100.0, "onibus": 25.0, "ciclovia": 16.67, "calcada": 66.67, "obstaculo": 87.5, "rampa": 25.0, "rampa_faces": 16.67, "sem_calcada": 33.33, "sem_arvore": 50.0, "muitas_arvores": 25.0, "vao": 83.33, "V05400": 12, "V05421": 8, "V05406": 12, "V05412": 12, "V05422": 4, "V05424": 7, "V05427": 2, "V05409": 3, "V05415": 3, "V05418": 2, "V05430": 6, "V05433": 3, "criancas_0a4": 17, "em_favela": false }, "geometry": { "type": "Polygon", "coordinates": [ [ [ -46.747481, -23.511353 ], [ -46.748163, -23.512299 ], [ -46.748261, -23.512609 ], [ -46.748187, -23.512931 ], [ -46.74734, -23.51479 ], [ -46.747338, -23.515149 ], [ -46.747794, -23.515085 ], [ -46.748085, -23.514947 ], [ -46.748265, -23.514794 ], [ -46.748934, -23.513678 ], [ -46.749077, -23.513584 ], [ -46.749333, -23.512859 ], [ -46.749315, -23.512668 ], [ -46.749175, -23.512375 ], [ -46.748365, -23.511241 ], [ -46.748334, -23.510831 ], [ -46.747662, -23.510764 ], [ -46.747481, -23.511353 ] ] ] } },
{ "type": "Feature", "properties": { "CD_SETOR": "355030840000044", "faces": 16, "pavimentada": 100.0, "bueiro": 25.0, "iluminacao": 100.0, "onibus": 12.5, "ciclovia": 25.0, "calcada": 93.75, "obstaculo": 53.33, "rampa": 40.0, "rampa_faces": 37.5, "sem_calcada": 6.25, "sem_arvore": 37.5, "muitas_arvores": 37.5, "vao": 62.5, "V05400": 16, "V05421": 15, "V05406": 16, "V05412": 16, "V05422": 1, "V05424": 8, "V05427": 6, "V05409": 4, "V05415": 2, "V05418": 4, "V05430": 6, "V05433": 6, "criancas_0a4": 5, "em_favela": false }, "geometry": { "type": "Polygon", "coordinates": [ [ [ -46.745767, -23.510895 ], [ -46.745845, -23.510931 ], [ -46.745979, -23.511111 ], [ -46.747403, -23.511597 ], [ -46.747662, -23.510764 ], [ -46.748804, -23.510879 ], [ -46.74888, -23.510129 ], [ -46.747088, -23.509879 ], [ -46.746531, -23.51042 ], [ -46.745767, -23.510895 ] ] ] } },
{ "type": "Feature", "properties": { "CD_SETOR": "355030840000045", "faces": 16, "pavimentada": 100.0, "bueiro": 43.75, "iluminacao": 100.0, "onibus": 18.75, "ciclovia": 31.25, "calcada": 87.5, "obstaculo": 57.14, "rampa": 57.14, "rampa_faces": 50.0, "sem_calcada": 12.5, "sem_arvore": 18.75, "muitas_arvores": 68.75, "vao": 50.0, "V05400": 16, "V05421": 14, "V05406": 16, "V05412": 16, "V05422": 2, "V05424": 8, "V05427": 8, "V05409": 7, "V05415": 3, "V05418": 5, "V05430": 3, "V05433": 11, "criancas_0a4": 14, "em_favela": false }, "geometry": { "type": "Polygon", "coordinates": [ [ [ -46.747088, -23.509879 ], [ -46.74888, -23.510129 ], [ -46.748751, -23.509395 ], [ -46.748754, -23.509161 ], [ -46.748862, -23.508835 ], [ -46.749105, -23.508568 ], [ -46.749833, -23.508828 ], [ -46.750393, -23.509366 ], [ -46.750708, -23.509423 ], [ -46.750991, -23.509374 ], [ -46.750675, -23.508901 ], [ -46.750612, -23.508688 ], [ -46.750621, -23.508415 ], [ -46.7504, -23.508291 ], [ -46.750379, -23.508038 ], [ -46.749409, -23.50792 ], [ -46.747645, -23.507861 ], [ -46.747708, -23.509258 ], [ -46.747088, -23.509879 ] ] ] } },
{ "type": "Feature", "properties": { "CD_SETOR": "355030840000046", "faces": 3, "pavimentada": 0.0, "bueiro": 0.0, "iluminacao": 0.0, "onibus": 0.0, "ciclovia": 0.0, "calcada": 0.0, "obstaculo": null, "rampa": null, "rampa_faces": 0.0, "sem_calcada": 0.0, "sem_arvore": 0.0, "muitas_arvores": 0.0, "vao": 0.0, "V05400": 3, "V05421": 0, "V05406": 0, "V05412": 0, "V05422": 0, "V05424": 0, "V05427": 0, "V05409": 0, "V05415": 0, "V05418": 0, "V05430": 0, "V05433": 0, "criancas_0a4": 16, "em_favela": true }, "geometry": { "type": "Polygon", "coordinates": [ [ [ -46.752204, -23.507297 ], [ -46.752659, -23.507392 ], [ -46.752522, -23.506151 ], [ -46.752155, -23.506158 ], [ -46.751659, -23.506693 ], [ -46.752204, -23.507297 ] ] ] } },
{ "type": "Feature", "properties": { "CD_SETOR": "355030840000047", "faces": 21, "pavimentada": 100.0, "bueiro": 23.81, "iluminacao": 95.24, "onibus": 9.52, "ciclovia": 19.05, "calcada": 100.0, "obstaculo": 61.9, "rampa": 14.29, "rampa_faces": 14.29, "sem_calcada": 0.0, "sem_arvore": 4.76, "muitas_arvores": 57.14, "vao": 85.71, "V05400": 21, "V05421": 21, "V05406": 21, "V05412": 20, "V05422": 0, "V05424": 13, "V05427": 3, "V05409": 5, "V05415": 2, "V05418": 4, "V05430": 1, "V05433": 12, "criancas_0a4": 19, "em_favela": false }, "geometry": { "type": "Polygon", "coordinates": [ [ [ -46.74734, -23.51479 ], [ -46.746336, -23.51489 ], [ -46.74552, -23.514212 ], [ -46.745039, -23.514705 ], [ -46.743507, -23.515227 ], [ -46.7438, -23.51595 ], [ -46.74386, -23.51593 ], [ -46.744069, -23.516473 ], [ -46.745524, -23.515986 ], [ -46.745609, -23.515913 ], [ -46.747417, -23.515721 ], [ -46.748053, -23.515611 ], [ -46.748287, -23.515516 ], [ -46.748648, -23.515259 ], [ -46.748943, -23.51487 ], [ -46.749108, -23.513859 ], [ -46.749115, -23.513642 ], [ -46.749077, -23.513584 ], [ -46.748934, -23.513678 ], [ -46.748265, -23.514794 ], [ -46.748085, -23.514947 ], [ -46.747794, -23.515085 ], [ -46.747338, -23.515149 ], [ -46.74734, -23.51479 ] ] ] } },
{ "type": "Feature", "properties": { "CD_SETOR": "355030840000048", "faces": 32, "pavimentada": 100.0, "bueiro": 68.75, "iluminacao": 100.0, "onibus": 12.5, "ciclovia": 6.25, "calcada": 75.0, "obstaculo": 29.17, "rampa": 0.0, "rampa_faces": 0.0, "sem_calcada": 25.0, "sem_arvore": 12.5, "muitas_arvores": 40.62, "vao": 100.0, "V05400": 32, "V05421": 24, "V05406": 32, "V05412": 32, "V05422": 8, "V05424": 7, "V05427": 0, "V05409": 22, "V05415": 4, "V05418": 2, "V05430": 4, "V05433": 13, "criancas_0a4": 11, "em_favela": false }, "geometry": { "type": "Polygon", "coordinates": [ [ [ -46.745524, -23.515986 ], [ -46.743266, -23.516738 ], [ -46.743188, -23.51769 ], [ -46.744311, -23.518064 ], [ -46.745244, -23.518578 ], [ -46.74592, -23.51787 ], [ -46.747493, -23.516477 ], [ -46.747499, -23.516305 ], [ -46.747417, -23.515721 ], [ -46.745609, -23.515913 ], [ -46.745524, -23.515986 ] ] ] } },
{ "type": "Feature", "properties": { "CD_SETOR": "355030840000049", "faces": 3, "pavimentada": 100.0, "bueiro": 0.0, "iluminacao": 100.0, "onibus": 0.0, "ciclovia": 0.0, "calcada": 100.0, "obstaculo": 0.0, "rampa": 0.0, "rampa_faces": 0.0, "sem_calcada": 0.0, "sem_arvore": 0.0, "muitas_arvores": 100.0, "vao": 100.0, "V05400": 3, "V05421": 3, "V05406": 3, "V05412": 3, "V05422": 0, "V05424": 0, "V05427": 0, "V05409": 0, "V05415": 0, "V05418": 0, "V05430": 0, "V05433": 3, "criancas_0a4": 31, "em_favela": false }, "geometry": { "type": "Polygon", "coordinates": [ [ [ -46.750919, -23.514983 ], [ -46.751221, -23.515368 ], [ -46.75126, -23.515482 ], [ -46.751403, -23.515412 ], [ -46.75165, -23.515379 ], [ -46.751798, -23.514366 ], [ -46.75103, -23.514254 ], [ -46.750919, -23.514983 ] ] ] } },
{ "type": "Feature", "properties": { "CD_SETOR": "355030840000050", "faces": 11, "pavimentada": 100.0, "bueiro": 27.27, "iluminacao": 100.0, "onibus": 9.09, "ciclovia": 0.0, "calcada": 81.82, "obstaculo": 55.56, "rampa": 11.11, "rampa_faces": 9.09, "sem_calcada": 18.18, "sem_arvore": 27.27, "muitas_arvores": 45.45, "vao": 90.91, "V05400": 11, "V05421": 9, "V05406": 11, "V05412": 11, "V05422": 2, "V05424": 5, "V05427": 1, "V05409": 3, "V05415": 1, "V05418": 0, "V05430": 3, "V05433": 5, "criancas_0a4": 14, "em_favela": false }, "geometry": { "type": "Polygon", "coordinates": [ [ [ -46.752678, -23.51091 ], [ -46.752405, -23.511132 ], [ -46.752084, -23.511197 ], [ -46.748334, -23.510831 ], [ -46.748365, -23.511241 ], [ -46.749175, -23.512375 ], [ -46.749335, -23.512769 ], [ -46.749262, -23.513106 ], [ -46.749077, -23.513584 ], [ -46.749115, -23.513642 ], [ -46.749108, -23.513859 ], [ -46.74899, -23.514704 ], [ -46.750919, -23.514983 ], [ -46.75103, -23.514254 ], [ -46.751798, -23.514366 ], [ -46.752097, -23.512492 ], [ -46.752621, -23.512539 ], [ -46.752709, -23.512046 ], [ -46.754116, -23.512235 ], [ -46.753894, -23.51108 ], [ -46.753532, -23.511167 ], [ -46.753313, -23.51117 ], [ -46.75316, -23.510343 ], [ -46.753039, -23.510387 ], [ -46.752871, -23.510535 ], [ -46.752678, -23.51091 ] ] ] } },
{ "type": "Feature", "properties": { "CD_SETOR": "355030840000051", "faces": 50, "pavimentada": 100.0, "bueiro": 50.0, "iluminacao": 100.0, "onibus": 18.0, "ciclovia": 32.0, "calcada": 58.0, "obstaculo": 51.72, "rampa": 6.9, "rampa_faces": 4.0, "sem_calcada": 42.0, "sem_arvore": 62.0, "muitas_arvores": 10.0, "vao": 96.0, "V05400": 50, "V05421": 29, "V05406": 50, "V05412": 50, "V05422": 21, "V05424": 15, "V05427": 2, "V05409": 25, "V05415": 9, "V05418": 16, "V05430": 31, "V05433": 5, "criancas_0a4": 31, "em_favela": false }, "geometry": { "type": "Polygon", "coordinates": [ [ [ -46.745244, -23.518578 ], [ -46.745905, -23.51907 ], [ -46.74646, -23.519608 ], [ -46.747045, -23.520377 ], [ -46.749226, -23.520543 ], [ -46.749203, -23.520341 ], [ -46.749336, -23.518995 ], [ -46.749414, -23.518895 ], [ -46.750086, -23.518739 ], [ -46.750882, -23.518397 ], [ -46.750753, -23.518076 ], [ -46.750214, -23.5175 ], [ -46.749551, -23.518108 ], [ -46.749407, -23.518128 ], [ -46.749291, -23.518298 ], [ -46.749153, -23.518233 ], [ -46.748963, -23.518082 ], [ -46.748733, -23.517611 ], [ -46.748513, -23.517404 ], [ -46.748435, -23.517271 ], [ -46.748458, -23.517085 ], [ -46.748051, -23.516845 ], [ -46.748029, -23.516736 ], [ -46.747493, -23.516477 ], [ -46.74592, -23.51787 ], [ -46.745244, -23.518578 ] ] ] } },
{ "type": "Feature", "properties": { "CD_SETOR": "355030840000052", "faces": 17, "pavimentada": 100.0, "bueiro": 52.94, "iluminacao": 100.0, "onibus": 29.41, "ciclovia": 52.94, "calcada": 76.47, "obstaculo": 53.85, "rampa": 15.38, "rampa_faces": 11.76, "sem_calcada": 23.53, "sem_arvore": 35.29, "muitas_arvores": 23.53, "vao": 88.24, "V05400": 17, "V05421": 13, "V05406": 17, "V05412": 17, "V05422": 4, "V05424": 7, "V05427": 2, "V05409": 9, "V05415": 5, "V05418": 9, "V05430": 6, "V05433": 4, "criancas_0a4": 13, "em_favela": false }, "geometry": { "type": "Polygon", "coordinates": [ [ [ -46.748029, -23.516736 ], [ -46.748051, -23.516845 ], [ -46.748458, -23.517085 ], [ -46.748435, -23.517271 ], [ -46.748605, -23.517513 ], [ -46.748733, -23.517611 ], [ -46.748963, -23.518082 ], [ -46.749291, -23.518298 ], [ -46.749407, -23.518128 ], [ -46.749551, -23.518108 ], [ -46.750468, -23.517242 ], [ -46.74992, -23.516739 ], [ -46.749705, -23.516579 ], [ -46.749535, -23.516515 ], [ -46.748514, -23.516377 ], [ -46.748298, -23.516479 ], [ -46.748099, -23.516714 ], [ -46.748029, -23.516736 ] ] ] } },
{ "type": "Feature", "properties": { "CD_SETOR": "355030840000053", "faces": 8, "pavimentada": 100.0, "bueiro": 75.0, "iluminacao": 100.0, "onibus": 12.5, "ciclovia": 0.0, "calcada": 100.0, "obstaculo": 100.0, "rampa": 0.0, "rampa_faces": 0.0, "sem_calcada": 0.0, "sem_arvore": 37.5, "muitas_arvores": 50.0, "vao": 100.0, "V05400": 8, "V05421": 8, "V05406": 8, "V05412": 8, "V05422": 0, "V05424": 8, "V05427": 0, "V05409": 6, "V05415": 1, "V05418": 0, "V05430": 3, "V05433": 4, "criancas_0a4": 17, "em_favela": false }, "geometry": { "type": "Polygon", "coordinates": [ [ [ -46.752471, -23.516257 ], [ -46.75354, -23.516389 ], [ -46.753934, -23.514147 ], [ -46.753349, -23.514064 ], [ -46.75344, -23.513528 ], [ -46.752955, -23.513451 ], [ -46.752471, -23.516257 ] ] ] } },
{ "type": "Feature", "properties": { "CD_SETOR": "355030840000054", "faces": 6, "pavimentada": 100.0, "bueiro": 50.0, "iluminacao": 100.0, "onibus": 0.0, "ciclovia": 0.0, "calcada": 83.33, "obstaculo": 100.0, "rampa": 0.0, "rampa_faces": 0.0, "sem_calcada": 16.67, "sem_arvore": 50.0, "muitas_arvores": 33.33, "vao": 100.0, "V05400": 6, "V05421": 5, "V05406": 6, "V05412": 6, "V05422": 1, "V05424": 5, "V05427": 0, "V05409": 3, "V05415": 0, "V05418": 0, "V05430": 3, "V05433": 2, "criancas_0a4": 23, "em_favela": false }, "geometry": { "type": "Polygon", "coordinates": [ [ [ -46.751965, -23.513318 ], [ -46.75165, -23.515379 ], [ -46.751859, -23.515491 ], [ -46.752094, -23.515538 ], [ -46.751969, -23.516104 ], [ -46.751988, -23.516191 ], [ -46.752471, -23.516257 ], [ -46.752955, -23.513451 ], [ -46.751965, -23.513318 ] ] ] } },
{ "type": "Feature", "properties": { "CD_SETOR": "355030840000055", "faces": 12, "pavimentada": 100.0, "bueiro": 16.67, "iluminacao": 100.0, "onibus": 16.67, "ciclovia": 0.0, "calcada": 100.0, "obstaculo": 91.67, "rampa": 0.0, "rampa_faces": 0.0, "sem_calcada": 0.0, "sem_arvore": 50.0, "muitas_arvores": 8.33, "vao": 100.0, "V05400": 12, "V05421": 12, "V05406": 12, "V05412": 12, "V05422": 0, "V05424": 11, "V05427": 0, "V05409": 2, "V05415": 2, "V05418": 0, "V05430": 6, "V05433": 1, "criancas_0a4": 5, "em_favela": false }, "geometry": { "type": "Polygon", "coordinates": [ [ [ -46.752678, -23.51091 ], [ -46.752871, -23.510535 ], [ -46.753039, -23.510387 ], [ -46.75316, -23.510343 ], [ -46.753313, -23.51117 ], [ -46.753532, -23.511167 ], [ -46.753894, -23.51108 ], [ -46.753457, -23.508518 ], [ -46.752062, -23.508287 ], [ -46.752357, -23.510598 ], [ -46.752464, -23.510783 ], [ -46.752678, -23.51091 ] ] ] } },
{ "type": "Feature", "properties": { "CD_SETOR": "355030840000056", "faces": 27, "pavimentada": 100.0, "bueiro": 25.93, "iluminacao": 96.3, "onibus": 22.22, "ciclovia": 0.0, "calcada": 88.89, "obstaculo": 83.33, "rampa": 4.17, "rampa_faces": 3.7, "sem_calcada": 11.11, "sem_arvore": 22.22, "muitas_arvores": 33.33, "vao": 96.3, "V05400": 27, "V05421": 24, "V05406": 27, "V05412": 26, "V05422": 3, "V05424": 20, "V05427": 1, "V05409": 7, "V05415": 6, "V05418": 0, "V05430": 6, "V05433": 9, "criancas_0a4": 20, "em_favela": false }, "geometry": { "type": "Polygon", "coordinates": [ [ [ -46.753616, -23.509545 ], [ -46.754037, -23.51179 ], [ -46.75512, -23.51161 ], [ -46.755766, -23.511852 ], [ -46.757386, -23.512131 ], [ -46.757358, -23.512027 ], [ -46.756585, -23.511305 ], [ -46.757398, -23.511338 ], [ -46.757316, -23.511261 ], [ -46.756687, -23.510859 ], [ -46.755121, -23.510387 ], [ -46.755011, -23.510292 ], [ -46.75498, -23.510182 ], [ -46.754552, -23.509921 ], [ -46.753616, -23.509545 ] ] ] } },
{ "type": "Feature", "properties": { "CD_SETOR": "355030840000057", "faces": 15, "pavimentada": 100.0, "bueiro": 20.0, "iluminacao": 100.0, "onibus": 13.33, "ciclovia": 0.0, "calcada": 100.0, "obstaculo": 100.0, "rampa": 66.67, "rampa_faces": 66.67, "sem_calcada": 0.0, "sem_arvore": 33.33, "muitas_arvores": 20.0, "vao": 33.33, "V05400": 15, "V05421": 15, "V05406": 15, "V05412": 15, "V05422": 0, "V05424": 15, "V05427": 10, "V05409": 3, "V05415": 2, "V05418": 0, "V05430": 5, "V05433": 3, "criancas_0a4": 12, "em_favela": false }, "geometry": { "type": "Polygon", "coordinates": [ [ [ -46.7561, -23.506326 ], [ -46.757511, -23.506708 ], [ -46.758242, -23.506652 ], [ -46.759784, -23.507203 ], [ -46.760278, -23.507125 ], [ -46.760037, -23.506848 ], [ -46.75961, -23.506062 ], [ -46.759365, -23.505855 ], [ -46.759095, -23.505786 ], [ -46.758232, -23.505742 ], [ -46.756879, -23.505829 ], [ -46.756684, -23.505867 ], [ -46.756313, -23.506067 ], [ -46.7561, -23.506326 ] ] ] } },
{ "type": "Feature", "properties": { "CD_SETOR": "355030840000058", "faces": 22, "pavimentada": 100.0, "bueiro": 18.18, "iluminacao": 100.0, "onibus": 22.73, "ciclovia": 0.0, "calcada": 72.73, "obstaculo": 100.0, "rampa": 31.25, "rampa_faces": 22.73, "sem_calcada": 27.27, "sem_arvore": 9.09, "muitas_arvores": 90.91, "vao": 77.27, "V05400": 22, "V05421": 16, "V05406": 22, "V05412": 22, "V05422": 6, "V05424": 16, "V05427": 5, "V05409": 4, "V05415": 5, "V05418": 0, "V05430": 2, "V05433": 20, "criancas_0a4": 12, "em_favela": false }, "geometry": { "type": "Polygon", "coordinates": [ [ [ -46.7555, -23.507404 ], [ -46.756376, -23.507933 ], [ -46.756454, -23.508168 ], [ -46.75631, -23.508498 ], [ -46.756854, -23.508734 ], [ -46.757042, -23.508336 ], [ -46.757077, -23.508079 ], [ -46.756925, -23.507474 ], [ -46.757939, -23.508041 ], [ -46.758211, -23.507426 ], [ -46.758337, -23.507342 ], [ -46.758865, -23.507327 ], [ -46.759784, -23.507203 ], [ -46.758242, -23.506652 ], [ -46.757511, -23.506708 ], [ -46.7561, -23.506326 ], [ -46.755794, -23.506798 ], [ -46.7555, -23.507404 ] ] ] } },
{ "type": "Feature", "properties": { "CD_SETOR": "355030840000059", "faces": 3, "pavimentada": 100.0, "bueiro": 33.33, "iluminacao": 100.0, "onibus": 33.33, "ciclovia": 0.0, "calcada": 100.0, "obstaculo": 33.33, "rampa": 33.33, "rampa_faces": 33.33, "sem_calcada": 0.0, "sem_arvore": 33.33, "muitas_arvores": 33.33, "vao": 66.67, "V05400": 3, "V05421": 3, "V05406": 3, "V05412": 3, "V05422": 0, "V05424": 1, "V05427": 1, "V05409": 1, "V05415": 1, "V05418": 0, "V05430": 1, "V05433": 1, "criancas_0a4": 32, "em_favela": false }, "geometry": { "type": "Polygon", "coordinates": [ [ [ -46.751433, -23.520695 ], [ -46.751771, -23.520589 ], [ -46.752078, -23.519512 ], [ -46.751872, -23.519393 ], [ -46.751433, -23.520695 ] ] ] } },
{ "type": "Feature", "properties": { "CD_SETOR": "355030840000060", "faces": 2, "pavimentada": 100.0, "bueiro": 50.0, "iluminacao": 100.0, "onibus": 50.0, "ciclovia": 0.0, "calcada": 100.0, "obstaculo": 0.0, "rampa": 50.0, "rampa_faces": 50.0, "sem_calcada": 0.0, "sem_arvore": 50.0, "muitas_arvores": 0.0, "vao": 50.0, "V05400": 2, "V05421": 2, "V05406": 2, "V05412": 2, "V05422": 0, "V05424": 0, "V05427": 1, "V05409": 1, "V05415": 1, "V05418": 0, "V05430": 1, "V05433": 0, "criancas_0a4": 39, "em_favela": false }, "geometry": { "type": "Polygon", "coordinates": [ [ [ -46.751067, -23.520754 ], [ -46.751433, -23.520695 ], [ -46.751872, -23.519393 ], [ -46.751819, -23.519361 ], [ -46.751373, -23.519664 ], [ -46.751346, -23.519796 ], [ -46.751234, -23.51976 ], [ -46.751044, -23.52028 ], [ -46.751067, -23.520754 ] ] ] } },
{ "type": "Feature", "properties": { "CD_SETOR": "355030840000061", "faces": 16, "pavimentada": 100.0, "bueiro": 75.0, "iluminacao": 100.0, "onibus": 12.5, "ciclovia": 18.75, "calcada": 87.5, "obstaculo": 57.14, "rampa": 35.71, "rampa_faces": 31.25, "sem_calcada": 12.5, "sem_arvore": 81.25, "muitas_arvores": 12.5, "vao": 68.75, "V05400": 16, "V05421": 14, "V05406": 16, "V05412": 16, "V05422": 2, "V05424": 8, "V05427": 5, "V05409": 12, "V05415": 2, "V05418": 3, "V05430": 13, "V05433": 2, "criancas_0a4": 24, "em_favela": false }, "geometry": { "type": "Polygon", "coordinates": [ [ [ -46.75127, -23.518247 ], [ -46.750086, -23.518739 ], [ -46.749414, -23.518895 ], [ -46.749336, -23.518995 ], [ -46.749203, -23.520341 ], [ -46.749226, -23.520543 ], [ -46.750015, -23.520733 ], [ -46.751067, -23.520754 ], [ -46.751044, -23.52028 ], [ -46.751234, -23.51976 ], [ -46.751346, -23.519796 ], [ -46.751373, -23.519664 ], [ -46.751819, -23.519361 ], [ -46.752078, -23.519512 ], [ -46.751771, -23.520589 ], [ -46.752236, -23.520324 ], [ -46.753161, -23.519641 ], [ -46.75308, -23.518581 ], [ -46.752349, -23.518642 ], [ -46.75217, -23.519206 ], [ -46.751753, -23.518878 ], [ -46.75127, -23.518247 ] ] ] } },
{ "type": "Feature", "properties": { "CD_SETOR": "355030840000062", "faces": 11, "pavimentada": 100.0, "bueiro": 54.55, "iluminacao": 100.0, "onibus": 36.36, "ciclovia": 0.0, "calcada": 100.0, "obstaculo": 90.91, "rampa": 0.0, "rampa_faces": 0.0, "sem_calcada": 0.0, "sem_arvore": 36.36, "muitas_arvores": 18.18, "vao": 100.0, "V05400": 11, "V05421": 11, "V05406": 11, "V05412": 11, "V05422": 0, "V05424": 10, "V05427": 0, "V05409": 6, "V05415": 4, "V05418": 0, "V05430": 4, "V05433": 2, "criancas_0a4": 12, "em_favela": false }, "geometry": { "type": "Polygon", "coordinates": [ [ [ -46.754702, -23.514368 ], [ -46.755465, -23.514052 ], [ -46.755608, -23.513935 ], [ -46.755968, -23.513582 ], [ -46.756299, -23.512971 ], [ -46.757383, -23.512228 ], [ -46.757386, -23.512131 ], [ -46.755766, -23.511852 ], [ -46.755289, -23.511661 ], [ -46.754953, -23.512888 ], [ -46.754702, -23.514368 ] ] ] } },
{ "type": "Feature", "properties": { "CD_SETOR": "355030840000063", "faces": 11, "pavimentada": 100.0, "bueiro": 27.27, "iluminacao": 100.0, "onibus": 18.18, "ciclovia": 0.0, "calcada": 72.73, "obstaculo": 100.0, "rampa": 0.0, "rampa_faces": 0.0, "sem_calcada": 27.27, "sem_arvore": 36.36, "muitas_arvores": 18.18, "vao": 100.0, "V05400": 11, "V05421": 8, "V05406": 11, "V05412": 11, "V05422": 3, "V05424": 8, "V05427": 0, "V05409": 3, "V05415": 2, "V05418": 0, "V05430": 4, "V05433": 2, "criancas_0a4": 21, "em_favela": false }, "geometry": { "type": "Polygon", "coordinates": [ [ [ -46.754702, -23.514368 ], [ -46.754547, -23.515141 ], [ -46.754915, -23.515174 ], [ -46.755447, -23.515144 ], [ -46.755554, -23.514722 ], [ -46.755777, -23.514308 ], [ -46.756043, -23.513988 ], [ -46.756234, -23.51391 ], [ -46.75655, -23.514223 ], [ -46.756919, -23.514048 ], [ -46.756653, -23.513843 ], [ -46.756566, -23.513522 ], [ -46.756662, -23.513315 ], [ -46.756753, -23.513248 ], [ -46.757387, -23.513312 ], [ -46.757549, -23.513268 ], [ -46.757611, -23.512944 ], [ -46.757383, -23.512228 ], [ -46.756299, -23.512971 ], [ -46.755968, -23.513582 ], [ -46.755465, -23.514052 ], [ -46.754702, -23.514368 ] ] ] } },
{ "type": "Feature", "properties": { "CD_SETOR": "355030840000064", "faces": 19, "pavimentada": 78.95, "bueiro": 31.58, "iluminacao": 78.95, "onibus": 5.26, "ciclovia": 0.0, "calcada": 78.95, "obstaculo": 100.0, "rampa": 0.0, "rampa_faces": 0.0, "sem_calcada": 0.0, "sem_arvore": 26.32, "muitas_arvores": 36.84, "vao": 78.95, "V05400": 19, "V05421": 15, "V05406": 15, "V05412": 15, "V05422": 0, "V05424": 15, "V05427": 0, "V05409": 6, "V05415": 1, "V05418": 0, "V05430": 5, "V05433": 7, "criancas_0a4": 17, "em_favela": false }, "geometry": { "type": "Polygon", "coordinates": [ [ [ -46.759365, -23.505855 ], [ -46.75961, -23.506062 ], [ -46.75998, -23.506756 ], [ -46.760242, -23.507102 ], [ -46.761359, -23.507775 ], [ -46.761738, -23.507234 ], [ -46.760631, -23.50657 ], [ -46.760479, -23.506377 ], [ -46.760358, -23.506107 ], [ -46.760817, -23.505909 ], [ -46.761862, -23.505632 ], [ -46.761208, -23.504444 ], [ -46.760405, -23.504988 ], [ -46.759365, -23.505855 ] ] ] } },
{ "type": "Feature", "properties": { "CD_SETOR": "355030840000065", "faces": 9, "pavimentada": 100.0, "bueiro": 77.78, "iluminacao": 100.0, "onibus": 0.0, "ciclovia": 0.0, "calcada": 100.0, "obstaculo": 100.0, "rampa": 11.11, "rampa_faces": 11.11, "sem_calcada": 0.0, "sem_arvore": 11.11, "muitas_arvores": 22.22, "vao": 88.89, "V05400": 9, "V05421": 9, "V05406": 9, "V05412": 9, "V05422": 0, "V05424": 9, "V05427": 1, "V05409": 7, "V05415": 0, "V05418": 0, "V05430": 1, "V05433": 2, "criancas_0a4": 16, "em_favela": false }, "geometry": { "type": "Polygon", "coordinates": [ [ [ -46.763194, -23.505236 ], [ -46.760817, -23.505909 ], [ -46.760358, -23.506107 ], [ -46.760479, -23.506377 ], [ -46.760631, -23.50657 ], [ -46.761738, -23.507234 ], [ -46.762062, -23.506779 ], [ -46.761401, -23.506365 ], [ -46.762812, -23.505951 ], [ -46.763057, -23.505924 ], [ -46.763797, -23.505562 ], [ -46.763441, -23.505093 ], [ -46.763194, -23.505236 ] ] ] } },
{ "type": "Feature", "properties": { "CD_SETOR": "355030840000066", "faces": 18, "pavimentada": 100.0, "bueiro": 100.0, "iluminacao": 100.0, "onibus": 16.67, "ciclovia": 0.0, "calcada": 94.44, "obstaculo": 94.12, "rampa": 5.88, "rampa_faces": 5.56, "sem_calcada": 5.56, "sem_arvore": 11.11, "muitas_arvores": 38.89, "vao": 94.44, "V05400": 18, "V05421": 17, "V05406": 18, "V05412": 18, "V05422": 1, "V05424": 16, "V05427": 1, "V05409": 18, "V05415": 3, "V05418": 0, "V05430": 2, "V05433": 7, "criancas_0a4": 39, "em_favela": false }, "geometry": { "type": "Polygon", "coordinates": [ [ [ -46.756396, -23.494556 ], [ -46.755853, -23.494911 ], [ -46.755287, -23.495483 ], [ -46.754905, -23.496143 ], [ -46.754713, -23.496823 ], [ -46.754563, -23.500955 ], [ -46.754795, -23.500925 ], [ -46.754919, -23.501088 ], [ -46.755127, -23.501157 ], [ -46.75529, -23.501291 ], [ -46.75575, -23.500939 ], [ -46.756648, -23.501338 ], [ -46.756936, -23.500774 ], [ -46.757553, -23.501031 ], [ -46.757997, -23.50014 ], [ -46.758637, -23.500408 ], [ -46.759095, -23.499763 ], [ -46.758156, -23.499911 ], [ -46.75793, -23.499897 ], [ -46.757452, -23.499759 ], [ -46.757293, -23.499575 ], [ -46.757255, -23.499441 ], [ -46.757406, -23.499021 ], [ -46.757421, -23.498238 ], [ -46.757227, -23.497748 ], [ -46.757123, -23.497589 ], [ -46.756775, -23.497225 ], [ -46.756558, -23.497065 ], [ -46.756236, -23.49668 ], [ -46.756128, -23.49662 ], [ -46.755671, -23.496584 ], [ -46.755525, -23.496498 ], [ -46.755481, -23.496375 ], [ -46.755484, -23.496189 ], [ -46.755852, -23.495299 ], [ -46.756033, -23.494993 ], [ -46.756331, -23.494811 ], [ -46.757278, -23.494468 ], [ -46.757593, -23.494409 ], [ -46.7578, -23.494487 ], [ -46.758462, -23.494413 ], [ -46.758597, -23.494349 ], [ -46.758695, -23.494156 ], [ -46.757925, -23.494122 ], [ -46.757302, -23.494195 ], [ -46.756909, -23.49431 ], [ -46.756396, -23.494556 ] ] ] } },
{ "type": "Feature", "properties": { "CD_SETOR": "355030840000067", "faces": 18, "pavimentada": 100.0, "bueiro": 72.22, "iluminacao": 100.0, "onibus": 0.0, "ciclovia": 0.0, "calcada": 94.44, "obstaculo": 100.0, "rampa": 11.76, "rampa_faces": 11.11, "sem_calcada": 5.56, "sem_arvore": 22.22, "muitas_arvores": 27.78, "vao": 88.89, "V05400": 18, "V05421": 17, "V05406": 18, "V05412": 18, "V05422": 1, "V05424": 17, "V05427": 2, "V05409": 13, "V05415": 0, "V05418": 0, "V05430": 4, "V05433": 5, "criancas_0a4": 25, "em_favela": false }, "geometry": { "type": "Polygon", "coordinates": [ [ [ -46.75529, -23.501291 ], [ -46.755537, -23.501581 ], [ -46.755801, -23.501767 ], [ -46.756802, -23.50225 ], [ -46.757483, -23.503278 ], [ -46.757664, -23.503114 ], [ -46.757982, -23.502541 ], [ -46.758036, -23.502196 ], [ -46.757944, -23.501858 ], [ -46.757996, -23.501645 ], [ -46.758192, -23.501193 ], [ -46.758434, -23.500827 ], [ -46.758637, -23.500408 ], [ -46.757997, -23.50014 ], [ -46.757553, -23.501031 ], [ -46.756936, -23.500774 ], [ -46.756648, -23.501338 ], [ -46.75575, -23.500939 ], [ -46.75529, -23.501291 ] ] ] } },
{ "type": "Feature", "properties": { "CD_SETOR": "355030840000068", "faces": 15, "pavimentada": 100.0, "bueiro": 0.0, "iluminacao": 100.0, "onibus": 33.33, "ciclovia": 0.0, "calcada": 100.0, "obstaculo": 73.33, "rampa": 0.0, "rampa_faces": 0.0, "sem_calcada": 0.0, "sem_arvore": 20.0, "muitas_arvores": 53.33, "vao": 100.0, "V05400": 15, "V05421": 15, "V05406": 15, "V05412": 15, "V05422": 0, "V05424": 11, "V05427": 0, "V05409": 0, "V05415": 5, "V05418": 0, "V05430": 3, "V05433": 8, "criancas_0a4": 14, "em_favela": false }, "geometry": { "type": "Polygon", "coordinates": [ [ [ -46.756545, -23.510812 ], [ -46.756687, -23.510859 ], [ -46.757398, -23.511338 ], [ -46.756585, -23.511305 ], [ -46.757358, -23.512027 ], [ -46.757386, -23.512131 ], [ -46.758857, -23.512366 ], [ -46.759702, -23.512431 ], [ -46.75976, -23.512324 ], [ -46.759807, -23.511818 ], [ -46.760141, -23.511231 ], [ -46.759929, -23.511213 ], [ -46.759105, -23.51142 ], [ -46.758991, -23.511343 ], [ -46.758769, -23.510944 ], [ -46.75868, -23.510872 ], [ -46.758524, -23.510884 ], [ -46.758041, -23.511185 ], [ -46.757525, -23.510821 ], [ -46.756545, -23.510812 ] ] ] } },
{ "type": "Feature", "properties": { "CD_SETOR": "355030840000069", "faces": 15, "pavimentada": 100.0, "bueiro": 40.0, "iluminacao": 100.0, "onibus": 0.0, "ciclovia": 0.0, "calcada": 93.33, "obstaculo": 100.0, "rampa": 0.0, "rampa_faces": 0.0, "sem_calcada": 6.67, "sem_arvore": 13.33, "muitas_arvores": 40.0, "vao": 100.0, "V05400": 15, "V05421": 14, "V05406": 15, "V05412": 15, "V05422": 1, "V05424": 14, "V05427": 0, "V05409": 6, "V05415": 0, "V05418": 0, "V05430": 2, "V05433": 6, "criancas_0a4": 22, "em_favela": false }, "geometry": { "type": "Polygon", "coordinates": [ [ [ -46.757105, -23.510486 ], [ -46.758041, -23.511185 ], [ -46.758524, -23.510884 ], [ -46.75868, -23.510872 ], [ -46.758769, -23.510944 ], [ -46.758991, -23.511343 ], [ -46.759198, -23.511427 ], [ -46.759929, -23.511213 ], [ -46.760141, -23.511231 ], [ -46.760285, -23.510921 ], [ -46.761091, -23.510445 ], [ -46.760655, -23.510227 ], [ -46.760371, -23.509893 ], [ -46.760354, -23.509596 ], [ -46.760227, -23.509647 ], [ -46.759766, -23.51003 ], [ -46.75962, -23.510066 ], [ -46.759578, -23.510521 ], [ -46.759348, -23.510914 ], [ -46.759056, -23.510356 ], [ -46.758874, -23.510221 ], [ -46.758647, -23.51017 ], [ -46.758432, -23.509527 ], [ -46.757105, -23.510486 ] ] ] } },
{ "type": "Feature", "properties": { "CD_SETOR": "355030840000070", "faces": 12, "pavimentada": 100.0, "bueiro": 75.0, "iluminacao": 100.0, "onibus": 41.67, "ciclovia": 0.0, "calcada": 83.33, "obstaculo": 100.0, "rampa": 10.0, "rampa_faces": 8.33, "sem_calcada": 16.67, "sem_arvore": 33.33, "muitas_arvores": 58.33, "vao": 91.67, "V05400": 12, "V05421": 10, "V05406": 12, "V05412": 12, "V05422": 2, "V05424": 10, "V05427": 1, "V05409": 9, "V05415": 5, "V05418": 0, "V05430": 4, "V05433": 7, "criancas_0a4": 19, "em_favela": false }, "geometry": { "type": "Polygon", "coordinates": [ [ [ -46.75962, -23.510066 ], [ -46.759766, -23.51003 ], [ -46.760227, -23.509647 ], [ -46.760354, -23.509596 ], [ -46.760371, -23.509893 ], [ -46.760655, -23.510227 ], [ -46.760771, -23.510302 ], [ -46.761076, -23.510405 ], [ -46.761091, -23.510445 ], [ -46.761817, -23.510351 ], [ -46.762057, -23.510099 ], [ -46.762082, -23.509899 ], [ -46.762023, -23.509773 ], [ -46.76186, -23.509664 ], [ -46.76116, -23.509656 ], [ -46.761096, -23.509612 ], [ -46.761083, -23.509518 ], [ -46.761125, -23.509449 ], [ -46.761826, -23.509087 ], [ -46.76221, -23.50874 ], [ -46.762123, -23.508472 ], [ -46.761752, -23.508102 ], [ -46.761666, -23.50807 ], [ -46.759825, -23.508135 ], [ -46.759633, -23.508685 ], [ -46.75962, -23.510066 ] ] ] } },
{ "type": "Feature", "properties": { "CD_SETOR": "355030840000071", "faces": 19, "pavimentada": 100.0, "bueiro": 84.21, "iluminacao": 100.0, "onibus": 31.58, "ciclovia": 0.0, "calcada": 100.0, "obstaculo": 89.47, "rampa": 15.79, "rampa_faces": 15.79, "sem_calcada": 0.0, "sem_arvore": 5.26, "muitas_arvores": 63.16, "vao": 84.21, "V05400": 19, "V05421": 19, "V05406": 19, "V05412": 19, "V05422": 0, "V05424": 17, "V05427": 3, "V05409": 16, "V05415": 6, "V05418": 0, "V05430": 1, "V05433": 12, "criancas_0a4": 12, "em_favela": false }, "geometry": { "type": "Polygon", "coordinates": [ [ [ -46.760278, -23.507125 ], [ -46.758865, -23.507327 ], [ -46.758337, -23.507342 ], [ -46.758211, -23.507426 ], [ -46.757939, -23.508041 ], [ -46.758087, -23.508177 ], [ -46.758903, -23.508161 ], [ -46.758954, -23.509283 ], [ -46.758432, -23.509527 ], [ -46.758647, -23.51017 ], [ -46.758874, -23.510221 ], [ -46.759056, -23.510356 ], [ -46.759348, -23.510914 ], [ -46.759462, -23.510763 ], [ -46.7596, -23.510431 ], [ -46.759633, -23.508685 ], [ -46.759825, -23.508135 ], [ -46.761666, -23.50807 ], [ -46.761383, -23.50779 ], [ -46.760278, -23.507125 ] ] ] } },
{ "type": "Feature", "properties": { "CD_SETOR": "355030840000072", "faces": 1, "pavimentada": 100.0, "bueiro": 100.0, "iluminacao": 100.0, "onibus": 0.0, "ciclovia": 0.0, "calcada": 100.0, "obstaculo": 0.0, "rampa": 0.0, "rampa_faces": 0.0, "sem_calcada": 0.0, "sem_arvore": 0.0, "muitas_arvores": 100.0, "vao": 100.0, "V05400": 1, "V05421": 1, "V05406": 1, "V05412": 1, "V05422": 0, "V05424": 0, "V05427": 0, "V05409": 1, "V05415": 0, "V05418": 0, "V05430": 0, "V05433": 1, "criancas_0a4": 27, "em_favela": false }, "geometry": { "type": "Polygon", "coordinates": [ [ [ -46.750325, -23.515724 ], [ -46.750763, -23.516232 ], [ -46.750931, -23.51632 ], [ -46.750979, -23.51585 ], [ -46.751074, -23.515665 ], [ -46.75126, -23.515482 ], [ -46.751221, -23.515368 ], [ -46.750919, -23.514983 ], [ -46.750601, -23.515207 ], [ -46.750619, -23.515491 ], [ -46.750325, -23.515724 ] ] ] } },
{ "type": "Feature", "properties": { "CD_SETOR": "355030840000073", "faces": 1, "pavimentada": 100.0, "bueiro": 100.0, "iluminacao": 100.0, "onibus": 0.0, "ciclovia": 0.0, "calcada": 100.0, "obstaculo": 0.0, "rampa": 0.0, "rampa_faces": 0.0, "sem_calcada": 0.0, "sem_arvore": 0.0, "muitas_arvores": 100.0, "vao": 100.0, "V05400": 1, "V05421": 1, "V05406": 1, "V05412": 1, "V05422": 0, "V05424": 0, "V05427": 0, "V05409": 1, "V05415": 0, "V05418": 0, "V05430": 0, "V05433": 1, "criancas_0a4": 24, "em_favela": false }, "geometry": { "type": "Polygon", "coordinates": [ [ [ -46.750931, -23.51632 ], [ -46.750763, -23.516232 ], [ -46.750325, -23.515724 ], [ -46.749987, -23.516352 ], [ -46.75068, -23.51703 ], [ -46.750848, -23.516846 ], [ -46.750919, -23.516688 ], [ -46.750931, -23.51632 ] ] ] } },
{ "type": "Feature", "properties": { "CD_SETOR": "355030840000074", "faces": 16, "pavimentada": 100.0, "bueiro": 43.75, "iluminacao": 100.0, "onibus": 18.75, "ciclovia": 25.0, "calcada": 81.25, "obstaculo": 53.85, "rampa": 30.77, "rampa_faces": 25.0, "sem_calcada": 18.75, "sem_arvore": 50.0, "muitas_arvores": 18.75, "vao": 75.0, "V05400": 16, "V05421": 13, "V05406": 16, "V05412": 16, "V05422": 3, "V05424": 7, "V05427": 4, "V05409": 7, "V05415": 3, "V05418": 4, "V05430": 8, "V05433": 3, "criancas_0a4": 22, "em_favela": false }, "geometry": { "type": "Polygon", "coordinates": [ [ [ -46.747417, -23.515721 ], [ -46.747493, -23.516477 ], [ -46.747934, -23.51672 ], [ -46.748099, -23.516714 ], [ -46.748298, -23.516479 ], [ -46.748514, -23.516377 ], [ -46.749379, -23.516483 ], [ -46.749705, -23.516579 ], [ -46.750468, -23.517242 ], [ -46.750214, -23.5175 ], [ -46.750753, -23.518076 ], [ -46.750882, -23.518397 ], [ -46.75127, -23.518247 ], [ -46.751753, -23.518878 ], [ -46.75217, -23.519206 ], [ -46.752349, -23.518642 ], [ -46.75308, -23.518581 ], [ -46.752955, -23.517506 ], [ -46.752967, -23.517249 ], [ -46.753105, -23.517086 ], [ -46.753417, -23.516978 ], [ -46.75354, -23.516389 ], [ -46.751988, -23.516191 ], [ -46.751969, -23.516104 ], [ -46.752094, -23.515538 ], [ -46.751859, -23.515491 ], [ -46.75165, -23.515379 ], [ -46.751403, -23.515412 ], [ -46.751155, -23.515561 ], [ -46.750941, -23.515977 ], [ -46.750919, -23.516688 ], [ -46.750848, -23.516846 ], [ -46.75068, -23.51703 ], [ -46.749987, -23.516352 ], [ -46.750325, -23.515724 ], [ -46.750619, -23.515491 ], [ -46.750601, -23.515207 ], [ -46.750919, -23.514983 ], [ -46.74899, -23.514704 ], [ -46.748857, -23.515009 ], [ -46.748476, -23.5154 ], [ -46.748053, -23.515611 ], [ -46.747417, -23.515721 ] ] ] } },
{ "type": "Feature", "properties": { "CD_SETOR": "355030840000075", "faces": 37, "pavimentada": 0.0, "bueiro": 0.0, "iluminacao": 0.0, "onibus": 0.0, "ciclovia": 0.0, "calcada": 0.0, "obstaculo": null, "rampa": null, "rampa_faces": 0.0, "sem_calcada": 0.0, "sem_arvore": 0.0, "muitas_arvores": 0.0, "vao": 0.0, "V05400": 37, "V05421": 0, "V05406": 0, "V05412": 0, "V05422": 0, "V05424": 0, "V05427": 0, "V05409": 0, "V05415": 0, "V05418": 0, "V05430": 0, "V05433": 0, "criancas_0a4": 17, "em_favela": false }, "geometry": { "type": "Polygon", "coordinates": [ [ [ -46.754563, -23.500955 ], [ -46.754522, -23.501364 ], [ -46.754346, -23.502109 ], [ -46.754085, -23.502754 ], [ -46.753842, -23.503187 ], [ -46.753618, -23.503525 ], [ -46.751999, -23.505548 ], [ -46.75131, -23.506276 ], [ -46.750734, -23.506683 ], [ -46.750015, -23.507031 ], [ -46.749369, -23.507225 ], [ -46.748881, -23.507317 ], [ -46.746711, -23.507499 ], [ -46.746816, -23.507765 ], [ -46.747645, -23.507861 ], [ -46.749409, -23.50792 ], [ -46.749982, -23.507982 ], [ -46.753374, -23.508515 ], [ -46.754537, -23.508505 ], [ -46.754918, -23.508371 ], [ -46.755143, -23.508149 ], [ -46.755846, -23.506712 ], [ -46.756164, -23.506211 ], [ -46.756487, -23.505961 ], [ -46.756684, -23.505867 ], [ -46.757108, -23.505805 ], [ -46.758232, -23.505742 ], [ -46.75908, -23.505785 ], [ -46.756802, -23.50225 ], [ -46.755801, -23.501767 ], [ -46.755537, -23.501581 ], [ -46.75522, -23.501225 ], [ -46.754919, -23.501088 ], [ -46.754795, -23.500925 ], [ -46.754563, -23.500955 ] ], [ [ -46.752204, -23.507297 ], [ -46.751659, -23.506693 ], [ -46.752155, -23.506158 ], [ -46.752522, -23.506151 ], [ -46.752659, -23.507392 ], [ -46.752204, -23.507297 ] ] ] } },
{ "type": "Feature", "properties": { "CD_SETOR": "355030840000076", "faces": 10, "pavimentada": 90.0, "bueiro": 0.0, "iluminacao": 80.0, "onibus": 0.0, "ciclovia": 0.0, "calcada": 0.0, "obstaculo": null, "rampa": null, "rampa_faces": 0.0, "sem_calcada": 100.0, "sem_arvore": 100.0, "muitas_arvores": 0.0, "vao": 90.0, "V05400": 10, "V05421": 0, "V05406": 9, "V05412": 8, "V05422": 10, "V05424": 0, "V05427": 0, "V05409": 0, "V05415": 0, "V05418": 0, "V05430": 10, "V05433": 0, "criancas_0a4": 66, "em_favela": true }, "geometry": { "type": "Polygon", "coordinates": [ [ [ -46.735387, -23.516059 ], [ -46.736085, -23.516227 ], [ -46.735993, -23.514738 ], [ -46.736069, -23.514107 ], [ -46.736071, -23.513608 ], [ -46.736001, -23.513687 ], [ -46.735749, -23.513771 ], [ -46.735387, -23.516059 ] ] ] } },
{ "type": "Feature", "properties": { "CD_SETOR": "355030840000078", "faces": 100, "pavimentada": 100.0, "bueiro": 51.0, "iluminacao": 99.0, "onibus": 26.0, "ciclovia": 0.0, "calcada": 59.0, "obstaculo": 38.98, "rampa": 27.12, "rampa_faces": 16.0, "sem_calcada": 41.0, "sem_arvore": 44.0, "muitas_arvores": 29.0, "vao": 84.0, "V05400": 100, "V05421": 59, "V05406": 100, "V05412": 99, "V05422": 41, "V05424": 23, "V05427": 16, "V05409": 51, "V05415": 26, "V05418": 0, "V05430": 44, "V05433": 29, "criancas_0a4": 17, "em_favela": false }, "geometry": { "type": "Polygon", "coordinates": [ [ [ -46.726851, -23.5132 ], [ -46.726409, -23.514688 ], [ -46.730656, -23.517056 ], [ -46.73141, -23.517409 ], [ -46.732702, -23.51775 ], [ -46.733569, -23.517829 ], [ -46.739969, -23.517595 ], [ -46.739983, -23.516731 ], [ -46.73933, -23.516587 ], [ -46.738823, -23.516302 ], [ -46.7386, -23.516104 ], [ -46.738321, -23.515713 ], [ -46.738175, -23.515288 ], [ -46.738113, -23.514938 ], [ -46.73811, -23.509739 ], [ -46.738271, -23.509265 ], [ -46.738565, -23.508894 ], [ -46.738948, -23.508624 ], [ -46.739407, -23.508481 ], [ -46.739447, -23.508219 ], [ -46.739415, -23.508096 ], [ -46.733121, -23.50862 ], [ -46.731654, -23.508912 ], [ -46.730484, -23.509319 ], [ -46.729246, -23.509971 ], [ -46.728572, -23.510469 ], [ -46.728034, -23.510967 ], [ -46.727712, -23.511347 ], [ -46.727324, -23.511953 ], [ -46.726851, -23.5132 ] ], [ [ -46.735387, -23.516059 ], [ -46.735749, -23.513771 ], [ -46.736001, -23.513687 ], [ -46.736071, -23.513608 ], [ -46.736069, -23.514107 ], [ -46.735993, -23.514738 ], [ -46.736085, -23.516227 ], [ -46.735387, -23.516059 ] ] ] } }
]
}
