{
"type": "FeatureCollection",
"name": "marsilac",
"crs": { "type": "name", "properties": { "name": "urn:ogc:def:crs:OGC:1.3:CRS84" } },
"xy_coordinate_resolution": 1e-06,
"features": [
{ "type": "Feature", "properties": { "CD_SETOR": "355030852000003", "faces": 20, "pavimentada": 70.0, "bueiro": 30.0, "iluminacao": 100.0, "onibus": 0.0, "ciclovia": 0.0, "calcada": 35.0, "obstaculo": 100.0, "rampa": 0.0, "rampa_faces": 0.0, "sem_calcada": 65.0, "sem_arvore": 15.0, "muitas_arvores": 25.0, "vao": 70.0, "V05400": 20, "V05421": 7, "V05406": 14, "V05412": 20, "V05422": 13, "V05424": 7, "V05427": 0, "V05409": 6, "V05415": 0, "V05418": 0, "V05430": 3, "V05433": 5, "criancas_0a4": 23, "em_favela": false }, "geometry": { "type": "Polygon", "coordinates": [ [ [ -46.76829, -23.86821 ], [ -46.768105, -23.868525 ], [ -46.768425, -23.869637 ], [ -46.76844, -23.869893 ], [ -46.768377, -23.870236 ], [ -46.768478, -23.870368 ], [ -46.768767, -23.870565 ], [ -46.769221, -23.870736 ], [ -46.768981, -23.871183 ], [ -46.769607, -23.871338 ], [ -46.769905, -23.870683 ], [ -46.770071, -23.869739 ], [ -46.77021, -23.869773 ], [ -46.770322, -23.869912 ], [ -46.77055, -23.871378 ], [ -46.770948, -23.871333 ], [ -46.770867, -23.870262 ], [ -46.770809, -23.869796 ], [ -46.770753, -23.869775 ], [ -46.770588, -23.868035 ], [ -46.769976, -23.868272 ], [ -46.769236, -23.868409 ], [ -46.76829, -23.86821 ] ] ] } },
{ "type": "Feature", "properties": { "CD_SETOR": "355030852000008", "faces": 26, "pavimentada": 0.0, "bueiro": 0.0, "iluminacao": 57.69, "onibus": 0.0, "ciclovia": 0.0, "calcada": 0.0, "obstaculo": null, "rampa": null, "rampa_faces": 0.0, "sem_calcada": 100.0, "sem_arvore": 23.08, "muitas_arvores": 34.62, "vao": 0.0, "V05400": 26, "V05421": 0, "V05406": 0, "V05412": 15, "V05422": 26, "V05424": 0, "V05427": 0, "V05409": 0, "V05415": 0, "V05418": 0, "V05430": 6, "V05433": 9, "criancas_0a4": 57, "em_favela": true }, "geometry": { "type": "Polygon", "coordinates": [ [ [ -46.75114, -23.873898 ], [ -46.751673, -23.873998 ], [ -46.751457, -23.873352 ], [ -46.751363, -23.873321 ], [ -46.751346, -23.873026 ], [ -46.751431, -23.872771 ], [ -46.751732, -23.872428 ], [ -46.751785, -23.872134 ], [ -46.751681, -23.871695 ], [ -46.751425, -23.871619 ], [ -46.751321, -23.871501 ], [ -46.751309, -23.871131 ], [ -46.751372, -23.870791 ], [ -46.747504, -23.871905 ], [ -46.747599, -23.872291 ], [ -46.747576, -23.872376 ], [ -46.747785, -23.872783 ], [ -46.747729, -23.87292 ], [ -46.747467, -23.873127 ], [ -46.747444, -23.873337 ], [ -46.747891, -23.873383 ], [ -46.747813, -23.873603 ], [ -46.748924, -23.873845 ], [ -46.749898, -23.873998 ], [ -46.75017, -23.873984 ], [ -46.750591, -23.873725 ], [ -46.75114, -23.873898 ] ] ] } },
{ "type": "Feature", "properties": { "CD_SETOR": "355030852000009", "faces": 42, "pavimentada": 0.0, "bueiro": 0.0, "iluminacao": 28.57, "onibus": 0.0, "ciclovia": 0.0, "calcada": 0.0, "obstaculo": null, "rampa": null, "rampa_faces": 0.0, "sem_calcada": 100.0, "sem_arvore": 0.0, "muitas_arvores": 92.86, "vao": 0.0, "V05400": 42, "V05421": 0, "V05406": 0, "V05412": 12, "V05422": 42, "V05424": 0, "V05427": 0, "V05409": 0, "V05415": 0, "V05418": 0, "V05430": 0, "V05433": 39, "criancas_0a4": 15, "em_favela": false }, "geometry": { "type": "Polygon", "coordinates": [ [ [ -46.769534, -23.912898 ], [ -46.769489, -23.912467 ], [ -46.76902, -23.911716 ], [ -46.768825, -23.91149 ], [ -46.768181, -23.911154 ], [ -46.767884, -23.911077 ], [ -46.767194, -23.91112 ], [ -46.766358, -23.910764 ], [ -46.765909, -23.910662 ], [ -46.764113, -23.910502 ], [ -46.763541, -23.91052 ], [ -46.763135, -23.910472 ], [ -46.763094, -23.910688 ], [ -46.763487, -23.912528 ], [ -46.763444, -23.912622 ], [ -46.762974, -23.912948 ], [ -46.762841, -23.913197 ], [ -46.76259, -23.91424 ], [ -46.762582, -23.914721 ], [ -46.762366, -23.915273 ], [ -46.762274, -23.915789 ], [ -46.76233, -23.916168 ], [ -46.762608, -23.916347 ], [ -46.762748, -23.916506 ], [ -46.763009, -23.917095 ], [ -46.763023, -23.917281 ], [ -46.76286, -23.918146 ], [ -46.763255, -23.918945 ], [ -46.763569, -23.918675 ], [ -46.764186, -23.917314 ], [ -46.765112, -23.916307 ], [ -46.765806, -23.915796 ], [ -46.76661, -23.914899 ], [ -46.767129, -23.914527 ], [ -46.767181, -23.914445 ], [ -46.767179, -23.914252 ], [ -46.767345, -23.913632 ], [ -46.767483, -23.912839 ], [ -46.767726, -23.912481 ], [ -46.767823, -23.912411 ], [ -46.767952, -23.912422 ], [ -46.768649, -23.912783 ], [ -46.769104, -23.91284 ], [ -46.769443, -23.912827 ], [ -46.769534, -23.912898 ] ] ] } },
{ "type": "Feature", "properties": { "CD_SETOR": "355030852000056", "faces": 1, "pavimentada": 0.0, "bueiro": 0.0, "iluminacao": 100.0, "onibus": 0.0, "ciclovia": 0.0, "calcada": 0.0, "obstaculo": null, "rampa": null, "rampa_faces": 0.0, "sem_calcada": 100.0, "sem_arvore": 0.0, "muitas_arvores": 100.0, "vao": 0.0, "V05400": 1, "V05421": 0, "V05406": 0, "V05412": 1, "V05422": 1, "V05424": 0, "V05427": 0, "V05409": 0, "V05415": 0, "V05418": 0, "V05430": 0, "V05433": 1, "criancas_0a4": 13, "em_favela": false }, "geometry": { "type": "Polygon", "coordinates": [ [ [ -46.743826, -23.885836 ], [ -46.743079, -23.886546 ], [ -46.742132, -23.885349 ], [ -46.74147, -23.885672 ], [ -46.741023, -23.884972 ], [ -46.7408, -23.884401 ], [ -46.740456, -23.883089 ], [ -46.740059, -23.883184 ], [ -46.739929, -23.88244 ], [ -46.739385, -23.882562 ], [ -46.738129, -23.882633 ], [ -46.73699, -23.883023 ], [ -46.735725, -23.883353 ], [ -46.735161, -23.883555 ], [ -46.734732, -23.883786 ], [ -46.734307, -23.884202 ], [ -46.73219, -23.885508 ], [ -46.732031, -23.885724 ], [ -46.731458, -23.88722 ], [ -46.73112, -23.88871 ], [ -46.731967, -23.88915 ], [ -46.732011, -23.889505 ], [ -46.732127, -23.889798 ], [ -46.732427, -23.889946 ], [ -46.732551, -23.88973 ], [ -46.733322, -23.888981 ], [ -46.733974, -23.888502 ], [ -46.73431, -23.888027 ], [ -46.734451, -23.887666 ], [ -46.734691, -23.887372 ], [ -46.734859, -23.887256 ], [ -46.735323, -23.887534 ], [ -46.736388, -23.887801 ], [ -46.736433, -23.887627 ], [ -46.73658, -23.887652 ], [ -46.737386, -23.887919 ], [ -46.737506, -23.888066 ], [ -46.737503, -23.88884 ], [ -46.737551, -23.889169 ], [ -46.737697, -23.889433 ], [ -46.737912, -23.88955 ], [ -46.738644, -23.889723 ], [ -46.739384, -23.890045 ], [ -46.739507, -23.890351 ], [ -46.739401, -23.890755 ], [ -46.739457, -23.89112 ], [ -46.739756, -23.891554 ], [ -46.739808, -23.89189 ], [ -46.740455, -23.891414 ], [ -46.741304, -23.891045 ], [ -46.742124, -23.891114 ], [ -46.742264, -23.891268 ], [ -46.743173, -23.891519 ], [ -46.743535, -23.891346 ], [ -46.743566, -23.89124 ], [ -46.743472, -23.890788 ], [ -46.744229, -23.889767 ], [ -46.7443, -23.889708 ], [ -46.745231, -23.889457 ], [ -46.745368, -23.889355 ], [ -46.745951, -23.888526 ], [ -46.745944, -23.888258 ], [ -46.745563, -23.887505 ], [ -46.745556, -23.887222 ], [ -46.745247, -23.887025 ], [ -46.743826, -23.885836 ] ] ] } },
{ "type": "Feature", "properties": { "CD_SETOR": "355030852000079", "faces": 16, "pavimentada": 18.75, "bueiro": 0.0, "iluminacao": 37.5, "onibus": 0.0, "ciclovia": 0.0, "calcada": 0.0, "obstaculo": null, "rampa": null, "rampa_faces": 0.0, "sem_calcada": 100.0, "sem_arvore": 50.0, "muitas_arvores": 18.75, "vao": 18.75, "V05400": 16, "V05421": 0, "V05406": 3, "V05412": 6, "V05422": 16, "V05424": 0, "V05427": 0, "V05409": 0, "V05415": 0, "V05418": 0, "V05430": 8, "V05433": 3, "criancas_0a4": 28, "em_favela": false }, "geometry": { "type": "Polygon", "coordinates": [ [ [ -46.710112, -23.912209 ], [ -46.710702, -23.912738 ], [ -46.71099, -23.912517 ], [ -46.71035, -23.91176 ], [ -46.710967, -23.911567 ], [ -46.711319, -23.911886 ], [ -46.712443, -23.91238 ], [ -46.71253, -23.912211 ], [ -46.711077, -23.911383 ], [ -46.710754, -23.910854 ], [ -46.710464, -23.91093 ], [ -46.710251, -23.9107 ], [ -46.709433, -23.909542 ], [ -46.709393, -23.909213 ], [ -46.709241, -23.908761 ], [ -46.709256, -23.908419 ], [ -46.709149, -23.908494 ], [ -46.708969, -23.908857 ], [ -46.70822, -23.908495 ], [ -46.708151, -23.908207 ], [ -46.707595, -23.907937 ], [ -46.70747, -23.908679 ], [ -46.707041, -23.908575 ], [ -46.70702, -23.908719 ], [ -46.705813, -23.908462 ], [ -46.705841, -23.908251 ], [ -46.705644, -23.908257 ], [ -46.705262, -23.908289 ], [ -46.70521, -23.908512 ], [ -46.704871, -23.908808 ], [ -46.704816, -23.908998 ], [ -46.704963, -23.910183 ], [ -46.705351, -23.910529 ], [ -46.7059, -23.910225 ], [ -46.705942, -23.91022 ], [ -46.706245, -23.910515 ], [ -46.706421, -23.910585 ], [ -46.706774, -23.910505 ], [ -46.707373, -23.910468 ], [ -46.708036, -23.910162 ], [ -46.708102, -23.910311 ], [ -46.708748, -23.910062 ], [ -46.708857, -23.910198 ], [ -46.708776, -23.910243 ], [ -46.708872, -23.91041 ], [ -46.709605, -23.911218 ], [ -46.709844, -23.911824 ], [ -46.710112, -23.912209 ] ] ] } },
{ "type": "Feature", "properties": { "CD_SETOR": "355030852000080", "faces": 9, "pavimentada": 77.78, "bueiro": 0.0, "iluminacao": 77.78, "onibus": 0.0, "ciclovia": 0.0, "calcada": 55.56, "obstaculo": 100.0, "rampa": 20.0, "rampa_faces": 11.11, "sem_calcada": 44.44, "sem_arvore": 66.67, "muitas_arvores": 11.11, "vao": 66.67, "V05400": 9, "V05421": 5, "V05406": 7, "V05412": 7, "V05422": 4, "V05424": 5, "V05427": 1, "V05409": 0, "V05415": 0, "V05418": 0, "V05430": 6, "V05433": 1, "criancas_0a4": 5, "em_favela": false }, "geometry": { "type": "Polygon", "coordinates": [ [ [ -46.705966, -23.907704 ], [ -46.705813, -23.908462 ], [ -46.70702, -23.908719 ], [ -46.707041, -23.908575 ], [ -46.70747, -23.908679 ], [ -46.70761, -23.90781 ], [ -46.707224, -23.907789 ], [ -46.707165, -23.908154 ], [ -46.707103, -23.908149 ], [ -46.706194, -23.907975 ], [ -46.706107, -23.907878 ], [ -46.706155, -23.907604 ], [ -46.706064, -23.907617 ], [ -46.705966, -23.907704 ] ] ] } },
{ "type": "Feature", "properties": { "CD_SETOR": "355030852000081", "faces": 9, "pavimentada": 11.11, "bueiro": 22.22, "iluminacao": 88.89, "onibus": 0.0, "ciclovia": 0.0, "calcada": 22.22, "obstaculo": 100.0, "rampa": 0.0, "rampa_faces": 0.0, "sem_calcada": 77.78, "sem_arvore": 44.44, "muitas_arvores": 11.11, "vao": 11.11, "V05400": 9, "V05421": 2, "V05406": 1, "V05412": 8, "V05422": 7, "V05424": 2, "V05427": 0, "V05409": 2, "V05415": 0, "V05418": 0, "V05430": 4, "V05433": 1, "criancas_0a4": 16, "em_favela": false }, "geometry": { "type": "Polygon", "coordinates": [ [ [ -46.704001, -23.907478 ], [ -46.703888, -23.907002 ], [ -46.703924, -23.90672 ], [ -46.704012, -23.906522 ], [ -46.704216, -23.906452 ], [ -46.704167, -23.906258 ], [ -46.702713, -23.906228 ], [ -46.702273, -23.906168 ], [ -46.701827, -23.906036 ], [ -46.701335, -23.905794 ], [ -46.700492, -23.905501 ], [ -46.700226, -23.905238 ], [ -46.700241, -23.90547 ], [ -46.700184, -23.905556 ], [ -46.699843, -23.905625 ], [ -46.6994, -23.905811 ], [ -46.699315, -23.90589 ], [ -46.698851, -23.906758 ], [ -46.698843, -23.906958 ], [ -46.698946, -23.907101 ], [ -46.698098, -23.907543 ], [ -46.698336, -23.907863 ], [ -46.699048, -23.90749 ], [ -46.699243, -23.908075 ], [ -46.699472, -23.908345 ], [ -46.70011, -23.908783 ], [ -46.700812, -23.907549 ], [ -46.700971, -23.907383 ], [ -46.701269, -23.907736 ], [ -46.701411, -23.907642 ], [ -46.701611, -23.906943 ], [ -46.70205, -23.907013 ], [ -46.703804, -23.907516 ], [ -46.704001, -23.907478 ] ] ] } },
{ "type": "Feature", "properties": { "CD_SETOR": "355030852000084", "faces": 3, "pavimentada": 33.33, "bueiro": 0.0, "iluminacao": 100.0, "onibus": 33.33, "ciclovia": 0.0, "calcada": 33.33, "obstaculo": 100.0, "rampa": 0.0, "rampa_faces": 0.0, "sem_calcada": 66.67, "sem_arvore": 33.33, "muitas_arvores": 0.0, "vao": 33.33, "V05400": 3, "V05421": 1, "V05406": 1, "V05412": 3, "V05422": 2, "V05424": 1, "V05427": 0, "V05409": 0, "V05415": 1, "V05418": 0, "V05430": 1, "V05433": 0, "criancas_0a4": 15, "em_favela": false }, "geometry": { "type": "Polygon", "coordinates": [ [ [ -46.730876, -23.890618 ], [ -46.730644, -23.891113 ], [ -46.730566, -23.891379 ], [ -46.730633, -23.891416 ], [ -46.73332, -23.891107 ], [ -46.733569, -23.891251 ], [ -46.734373, -23.891237 ], [ -46.734417, -23.891015 ], [ -46.734543, -23.890861 ], [ -46.733902, -23.890656 ], [ -46.732427, -23.889946 ], [ -46.732258, -23.890598 ], [ -46.73226, -23.890749 ], [ -46.731645, -23.890725 ], [ -46.730876, -23.890618 ] ] ] } },
{ "type": "Feature", "properties": { "CD_SETOR": "355030852000091", "faces": 2, "pavimentada": 50.0, "bueiro": 0.0, "iluminacao": 100.0, "onibus": 50.0, "ciclovia": 0.0, "calcada": 0.0, "obstaculo": null, "rampa": null, "rampa_faces": 0.0, "sem_calcada": 100.0, "sem_arvore": 0.0, "muitas_arvores": 50.0, "vao": 50.0, "V05400": 2, "V05421": 0, "V05406": 1, "V05412": 2, "V05422": 2, "V05424": 0, "V05427": 0, "V05409": 0, "V05415": 1, "V05418": 0, "V05430": 0, "V05433": 1, "criancas_0a4": 14, "em_favela": false }, "geometry": { "type": "Polygon", "coordinates": [ [ [ -46.730876, -23.890618 ], [ -46.731645, -23.890725 ], [ -46.73226, -23.890749 ], [ -46.732258, -23.890598 ], [ -46.732427, -23.889946 ], [ -46.732127, -23.889798 ], [ -46.732011, -23.889505 ], [ -46.731967, -23.88915 ], [ -46.73112, -23.88871 ], [ -46.731011, -23.889338 ], [ -46.730981, -23.890136 ], [ -46.730876, -23.890618 ] ] ] } },
{ "type": "Feature", "properties": { "CD_SETOR": "355030852000102", "faces": 4, "pavimentada": 0.0, "bueiro": 0.0, "iluminacao": 50.0, "onibus": 0.0, "ciclovia": 0.0, "calcada": 0.0, "obstaculo": null, "rampa": null, "rampa_faces": 0.0, "sem_calcada": 100.0, "sem_arvore": 0.0, "muitas_arvores": 75.0, "vao": 0.0, "V05400": 4, "V05421": 0, "V05406": 0, "V05412": 2, "V05422": 4, "V05424": 0, "V05427": 0, "V05409": 0, "V05415": 0, "V05418": 0, "V05430": 0, "V05433": 3, "criancas_0a4": 7, "em_favela": true }, "geometry": { "type": "Polygon", "coordinates": [ [ [ -46.747287, -23.871971 ], [ -46.746964, -23.872747 ], [ -46.746772, -23.873378 ], [ -46.746976, -23.87355 ], [ -46.747813, -23.873603 ], [ -46.747891, -23.873383 ], [ -46.747444, -23.873337 ], [ -46.747467, -23.873127 ], [ -46.747729, -23.87292 ], [ -46.747778, -23.872719 ], [ -46.747576, -23.872376 ], [ -46.747599, -23.872291 ], [ -46.747504, -23.871905 ], [ -46.747287, -23.871971 ] ] ] } },
{ "type": "Feature", "properties": { "CD_SETOR": "355030852000116", "faces": 9, "pavimentada": 77.78, "bueiro": 55.56, "iluminacao": 77.78, "onibus": 33.33, "ciclovia": 0.0, "calcada": 44.44, "obstaculo": 50.0, "rampa": 0.0, "rampa_faces": 0.0, "sem_calcada": 55.56, "sem_arvore": 33.33, "muitas_arvores": 66.67, "vao": 77.78, "V05400": 9, "V05421": 4, "V05406": 7, "V05412": 7, "V05422": 5, "V05424": 2, "V05427": 0, "V05409": 5, "V05415": 3, "V05418": 0, "V05430": 3, "V05433": 6, "criancas_0a4": 21, "em_favela": false }, "geometry": { "type": "Polygon", "coordinates": [ [ [ -46.766853, -23.86705 ], [ -46.767201, -23.867878 ], [ -46.767235, -23.868109 ], [ -46.767183, -23.868749 ], [ -46.767337, -23.869548 ], [ -46.767452, -23.869822 ], [ -46.767656, -23.870133 ], [ -46.767665, -23.870831 ], [ -46.767841, -23.871101 ], [ -46.768144, -23.87136 ], [ -46.768457, -23.870968 ], [ -46.768285, -23.870851 ], [ -46.76821, -23.870741 ], [ -46.76815, -23.870434 ], [ -46.768179, -23.870152 ], [ -46.768388, -23.870157 ], [ -46.76844, -23.869893 ], [ -46.768384, -23.869411 ], [ -46.768105, -23.868525 ], [ -46.76829, -23.86821 ], [ -46.76794, -23.86775 ], [ -46.767536, -23.86747 ], [ -46.767282, -23.867065 ], [ -46.767135, -23.867028 ], [ -46.766853, -23.86705 ] ] ] } },
{ "type": "Feature", "properties": { "CD_SETOR": "355030852000137", "faces": 25, "pavimentada": 36.0, "bueiro": 4.0, "iluminacao": 68.0, "onibus": 4.0, "ciclovia": 0.0, "calcada": 0.0, "obstaculo": null, "rampa": null, "rampa_faces": 0.0, "sem_calcada": 100.0, "sem_arvore": 16.0, "muitas_arvores": 60.0, "vao": 36.0, "V05400": 25, "V05421": 0, "V05406": 9, "V05412": 17, "V05422": 25, "V05424": 0, "V05427": 0, "V05409": 1, "V05415": 1, "V05418": 0, "V05430": 4, "V05433": 15, "criancas_0a4": 40, "em_favela": false }, "geometry": { "type": "Polygon", "coordinates": [ [ [ -46.772924, -23.874678 ], [ -46.770938, -23.874565 ], [ -46.770922, -23.874663 ], [ -46.771276, -23.877404 ], [ -46.771302, -23.879697 ], [ -46.771463, -23.879483 ], [ -46.771717, -23.879304 ], [ -46.771863, -23.879094 ], [ -46.772283, -23.879024 ], [ -46.772891, -23.879093 ], [ -46.773043, -23.878821 ], [ -46.77351, -23.879007 ], [ -46.773921, -23.878962 ], [ -46.774168, -23.879261 ], [ -46.774397, -23.879407 ], [ -46.77464, -23.879438 ], [ -46.775278, -23.879637 ], [ -46.775275, -23.879794 ], [ -46.775142, -23.880218 ], [ -46.775137, -23.88048 ], [ -46.775182, -23.880633 ], [ -46.775409, -23.881072 ], [ -46.775823, -23.881501 ], [ -46.775828, -23.881592 ], [ -46.775933, -23.881642 ], [ -46.776416, -23.882319 ], [ -46.776304, -23.874286 ], [ -46.775681, -23.874245 ], [ -46.774787, -23.8743 ], [ -46.772924, -23.874678 ] ] ] } },
{ "type": "Feature", "properties": { "CD_SETOR": "355030852000138", "faces": 28, "pavimentada": 0.0, "bueiro": 0.0, "iluminacao": 78.57, "onibus": 3.57, "ciclovia": 0.0, "calcada": 0.0, "obstaculo": null, "rampa": null, "rampa_faces": 0.0, "sem_calcada": 100.0, "sem_arvore": 14.29, "muitas_arvores": 67.86, "vao": 0.0, "V05400": 28, "V05421": 0, "V05406": 0, "V05412": 22, "V05422": 28, "V05424": 0, "V05427": 0, "V05409": 0, "V05415": 1, "V05418": 0, "V05430": 4, "V05433": 19, "criancas_0a4": 18, "em_favela": false }, "geometry": { "type": "Polygon", "coordinates": [ [ [ -46.770956, -23.883777 ], [ -46.77122, -23.882571 ], [ -46.771322, -23.881136 ], [ -46.771239, -23.880965 ], [ -46.771037, -23.880849 ], [ -46.771223, -23.880402 ], [ -46.77127, -23.880154 ], [ -46.771308, -23.87811 ], [ -46.771214, -23.876745 ], [ -46.770923, -23.874749 ], [ -46.770938, -23.874565 ], [ -46.769821, -23.874369 ], [ -46.769385, -23.874208 ], [ -46.769208, -23.87502 ], [ -46.769427, -23.87511 ], [ -46.769107, -23.876988 ], [ -46.766962, -23.87668 ], [ -46.765974, -23.876665 ], [ -46.765949, -23.877 ], [ -46.764321, -23.877434 ], [ -46.763653, -23.877704 ], [ -46.763308, -23.877651 ], [ -46.763048, -23.877296 ], [ -46.762974, -23.87697 ], [ -46.762786, -23.876712 ], [ -46.76203, -23.876347 ], [ -46.761724, -23.876265 ], [ -46.761261, -23.876508 ], [ -46.761485, -23.876748 ], [ -46.761735, -23.877676 ], [ -46.762006, -23.878054 ], [ -46.762675, -23.878558 ], [ -46.76297, -23.878658 ], [ -46.763405, -23.878723 ], [ -46.763761, -23.87889 ], [ -46.763973, -23.879055 ], [ -46.764472, -23.879884 ], [ -46.765541, -23.881038 ], [ -46.766021, -23.881635 ], [ -46.766223, -23.882576 ], [ -46.76603, -23.883185 ], [ -46.766502, -23.88314 ], [ -46.767488, -23.883431 ], [ -46.767719, -23.883403 ], [ -46.767751, -23.883469 ], [ -46.768139, -23.883408 ], [ -46.768514, -23.88372 ], [ -46.768802, -23.883761 ], [ -46.768979, -23.883856 ], [ -46.769181, -23.884182 ], [ -46.769568, -23.884496 ], [ -46.769709, -23.884524 ], [ -46.76981, -23.884519 ], [ -46.77013, -23.884334 ], [ -46.770956, -23.883777 ] ] ] } },
{ "type": "Feature", "properties": { "CD_SETOR": "355030852000143", "faces": 5, "pavimentada": 0.0, "bueiro": 0.0, "iluminacao": 100.0, "onibus": 0.0, "ciclovia": 0.0, "calcada": 0.0, "obstaculo": null, "rampa": null, "rampa_faces": 0.0, "sem_calcada": 100.0, "sem_arvore": 0.0, "muitas_arvores": 80.0, "vao": 0.0, "V05400": 5, "V05421": 0, "V05406": 0, "V05412": 5, "V05422": 5, "V05424": 0, "V05427": 0, "V05409": 0, "V05415": 0, "V05418": 0, "V05430": 0, "V05433": 4, "criancas_0a4": 8, "em_favela": false }, "geometry": { "type": "Polygon", "coordinates": [ [ [ -46.726283, -23.881065 ], [ -46.72653, -23.882015 ], [ -46.726263, -23.882333 ], [ -46.727265, -23.883927 ], [ -46.727804, -23.883687 ], [ -46.72849, -23.883736 ], [ -46.729562, -23.883689 ], [ -46.730077, -23.88324 ], [ -46.730438, -23.883004 ], [ -46.729777, -23.883025 ], [ -46.729646, -23.882961 ], [ -46.729535, -23.882803 ], [ -46.728713, -23.882313 ], [ -46.728632, -23.882203 ], [ -46.72852, -23.881807 ], [ -46.728487, -23.881628 ], [ -46.728523, -23.881415 ], [ -46.729263, -23.880387 ], [ -46.729467, -23.878892 ], [ -46.729357, -23.878888 ], [ -46.727654, -23.879931 ], [ -46.726809, -23.881452 ], [ -46.726677, -23.880914 ], [ -46.726283, -23.881065 ] ] ] } },
{ "type": "Feature", "properties": { "CD_SETOR": "355030852000149", "faces": 4, "pavimentada": 0.0, "bueiro": 0.0, "iluminacao": 25.0, "onibus": 25.0, "ciclovia": 0.0, "calcada": 0.0, "obstaculo": null, "rampa": null, "rampa_faces": 0.0, "sem_calcada": 50.0, "sem_arvore": 0.0, "muitas_arvores": 25.0, "vao": 0.0, "V05400": 4, "V05421": 0, "V05406": 0, "V05412": 1, "V05422": 2, "V05424": 0, "V05427": 0, "V05409": 0, "V05415": 1, "V05418": 0, "V05430": 0, "V05433": 1, "criancas_0a4": 6, "em_favela": false }, "geometry": { "type": "Polygon", "coordinates": [ [ [ -46.75688, -23.878418 ], [ -46.756135, -23.877048 ], [ -46.754886, -23.878002 ], [ -46.75322, -23.874474 ], [ -46.752062, -23.874901 ], [ -46.753766, -23.878742 ], [ -46.753569, -23.878895 ], [ -46.753538, -23.878975 ], [ -46.753525, -23.879531 ], [ -46.753891, -23.879368 ], [ -46.754295, -23.879283 ], [ -46.755765, -23.878629 ], [ -46.756613, -23.878434 ], [ -46.75688, -23.878418 ] ] ] } },
{ "type": "Feature", "properties": { "CD_SETOR": "355030852000168", "faces": 8, "pavimentada": 0.0, "bueiro": 0.0, "iluminacao": 0.0, "onibus": 0.0, "ciclovia": 0.0, "calcada": 0.0, "obstaculo": null, "rampa": null, "rampa_faces": 0.0, "sem_calcada": 25.0, "sem_arvore": 0.0, "muitas_arvores": 0.0, "vao": 0.0, "V05400": 8, "V05421": 0, "V05406": 0, "V05412": 0, "V05422": 2, "V05424": 0, "V05427": 0, "V05409": 0, "V05415": 0, "V05418": 0, "V05430": 0, "V05433": 0, "criancas_0a4": 7, "em_favela": false }, "geometry": { "type": "Polygon", "coordinates": [ [ [ -46.757257, -23.873677 ], [ -46.758169, -23.87517 ], [ -46.761751, -23.87279 ], [ -46.760716, -23.871675 ], [ -46.759954, -23.872167 ], [ -46.757257, -23.873677 ] ] ] } },
{ "type": "Feature", "properties": { "CD_SETOR": "355030852000169", "faces": 14, "pavimentada": 14.29, "bueiro": 14.29, "iluminacao": 42.86, "onibus": 28.57, "ciclovia": 7.14, "calcada": 14.29, "obstaculo": 100.0, "rampa": 0.0, "rampa_faces": 0.0, "sem_calcada": 42.86, "sem_arvore": 14.29, "muitas_arvores": 7.14, "vao": 14.29, "V05400": 14, "V05421": 2, "V05406": 2, "V05412": 6, "V05422": 6, "V05424": 2, "V05427": 0, "V05409": 2, "V05415": 4, "V05418": 1, "V05430": 2, "V05433": 1, "criancas_0a4": 10, "em_favela": false }, "geometry": { "type": "Polygon", "coordinates": [ [ [ -46.739898, -23.877761 ], [ -46.740196, -23.87823 ], [ -46.740783, -23.879356 ], [ -46.741528, -23.880542 ], [ -46.741855, -23.880398 ], [ -46.742442, -23.880573 ], [ -46.742693, -23.880573 ], [ -46.743138, -23.88041 ], [ -46.746394, -23.879644 ], [ -46.747228, -23.87969 ], [ -46.749026, -23.879933 ], [ -46.751628, -23.880157 ], [ -46.753136, -23.879744 ], [ -46.753525, -23.879531 ], [ -46.753538, -23.878975 ], [ -46.753569, -23.878895 ], [ -46.753766, -23.878742 ], [ -46.752062, -23.874901 ], [ -46.75322, -23.874474 ], [ -46.754886, -23.878002 ], [ -46.756135, -23.877048 ], [ -46.75688, -23.878418 ], [ -46.757023, -23.878433 ], [ -46.757271, -23.878408 ], [ -46.757524, -23.87826 ], [ -46.757826, -23.8777 ], [ -46.757933, -23.877633 ], [ -46.759031, -23.87738 ], [ -46.760146, -23.877049 ], [ -46.760898, -23.876709 ], [ -46.761873, -23.876187 ], [ -46.76195, -23.876108 ], [ -46.7621, -23.875628 ], [ -46.762392, -23.875045 ], [ -46.762153, -23.874703 ], [ -46.761581, -23.874376 ], [ -46.761375, -23.874038 ], [ -46.761183, -23.87359 ], [ -46.760974, -23.873313 ], [ -46.758169, -23.87517 ], [ -46.757257, -23.873677 ], [ -46.759954, -23.872167 ], [ -46.758729, -23.871552 ], [ -46.757051, -23.870156 ], [ -46.756414, -23.870093 ], [ -46.756037, -23.869972 ], [ -46.755771, -23.869954 ], [ -46.755664, -23.869973 ], [ -46.755307, -23.870192 ], [ -46.75505, -23.87046 ], [ -46.754895, -23.87075 ], [ -46.754915, -23.871379 ], [ -46.754824, -23.871547 ], [ -46.75464, -23.871701 ], [ -46.753781, -23.871878 ], [ -46.752808, -23.871876 ], [ -46.752215, -23.871963 ], [ -46.752429, -23.872416 ], [ -46.752513, -23.872736 ], [ -46.752127, -23.872909 ], [ -46.751555, -23.873336 ], [ -46.751457, -23.873352 ], [ -46.751673, -23.873998 ], [ -46.75114, -23.873898 ], [ -46.750591, -23.873725 ], [ -46.75017, -23.873984 ], [ -46.749898, -23.873998 ], [ -46.748924, -23.873845 ], [ -46.747826, -23.873604 ], [ -46.746976, -23.87355 ], [ -46.746772, -23.873378 ], [ -46.746789, -23.873269 ], [ -46.747262, -23.871978 ], [ -46.738358, -23.874622 ], [ -46.738682, -23.876153 ], [ -46.739898, -23.877761 ] ] ] } },
{ "type": "Feature", "properties": { "CD_SETOR": "355030852000170", "faces": 29, "pavimentada": 68.97, "bueiro": 24.14, "iluminacao": 100.0, "onibus": 20.69, "ciclovia": 0.0, "calcada": 82.76, "obstaculo": 87.5, "rampa": 8.33, "rampa_faces": 6.9, "sem_calcada": 17.24, "sem_arvore": 72.41, "muitas_arvores": 6.9, "vao": 62.07, "V05400": 29, "V05421": 24, "V05406": 20, "V05412": 29, "V05422": 5, "V05424": 21, "V05427": 2, "V05409": 7, "V05415": 6, "V05418": 0, "V05430": 21, "V05433": 2, "criancas_0a4": 31, "em_favela": false }, "geometry": { "type": "Polygon", "coordinates": [ [ [ -46.704034, -23.907705 ], [ -46.704061, -23.908088 ], [ -46.704611, -23.908156 ], [ -46.704773, -23.908236 ], [ -46.705148, -23.908284 ], [ -46.705841, -23.908251 ], [ -46.705966, -23.907704 ], [ -46.70602, -23.907634 ], [ -46.706155, -23.907604 ], [ -46.706107, -23.907878 ], [ -46.706194, -23.907975 ], [ -46.707165, -23.908154 ], [ -46.707274, -23.907538 ], [ -46.707425, -23.907173 ], [ -46.707838, -23.907283 ], [ -46.707899, -23.90721 ], [ -46.708111, -23.907308 ], [ -46.708291, -23.907078 ], [ -46.708869, -23.907496 ], [ -46.70896, -23.907892 ], [ -46.709014, -23.907943 ], [ -46.709763, -23.90731 ], [ -46.709624, -23.90689 ], [ -46.709361, -23.906898 ], [ -46.708629, -23.906759 ], [ -46.708637, -23.906609 ], [ -46.708511, -23.906482 ], [ -46.708529, -23.906424 ], [ -46.708327, -23.90635 ], [ -46.708359, -23.906193 ], [ -46.707957, -23.906246 ], [ -46.704167, -23.906258 ], [ -46.704216, -23.906452 ], [ -46.703977, -23.906559 ], [ -46.703888, -23.907002 ], [ -46.704034, -23.907705 ] ] ] } },
{ "type": "Feature", "properties": { "CD_SETOR": "355030852000171", "faces": 1, "pavimentada": 100.0, "bueiro": 100.0, "iluminacao": 100.0, "onibus": 100.0, "ciclovia": 0.0, "calcada": 100.0, "obstaculo": 0.0, "rampa": 100.0, "rampa_faces": 100.0, "sem_calcada": 0.0, "sem_arvore": 0.0, "muitas_arvores": 0.0, "vao": 0.0, "V05400": 1, "V05421": 1, "V05406": 1, "V05412": 1, "V05422": 0, "V05424": 0, "V05427": 1, "V05409": 1, "V05415": 1, "V05418": 0, "V05430": 0, "V05433": 0, "criancas_0a4": 0, "em_favela": false }, "geometry": { "type": "Polygon", "coordinates": [ [ [ -46.735741, -23.879203 ], [ -46.735795, -23.879284 ], [ -46.736147, -23.87939 ], [ -46.736749, -23.879454 ], [ -46.736867, -23.879403 ], [ -46.737273, -23.879568 ], [ -46.737463, -23.880107 ], [ -46.73663, -23.881716 ], [ -46.736954, -23.881938 ], [ -46.736991, -23.882138 ], [ -46.737365, -23.882895 ], [ -46.738129, -23.882633 ], [ -46.739528, -23.882546 ], [ -46.740547, -23.882264 ], [ -46.740786, -23.882123 ], [ -46.741002, -23.881845 ], [ -46.741513, -23.880972 ], [ -46.741552, -23.880786 ], [ -46.74144, -23.880814 ], [ -46.741361, -23.880662 ], [ -46.741037, -23.880796 ], [ -46.740361, -23.88065 ], [ -46.740341, -23.880265 ], [ -46.738809, -23.879709 ], [ -46.738964, -23.879283 ], [ -46.738696, -23.878631 ], [ -46.738611, -23.878598 ], [ -46.738413, -23.878641 ], [ -46.737032, -23.879047 ], [ -46.737008, -23.879015 ], [ -46.737363, -23.878143 ], [ -46.739035, -23.87762 ], [ -46.738168, -23.87655 ], [ -46.738064, -23.876263 ], [ -46.738574, -23.876113 ], [ -46.738682, -23.876153 ], [ -46.738358, -23.874622 ], [ -46.729632, -23.877188 ], [ -46.729823, -23.877333 ], [ -46.729857, -23.877479 ], [ -46.72983, -23.877763 ], [ -46.729574, -23.878446 ], [ -46.729467, -23.878892 ], [ -46.72989, -23.879007 ], [ -46.729944, -23.879453 ], [ -46.730128, -23.879681 ], [ -46.730769, -23.879829 ], [ -46.73067, -23.879511 ], [ -46.731557, -23.879469 ], [ -46.731766, -23.879679 ], [ -46.73233, -23.879181 ], [ -46.73305, -23.878845 ], [ -46.734691, -23.877842 ], [ -46.734834, -23.87804 ], [ -46.734816, -23.878556 ], [ -46.735383, -23.878901 ], [ -46.735745, -23.879039 ], [ -46.735741, -23.879203 ] ] ] } },
{ "type": "Feature", "properties": { "CD_SETOR": "355030852000173", "faces": 19, "pavimentada": 94.74, "bueiro": 42.11, "iluminacao": 94.74, "onibus": 15.79, "ciclovia": 0.0, "calcada": 57.89, "obstaculo": 72.73, "rampa": 9.09, "rampa_faces": 5.26, "sem_calcada": 42.11, "sem_arvore": 47.37, "muitas_arvores": 10.53, "vao": 89.47, "V05400": 19, "V05421": 11, "V05406": 18, "V05412": 18, "V05422": 8, "V05424": 8, "V05427": 1, "V05409": 8, "V05415": 3, "V05418": 0, "V05430": 9, "V05433": 2, "criancas_0a4": 17, "em_favela": false }, "geometry": { "type": "Polygon", "coordinates": [ [ [ -46.737365, -23.878142 ], [ -46.737008, -23.879015 ], [ -46.737032, -23.879047 ], [ -46.738611, -23.878598 ], [ -46.738696, -23.878631 ], [ -46.738964, -23.879283 ], [ -46.738809, -23.879709 ], [ -46.740341, -23.880265 ], [ -46.740361, -23.88065 ], [ -46.741037, -23.880796 ], [ -46.741361, -23.880662 ], [ -46.74144, -23.880814 ], [ -46.741552, -23.880786 ], [ -46.741545, -23.880573 ], [ -46.740783, -23.879356 ], [ -46.740053, -23.877986 ], [ -46.738682, -23.876153 ], [ -46.738574, -23.876113 ], [ -46.738064, -23.876263 ], [ -46.738168, -23.87655 ], [ -46.739035, -23.87762 ], [ -46.737365, -23.878142 ] ] ] } },
{ "type": "Feature", "properties": { "CD_SETOR": "355030852000174", "faces": 11, "pavimentada": 81.82, "bueiro": 81.82, "iluminacao": 100.0, "onibus": 45.45, "ciclovia": 0.0, "calcada": 81.82, "obstaculo": 55.56, "rampa": 11.11, "rampa_faces": 9.09, "sem_calcada": 18.18, "sem_arvore": 36.36, "muitas_arvores": 27.27, "vao": 72.73, "V05400": 11, "V05421": 9, "V05406": 9, "V05412": 11, "V05422": 2, "V05424": 5, "V05427": 1, "V05409": 9, "V05415": 5, "V05418": 0, "V05430": 4, "V05433": 3, "criancas_0a4": 47, "em_favela": false }, "geometry": { "type": "Polygon", "coordinates": [ [ [ -46.743826, -23.885836 ], [ -46.743423, -23.885423 ], [ -46.742758, -23.884509 ], [ -46.742176, -23.883091 ], [ -46.743115, -23.88276 ], [ -46.742906, -23.882177 ], [ -46.74278, -23.880552 ], [ -46.742442, -23.880573 ], [ -46.741959, -23.880412 ], [ -46.74173, -23.880426 ], [ -46.741528, -23.880542 ], [ -46.741558, -23.88071 ], [ -46.741513, -23.880972 ], [ -46.741002, -23.881845 ], [ -46.740786, -23.882123 ], [ -46.740486, -23.882292 ], [ -46.739929, -23.88244 ], [ -46.740059, -23.883184 ], [ -46.740456, -23.883089 ], [ -46.7408, -23.884401 ], [ -46.741023, -23.884972 ], [ -46.74147, -23.885672 ], [ -46.742132, -23.885349 ], [ -46.743079, -23.886546 ], [ -46.743826, -23.885836 ] ] ] } },
{ "type": "Feature", "properties": { "CD_SETOR": "355030852000175", "faces": 8, "pavimentada": 0.0, "bueiro": 0.0, "iluminacao": 50.0, "onibus": 0.0, "ciclovia": 0.0, "calcada": 0.0, "obstaculo": null, "rampa": null, "rampa_faces": 0.0, "sem_calcada": 100.0, "sem_arvore": 37.5, "muitas_arvores": 62.5, "vao": 0.0, "V05400": 8, "V05421": 0, "V05406": 0, "V05412": 4, "V05422": 8, "V05424": 0, "V05427": 0, "V05409": 0, "V05415": 0, "V05418": 0, "V05430": 3, "V05433": 5, "criancas_0a4": 3, "em_favela": false }, "geometry": { "type": "Polygon", "coordinates": [ [ [ -46.726533, -23.902186 ], [ -46.726285, -23.902876 ], [ -46.726094, -23.903126 ], [ -46.725737, -23.903436 ], [ -46.725829, -23.903889 ], [ -46.725791, -23.90478 ], [ -46.725866, -23.905025 ], [ -46.726668, -23.905003 ], [ -46.726859, -23.905421 ], [ -46.727007, -23.905979 ], [ -46.727144, -23.906146 ], [ -46.727247, -23.906647 ], [ -46.727116, -23.907167 ], [ -46.726894, -23.907216 ], [ -46.727749, -23.908553 ], [ -46.727986, -23.908375 ], [ -46.728084, -23.908233 ], [ -46.728095, -23.908024 ], [ -46.727944, -23.90757 ], [ -46.727606, -23.906867 ], [ -46.727531, -23.906525 ], [ -46.727562, -23.905964 ], [ -46.727269, -23.905472 ], [ -46.727215, -23.905274 ], [ -46.727204, -23.904883 ], [ -46.728293, -23.904836 ], [ -46.7285, -23.904774 ], [ -46.728859, -23.904435 ], [ -46.729235, -23.904348 ], [ -46.728951, -23.903942 ], [ -46.728868, -23.90396 ], [ -46.728727, -23.903861 ], [ -46.728284, -23.90327 ], [ -46.728161, -23.903226 ], [ -46.727753, -23.902478 ], [ -46.727776, -23.901765 ], [ -46.726845, -23.901067 ], [ -46.726746, -23.901096 ], [ -46.726614, -23.901374 ], [ -46.726533, -23.902186 ] ] ] } },
{ "type": "Feature", "properties": { "CD_SETOR": "355030852000179", "faces": 37, "pavimentada": 18.92, "bueiro": 0.0, "iluminacao": 100.0, "onibus": 18.92, "ciclovia": 0.0, "calcada": 5.41, "obstaculo": 100.0, "rampa": 0.0, "rampa_faces": 0.0, "sem_calcada": 94.59, "sem_arvore": 45.95, "muitas_arvores": 27.03, "vao": 18.92, "V05400": 37, "V05421": 2, "V05406": 7, "V05412": 37, "V05422": 35, "V05424": 2, "V05427": 0, "V05409": 0, "V05415": 7, "V05418": 0, "V05430": 17, "V05433": 10, "criancas_0a4": 55, "em_favela": false }, "geometry": { "type": "Polygon", "coordinates": [ [ [ -46.726567, -23.888034 ], [ -46.727949, -23.887937 ], [ -46.727921, -23.888307 ], [ -46.727471, -23.888831 ], [ -46.727417, -23.889109 ], [ -46.727554, -23.889308 ], [ -46.727801, -23.889363 ], [ -46.728122, -23.88982 ], [ -46.728354, -23.88988 ], [ -46.728792, -23.889903 ], [ -46.728898, -23.889857 ], [ -46.729162, -23.889936 ], [ -46.729159, -23.889989 ], [ -46.729573, -23.89017 ], [ -46.72987, -23.890456 ], [ -46.730051, -23.890762 ], [ -46.730212, -23.890923 ], [ -46.730248, -23.891154 ], [ -46.730115, -23.891617 ], [ -46.730462, -23.891614 ], [ -46.730934, -23.890442 ], [ -46.731044, -23.889039 ], [ -46.731458, -23.88722 ], [ -46.73194, -23.885991 ], [ -46.731427, -23.885831 ], [ -46.731227, -23.88601 ], [ -46.731042, -23.886353 ], [ -46.730836, -23.886545 ], [ -46.730889, -23.887022 ], [ -46.73068, -23.88734 ], [ -46.730706, -23.887572 ], [ -46.730609, -23.888043 ], [ -46.730551, -23.888059 ], [ -46.730356, -23.887911 ], [ -46.729924, -23.887409 ], [ -46.72973, -23.887332 ], [ -46.729388, -23.887357 ], [ -46.729724, -23.887118 ], [ -46.729893, -23.886963 ], [ -46.729892, -23.886904 ], [ -46.729855, -23.886853 ], [ -46.729284, -23.886613 ], [ -46.729045, -23.886167 ], [ -46.727535, -23.886608 ], [ -46.72526, -23.886846 ], [ -46.725179, -23.886809 ], [ -46.725014, -23.886926 ], [ -46.725703, -23.888682 ], [ -46.726041, -23.88853 ], [ -46.725905, -23.887948 ], [ -46.726334, -23.887951 ], [ -46.726567, -23.888034 ] ] ] } },
{ "type": "Feature", "properties": { "CD_SETOR": "355030852000180", "faces": 14, "pavimentada": 57.14, "bueiro": 50.0, "iluminacao": 92.86, "onibus": 14.29, "ciclovia": 0.0, "calcada": 14.29, "obstaculo": 100.0, "rampa": 0.0, "rampa_faces": 0.0, "sem_calcada": 85.71, "sem_arvore": 0.0, "muitas_arvores": 42.86, "vao": 57.14, "V05400": 14, "V05421": 2, "V05406": 8, "V05412": 13, "V05422": 12, "V05424": 2, "V05427": 0, "V05409": 7, "V05415": 2, "V05418": 0, "V05430": 0, "V05433": 6, "criancas_0a4": 18, "em_favela": false }, "geometry": { "type": "Polygon", "coordinates": [ [ [ -46.771112, -23.873182 ], [ -46.771154, -23.873308 ], [ -46.771396, -23.873351 ], [ -46.771618, -23.873257 ], [ -46.771855, -23.872979 ], [ -46.772168, -23.87295 ], [ -46.7721, -23.872571 ], [ -46.772201, -23.872175 ], [ -46.772189, -23.872044 ], [ -46.771907, -23.87167 ], [ -46.771099, -23.871589 ], [ -46.770991, -23.871507 ], [ -46.770948, -23.871333 ], [ -46.77055, -23.871378 ], [ -46.770373, -23.870146 ], [ -46.770273, -23.869817 ], [ -46.770071, -23.869739 ], [ -46.769905, -23.870683 ], [ -46.769607, -23.871338 ], [ -46.768981, -23.871183 ], [ -46.769221, -23.870736 ], [ -46.768648, -23.870493 ], [ -46.768386, -23.870262 ], [ -46.768388, -23.870157 ], [ -46.768179, -23.870152 ], [ -46.76815, -23.870434 ], [ -46.768187, -23.870681 ], [ -46.768285, -23.870851 ], [ -46.768457, -23.870968 ], [ -46.768144, -23.87136 ], [ -46.768428, -23.871515 ], [ -46.769542, -23.871862 ], [ -46.769599, -23.871928 ], [ -46.769648, -23.872157 ], [ -46.770142, -23.872739 ], [ -46.77101, -23.873089 ], [ -46.771112, -23.873182 ] ] ] } },
{ "type": "Feature", "properties": { "CD_SETOR": "355030852000182", "faces": 7, "pavimentada": 14.29, "bueiro": 0.0, "iluminacao": 100.0, "onibus": 0.0, "ciclovia": 0.0, "calcada": 0.0, "obstaculo": null, "rampa": null, "rampa_faces": 0.0, "sem_calcada": 100.0, "sem_arvore": 0.0, "muitas_arvores": 100.0, "vao": 14.29, "V05400": 7, "V05421": 0, "V05406": 1, "V05412": 7, "V05422": 7, "V05424": 0, "V05427": 0, "V05409": 0, "V05415": 0, "V05418": 0, "V05430": 0, "V05433": 7, "criancas_0a4": 16, "em_favela": false }, "geometry": { "type": "Polygon", "coordinates": [ [ [ -46.689219, -23.88797 ], [ -46.689193, -23.888442 ], [ -46.689257, -23.88882 ], [ -46.689105, -23.889468 ], [ -46.689087, -23.889742 ], [ -46.689107, -23.889946 ], [ -46.689277, -23.890501 ], [ -46.689512, -23.890828 ], [ -46.690481, -23.891505 ], [ -46.69082, -23.89183 ], [ -46.690939, -23.892004 ], [ -46.691013, -23.89228 ], [ -46.690644, -23.892799 ], [ -46.690582, -23.892967 ], [ -46.69064, -23.893665 ], [ -46.690472, -23.894065 ], [ -46.690327, -23.895543 ], [ -46.690225, -23.895681 ], [ -46.690028, -23.8958 ], [ -46.689854, -23.896022 ], [ -46.689911, -23.896244 ], [ -46.690577, -23.897024 ], [ -46.690433, -23.897166 ], [ -46.689615, -23.897477 ], [ -46.689494, -23.89762 ], [ -46.689587, -23.898046 ], [ -46.689854, -23.898405 ], [ -46.690082, -23.898878 ], [ -46.690233, -23.898951 ], [ -46.691027, -23.899037 ], [ -46.691494, -23.898796 ], [ -46.69176, -23.898708 ], [ -46.69217, -23.898658 ], [ -46.692472, -23.898815 ], [ -46.69282, -23.899098 ], [ -46.69294, -23.899097 ], [ -46.693975, -23.898713 ], [ -46.693918, -23.898875 ], [ -46.693975, -23.899226 ], [ -46.693882, -23.900958 ], [ -46.694103, -23.901351 ], [ -46.694229, -23.901398 ], [ -46.694093, -23.902124 ], [ -46.694261, -23.902466 ], [ -46.698459, -23.903812 ], [ -46.698982, -23.904016 ], [ -46.699471, -23.904321 ], [ -46.701335, -23.905794 ], [ -46.701827, -23.906036 ], [ -46.702273, -23.906168 ], [ -46.702713, -23.906228 ], [ -46.70412, -23.906258 ], [ -46.708253, -23.906219 ], [ -46.709043, -23.905982 ], [ -46.710654, -23.905158 ], [ -46.711254, -23.905001 ], [ -46.711889, -23.904969 ], [ -46.725278, -23.906292 ], [ -46.725694, -23.906396 ], [ -46.726228, -23.906648 ], [ -46.726582, -23.906899 ], [ -46.726894, -23.907216 ], [ -46.727116, -23.907167 ], [ -46.727247, -23.906647 ], [ -46.727144, -23.906146 ], [ -46.727007, -23.905979 ], [ -46.726859, -23.905421 ], [ -46.726668, -23.905003 ], [ -46.725866, -23.905025 ], [ -46.725791, -23.90478 ], [ -46.725829, -23.903889 ], [ -46.725737, -23.903436 ], [ -46.726094, -23.903126 ], [ -46.726285, -23.902876 ], [ -46.726533, -23.902186 ], [ -46.726614, -23.901374 ], [ -46.726746, -23.901096 ], [ -46.726845, -23.901067 ], [ -46.726539, -23.900918 ], [ -46.726221, -23.900856 ], [ -46.725752, -23.90053 ], [ -46.724793, -23.90034 ], [ -46.724117, -23.899473 ], [ -46.72408, -23.899267 ], [ -46.72398, -23.899127 ], [ -46.723897, -23.898838 ], [ -46.723686, -23.898607 ], [ -46.723376, -23.898435 ], [ -46.722707, -23.897836 ], [ -46.722969, -23.897731 ], [ -46.723488, -23.897746 ], [ -46.72401, -23.897558 ], [ -46.724601, -23.897275 ], [ -46.724883, -23.897286 ], [ -46.725245, -23.897411 ], [ -46.725341, -23.89753 ], [ -46.72534, -23.897615 ], [ -46.725109, -23.898549 ], [ -46.725118, -23.898682 ], [ -46.725157, -23.898741 ], [ -46.725295, -23.898784 ], [ -46.725647, -23.898665 ], [ -46.725841, -23.898709 ], [ -46.726248, -23.899126 ], [ -46.726564, -23.899887 ], [ -46.726791, -23.899949 ], [ -46.726949, -23.89972 ], [ -46.726991, -23.899563 ], [ -46.727129, -23.898642 ], [ -46.727443, -23.898364 ], [ -46.727861, -23.897655 ], [ -46.728142, -23.8974 ], [ -46.728364, -23.897327 ], [ -46.728768, -23.897386 ], [ -46.729169, -23.897588 ], [ -46.729696, -23.89805 ], [ -46.730113, -23.898214 ], [ -46.730471, -23.898263 ], [ -46.730783, -23.898139 ], [ -46.731069, -23.897937 ], [ -46.731468, -23.897412 ], [ -46.731994, -23.896896 ], [ -46.732116, -23.896621 ], [ -46.732131, -23.896314 ], [ -46.732052, -23.896082 ], [ -46.731969, -23.895983 ], [ -46.731574, -23.895746 ], [ -46.731087, -23.895165 ], [ -46.731025, -23.895025 ], [ -46.73105, -23.894312 ], [ -46.731019, -23.894176 ], [ -46.730517, -23.89362 ], [ -46.730359, -23.89322 ], [ -46.73034, -23.893039 ], [ -46.730395, -23.892638 ], [ -46.730267, -23.892061 ], [ -46.730462, -23.891614 ], [ -46.730115, -23.891617 ], [ -46.730248, -23.891154 ], [ -46.730212, -23.890923 ], [ -46.730051, -23.890762 ], [ -46.72987, -23.890456 ], [ -46.729573, -23.89017 ], [ -46.729159, -23.889989 ], [ -46.729162, -23.889936 ], [ -46.728898, -23.889857 ], [ -46.728792, -23.889903 ], [ -46.728354, -23.88988 ], [ -46.728122, -23.88982 ], [ -46.727801, -23.889363 ], [ -46.727554, -23.889308 ], [ -46.727373, -23.889384 ], [ -46.726893, -23.889929 ], [ -46.726577, -23.890089 ], [ -46.726433, -23.890226 ], [ -46.725905, -23.890423 ], [ -46.725509, -23.890438 ], [ -46.725116, -23.890263 ], [ -46.724896, -23.890265 ], [ -46.7247, -23.8902 ], [ -46.724304, -23.889756 ], [ -46.72398, -23.889243 ], [ -46.723486, -23.888822 ], [ -46.723143, -23.888691 ], [ -46.722727, -23.888629 ], [ -46.722338, -23.888678 ], [ -46.72211, -23.888429 ], [ -46.722224, -23.887787 ], [ -46.722408, -23.887282 ], [ -46.722299, -23.886002 ], [ -46.722278, -23.884993 ], [ -46.722072, -23.883672 ], [ -46.722568, -23.883759 ], [ -46.722722, -23.883695 ], [ -46.722762, -23.883567 ], [ -46.722873, -23.883466 ], [ -46.723436, -23.883569 ], [ -46.723643, -23.88355 ], [ -46.723799, -23.883398 ], [ -46.72397, -23.88303 ], [ -46.724149, -23.882942 ], [ -46.724714, -23.882853 ], [ -46.725414, -23.882592 ], [ -46.725696, -23.882387 ], [ -46.726108, -23.8823 ], [ -46.726263, -23.882333 ], [ -46.72653, -23.882015 ], [ -46.726283, -23.881065 ], [ -46.726677, -23.880914 ], [ -46.726809, -23.881452 ], [ -46.727654, -23.879931 ], [ -46.729357, -23.878888 ], [ -46.729467, -23.878892 ], [ -46.729574, -23.878446 ], [ -46.72983, -23.877763 ], [ -46.729857, -23.877479 ], [ -46.729823, -23.877333 ], [ -46.729632, -23.877188 ], [ -46.699139, -23.886124 ], [ -46.689283, -23.886541 ], [ -46.689271, -23.887001 ], [ -46.689339, -23.887457 ], [ -46.689219, -23.88797 ] ] ] } }
]
}
