{
"type": "FeatureCollection",
"name": "pari",
"crs": { "type": "name", "properties": { "name": "urn:ogc:def:crs:OGC:1.3:CRS84" } },
"xy_coordinate_resolution": 1e-06,
"features": [
{ "type": "Feature", "properties": { "CD_SETOR": "355030856000003", "faces": 15, "pavimentada": 100.0, "bueiro": 46.67, "iluminacao": 100.0, "onibus": 0.0, "ciclovia": 13.33, "calcada": 86.67, "obstaculo": 30.77, "rampa": 53.85, "rampa_faces": 46.67, "sem_calcada": 13.33, "sem_arvore": 26.67, "muitas_arvores": 33.33, "vao": 53.33, "V05400": 15, "V05421": 13, "V05406": 15, "V05412": 15, "V05422": 2, "V05424": 4, "V05427": 7, "V05409": 7, "V05415": 0, "V05418": 2, "V05430": 4, "V05433": 5, "criancas_0a4": 33, "em_favela": false }, "geometry": { "type": "Polygon", "coordinates": [ [ [ -46.614775, -23.5251 ], [ -46.613355, -23.525664 ], [ -46.613909, -23.527029 ], [ -46.615233, -23.52681 ], [ -46.615359, -23.527478 ], [ -46.616107, -23.527355 ], [ -46.616025, -23.527218 ], [ -46.616437, -23.527149 ], [ -46.616486, -23.527096 ], [ -46.616558, -23.526784 ], [ -46.614953, -23.525429 ], [ -46.614775, -23.5251 ] ] ] } },
{ "type": "Feature", "properties": { "CD_SETOR": "355030856000004", "faces": 20, "pavimentada": 100.0, "bueiro": 85.0, "iluminacao": 100.0, "onibus": 20.0, "ciclovia": 5.0, "calcada": 100.0, "obstaculo": 30.0, "rampa": 35.0, "rampa_faces": 35.0, "sem_calcada": 0.0, "sem_arvore": 20.0, "muitas_arvores": 30.0, "vao": 65.0, "V05400": 20, "V05421": 20, "V05406": 20, "V05412": 20, "V05422": 0, "V05424": 6, "V05427": 7, "V05409": 17, "V05415": 4, "V05418": 1, "V05430": 4, "V05433": 6, "criancas_0a4": 16, "em_favela": false }, "geometry": { "type": "Polygon", "coordinates": [ [ [ -46.610495, -23.530035 ], [ -46.611353, -23.530888 ], [ -46.61233, -23.530103 ], [ -46.613281, -23.53112 ], [ -46.614682, -23.529917 ], [ -46.612945, -23.528082 ], [ -46.610495, -23.530035 ] ] ] } },
{ "type": "Feature", "properties": { "CD_SETOR": "355030856000007", "faces": 23, "pavimentada": 100.0, "bueiro": 86.96, "iluminacao": 100.0, "onibus": 4.35, "ciclovia": 39.13, "calcada": 86.96, "obstaculo": 5.0, "rampa": 45.0, "rampa_faces": 39.13, "sem_calcada": 13.04, "sem_arvore": 17.39, "muitas_arvores": 47.83, "vao": 60.87, "V05400": 23, "V05421": 20, "V05406": 23, "V05412": 23, "V05422": 3, "V05424": 1, "V05427": 9, "V05409": 20, "V05415": 1, "V05418": 9, "V05430": 4, "V05433": 11, "criancas_0a4": 23, "em_favela": false }, "geometry": { "type": "Polygon", "coordinates": [ [ [ -46.620585, -23.525932 ], [ -46.620817, -23.526188 ], [ -46.621011, -23.526311 ], [ -46.62095, -23.526438 ], [ -46.621145, -23.526523 ], [ -46.62099, -23.526824 ], [ -46.618547, -23.525707 ], [ -46.618853, -23.527417 ], [ -46.618834, -23.527515 ], [ -46.619516, -23.5269 ], [ -46.621292, -23.527889 ], [ -46.621425, -23.528415 ], [ -46.622396, -23.528165 ], [ -46.622174, -23.52737 ], [ -46.623197, -23.525794 ], [ -46.623168, -23.52546 ], [ -46.621207, -23.525381 ], [ -46.620585, -23.525932 ] ] ] } },
{ "type": "Feature", "properties": { "CD_SETOR": "355030856000009", "faces": 36, "pavimentada": 100.0, "bueiro": 86.11, "iluminacao": 100.0, "onibus": 5.56, "ciclovia": 8.33, "calcada": 100.0, "obstaculo": 36.11, "rampa": 52.78, "rampa_faces": 52.78, "sem_calcada": 0.0, "sem_arvore": 36.11, "muitas_arvores": 50.0, "vao": 47.22, "V05400": 36, "V05421": 36, "V05406": 36, "V05412": 36, "V05422": 0, "V05424": 13, "V05427": 19, "V05409": 31, "V05415": 2, "V05418": 3, "V05430": 13, "V05433": 18, "criancas_0a4": 10, "em_favela": false }, "geometry": { "type": "Polygon", "coordinates": [ [ [ -46.612623, -23.522298 ], [ -46.612635, -23.522649 ], [ -46.612458, -23.523441 ], [ -46.611912, -23.525339 ], [ -46.611558, -23.525651 ], [ -46.611588, -23.526085 ], [ -46.611553, -23.526286 ], [ -46.611451, -23.526053 ], [ -46.611302, -23.52598 ], [ -46.610925, -23.525955 ], [ -46.610729, -23.525873 ], [ -46.610992, -23.52614 ], [ -46.610947, -23.526162 ], [ -46.610883, -23.52636 ], [ -46.610893, -23.526521 ], [ -46.61101, -23.526821 ], [ -46.611197, -23.52665 ], [ -46.61138, -23.526884 ], [ -46.611577, -23.526834 ], [ -46.611668, -23.526734 ], [ -46.612128, -23.527219 ], [ -46.612982, -23.526542 ], [ -46.612733, -23.525911 ], [ -46.613986, -23.525413 ], [ -46.614069, -23.525169 ], [ -46.613867, -23.52453 ], [ -46.61512, -23.524027 ], [ -46.615345, -23.523875 ], [ -46.616087, -23.523712 ], [ -46.615907, -23.52274 ], [ -46.615472, -23.521818 ], [ -46.61546, -23.521099 ], [ -46.615235, -23.520221 ], [ -46.612623, -23.522298 ] ] ] } },
{ "type": "Feature", "properties": { "CD_SETOR": "355030856000010", "faces": 24, "pavimentada": 100.0, "bueiro": 70.83, "iluminacao": 100.0, "onibus": 12.5, "ciclovia": 8.33, "calcada": 91.67, "obstaculo": 27.27, "rampa": 45.45, "rampa_faces": 41.67, "sem_calcada": 8.33, "sem_arvore": 20.83, "muitas_arvores": 25.0, "vao": 58.33, "V05400": 24, "V05421": 22, "V05406": 24, "V05412": 24, "V05422": 2, "V05424": 6, "V05427": 10, "V05409": 17, "V05415": 3, "V05418": 2, "V05430": 5, "V05433": 6, "criancas_0a4": 39, "em_favela": false }, "geometry": { "type": "Polygon", "coordinates": [ [ [ -46.611197, -23.52665 ], [ -46.609073, -23.528604 ], [ -46.610495, -23.530035 ], [ -46.612945, -23.528082 ], [ -46.611668, -23.526734 ], [ -46.611577, -23.526834 ], [ -46.61138, -23.526884 ], [ -46.611197, -23.52665 ] ] ] } },
{ "type": "Feature", "properties": { "CD_SETOR": "355030856000011", "faces": 28, "pavimentada": 100.0, "bueiro": 60.71, "iluminacao": 92.86, "onibus": 25.0, "ciclovia": 3.57, "calcada": 100.0, "obstaculo": 21.43, "rampa": 53.57, "rampa_faces": 53.57, "sem_calcada": 0.0, "sem_arvore": 17.86, "muitas_arvores": 10.71, "vao": 46.43, "V05400": 28, "V05421": 28, "V05406": 28, "V05412": 26, "V05422": 0, "V05424": 6, "V05427": 15, "V05409": 17, "V05415": 7, "V05418": 1, "V05430": 5, "V05433": 3, "criancas_0a4": 19, "em_favela": false }, "geometry": { "type": "Polygon", "coordinates": [ [ [ -46.608239, -23.529381 ], [ -46.611537, -23.532623 ], [ -46.613281, -23.53112 ], [ -46.61233, -23.530103 ], [ -46.611353, -23.530888 ], [ -46.609073, -23.528604 ], [ -46.608239, -23.529381 ] ] ] } },
{ "type": "Feature", "properties": { "CD_SETOR": "355030856000014", "faces": 30, "pavimentada": 100.0, "bueiro": 20.0, "iluminacao": 100.0, "onibus": 13.33, "ciclovia": 0.0, "calcada": 60.0, "obstaculo": 16.67, "rampa": 72.22, "rampa_faces": 43.33, "sem_calcada": 40.0, "sem_arvore": 70.0, "muitas_arvores": 10.0, "vao": 56.67, "V05400": 30, "V05421": 18, "V05406": 30, "V05412": 30, "V05422": 12, "V05424": 3, "V05427": 13, "V05409": 6, "V05415": 4, "V05418": 0, "V05430": 21, "V05433": 3, "criancas_0a4": 17, "em_favela": false }, "geometry": { "type": "Polygon", "coordinates": [ [ [ -46.615464, -23.534975 ], [ -46.616055, -23.535573 ], [ -46.616697, -23.535536 ], [ -46.618601, -23.532246 ], [ -46.61767, -23.53188 ], [ -46.617601, -23.532241 ], [ -46.617483, -23.532539 ], [ -46.617231, -23.532943 ], [ -46.616896, -23.533279 ], [ -46.616613, -23.53296 ], [ -46.615464, -23.534975 ] ] ] } },
{ "type": "Feature", "properties": { "CD_SETOR": "355030856000015", "faces": 12, "pavimentada": 100.0, "bueiro": 83.33, "iluminacao": 100.0, "onibus": 25.0, "ciclovia": 0.0, "calcada": 100.0, "obstaculo": 0.0, "rampa": 100.0, "rampa_faces": 100.0, "sem_calcada": 0.0, "sem_arvore": 41.67, "muitas_arvores": 41.67, "vao": 0.0, "V05400": 12, "V05421": 12, "V05406": 12, "V05412": 12, "V05422": 0, "V05424": 0, "V05427": 12, "V05409": 10, "V05415": 3, "V05418": 0, "V05430": 5, "V05433": 5, "criancas_0a4": 0, "em_favela": false }, "geometry": { "type": "Polygon", "coordinates": [ [ [ -46.616697, -23.535536 ], [ -46.620384, -23.535249 ], [ -46.618721, -23.532365 ], [ -46.618601, -23.532246 ], [ -46.616697, -23.535536 ] ] ] } },
{ "type": "Feature", "properties": { "CD_SETOR": "355030856000016", "faces": 44, "pavimentada": 100.0, "bueiro": 95.45, "iluminacao": 100.0, "onibus": 18.18, "ciclovia": 0.0, "calcada": 97.73, "obstaculo": 2.33, "rampa": 86.05, "rampa_faces": 84.09, "sem_calcada": 2.27, "sem_arvore": 45.45, "muitas_arvores": 6.82, "vao": 15.91, "V05400": 44, "V05421": 43, "V05406": 44, "V05412": 44, "V05422": 1, "V05424": 1, "V05427": 37, "V05409": 42, "V05415": 8, "V05418": 0, "V05430": 20, "V05433": 3, "criancas_0a4": 13, "em_favela": false }, "geometry": { "type": "Polygon", "coordinates": [ [ [ -46.619514, -23.528907 ], [ -46.620363, -23.53179 ], [ -46.618601, -23.532246 ], [ -46.618721, -23.532365 ], [ -46.620384, -23.535249 ], [ -46.622305, -23.535022 ], [ -46.620666, -23.529642 ], [ -46.621701, -23.529372 ], [ -46.621425, -23.528415 ], [ -46.619514, -23.528907 ] ] ] } },
{ "type": "Feature", "properties": { "CD_SETOR": "355030856000017", "faces": 32, "pavimentada": 100.0, "bueiro": 100.0, "iluminacao": 100.0, "onibus": 15.62, "ciclovia": 9.38, "calcada": 100.0, "obstaculo": 6.25, "rampa": 71.88, "rampa_faces": 71.88, "sem_calcada": 0.0, "sem_arvore": 50.0, "muitas_arvores": 28.12, "vao": 28.12, "V05400": 32, "V05421": 32, "V05406": 32, "V05412": 32, "V05422": 0, "V05424": 2, "V05427": 23, "V05409": 32, "V05415": 5, "V05418": 3, "V05430": 16, "V05433": 9, "criancas_0a4": 0, "em_favela": false }, "geometry": { "type": "Polygon", "coordinates": [ [ [ -46.621425, -23.528415 ], [ -46.621701, -23.529372 ], [ -46.620666, -23.529642 ], [ -46.622305, -23.535022 ], [ -46.62333, -23.534757 ], [ -46.622271, -23.531296 ], [ -46.623259, -23.53104 ], [ -46.622396, -23.528165 ], [ -46.621425, -23.528415 ] ] ] } },
{ "type": "Feature", "properties": { "CD_SETOR": "355030856000022", "faces": 2, "pavimentada": 100.0, "bueiro": 0.0, "iluminacao": 100.0, "onibus": 0.0, "ciclovia": 0.0, "calcada": 100.0, "obstaculo": 50.0, "rampa": 50.0, "rampa_faces": 50.0, "sem_calcada": 0.0, "sem_arvore": 100.0, "muitas_arvores": 0.0, "vao": 50.0, "V05400": 2, "V05421": 2, "V05406": 2, "V05412": 2, "V05422": 0, "V05424": 1, "V05427": 1, "V05409": 0, "V05415": 0, "V05418": 0, "V05430": 2, "V05433": 0, "criancas_0a4": 7, "em_favela": false }, "geometry": { "type": "Polygon", "coordinates": [ [ [ -46.617678, -23.526869 ], [ -46.617947, -23.527372 ], [ -46.618789, -23.527071 ], [ -46.618718, -23.52669 ], [ -46.617809, -23.526804 ], [ -46.617678, -23.526869 ] ] ] } },
{ "type": "Feature", "properties": { "CD_SETOR": "355030856000023", "faces": 2, "pavimentada": 100.0, "bueiro": 100.0, "iluminacao": 100.0, "onibus": 0.0, "ciclovia": 50.0, "calcada": 100.0, "obstaculo": 0.0, "rampa": 100.0, "rampa_faces": 100.0, "sem_calcada": 0.0, "sem_arvore": 0.0, "muitas_arvores": 50.0, "vao": 0.0, "V05400": 2, "V05421": 2, "V05406": 2, "V05412": 2, "V05422": 0, "V05424": 0, "V05427": 2, "V05409": 2, "V05415": 0, "V05418": 1, "V05430": 0, "V05433": 1, "criancas_0a4": 23, "em_favela": false }, "geometry": { "type": "Polygon", "coordinates": [ [ [ -46.620065, -23.526398 ], [ -46.62099, -23.526824 ], [ -46.621145, -23.526523 ], [ -46.62095, -23.526438 ], [ -46.621011, -23.526311 ], [ -46.620817, -23.526188 ], [ -46.620585, -23.525932 ], [ -46.620065, -23.526398 ] ] ] } },
{ "type": "Feature", "properties": { "CD_SETOR": "355030856000024", "faces": 21, "pavimentada": 100.0, "bueiro": 85.71, "iluminacao": 71.43, "onibus": 4.76, "ciclovia": 4.76, "calcada": 100.0, "obstaculo": 85.71, "rampa": 0.0, "rampa_faces": 0.0, "sem_calcada": 0.0, "sem_arvore": 66.67, "muitas_arvores": 0.0, "vao": 100.0, "V05400": 21, "V05421": 21, "V05406": 21, "V05412": 15, "V05422": 0, "V05424": 18, "V05427": 0, "V05409": 18, "V05415": 1, "V05418": 1, "V05430": 14, "V05433": 0, "criancas_0a4": 0, "em_favela": false }, "geometry": { "type": "Polygon", "coordinates": [ [ [ -46.619516, -23.5269 ], [ -46.618262, -23.52803 ], [ -46.618869, -23.530094 ], [ -46.619795, -23.529861 ], [ -46.619514, -23.528907 ], [ -46.621425, -23.528415 ], [ -46.621292, -23.527889 ], [ -46.619516, -23.5269 ] ] ] } },
{ "type": "Feature", "properties": { "CD_SETOR": "355030856000025", "faces": 1, "pavimentada": 100.0, "bueiro": 100.0, "iluminacao": 100.0, "onibus": 0.0, "ciclovia": 100.0, "calcada": 100.0, "obstaculo": 0.0, "rampa": 100.0, "rampa_faces": 100.0, "sem_calcada": 0.0, "sem_arvore": 0.0, "muitas_arvores": 0.0, "vao": 0.0, "V05400": 1, "V05421": 1, "V05406": 1, "V05412": 1, "V05422": 0, "V05424": 0, "V05427": 1, "V05409": 1, "V05415": 0, "V05418": 1, "V05430": 0, "V05433": 0, "criancas_0a4": 30, "em_favela": false }, "geometry": { "type": "Polygon", "coordinates": [ [ [ -46.625016, -23.533053 ], [ -46.62395, -23.533325 ], [ -46.623975, -23.533406 ], [ -46.624415, -23.533296 ], [ -46.624545, -23.533733 ], [ -46.624938, -23.533635 ], [ -46.625016, -23.533053 ] ] ] } },
{ "type": "Feature", "properties": { "CD_SETOR": "355030856000026", "faces": 1, "pavimentada": 100.0, "bueiro": 100.0, "iluminacao": 100.0, "onibus": 0.0, "ciclovia": 0.0, "calcada": 100.0, "obstaculo": 0.0, "rampa": 0.0, "rampa_faces": 0.0, "sem_calcada": 0.0, "sem_arvore": 0.0, "muitas_arvores": 100.0, "vao": 100.0, "V05400": 1, "V05421": 1, "V05406": 1, "V05412": 1, "V05422": 0, "V05424": 0, "V05427": 0, "V05409": 1, "V05415": 0, "V05418": 0, "V05430": 0, "V05433": 1, "criancas_0a4": 27, "em_favela": false }, "geometry": { "type": "Polygon", "coordinates": [ [ [ -46.624426, -23.533853 ], [ -46.62494, -23.533726 ], [ -46.624938, -23.533635 ], [ -46.624545, -23.533733 ], [ -46.624415, -23.533296 ], [ -46.623975, -23.533406 ], [ -46.624104, -23.533842 ], [ -46.624397, -23.533763 ], [ -46.624426, -23.533853 ] ] ] } },
{ "type": "Feature", "properties": { "CD_SETOR": "355030856000027", "faces": 16, "pavimentada": 100.0, "bueiro": 68.75, "iluminacao": 100.0, "onibus": 18.75, "ciclovia": 6.25, "calcada": 100.0, "obstaculo": 31.25, "rampa": 81.25, "rampa_faces": 81.25, "sem_calcada": 0.0, "sem_arvore": 25.0, "muitas_arvores": 37.5, "vao": 18.75, "V05400": 16, "V05421": 16, "V05406": 16, "V05412": 16, "V05422": 0, "V05424": 5, "V05427": 13, "V05409": 11, "V05415": 3, "V05418": 1, "V05430": 4, "V05433": 6, "criancas_0a4": 13, "em_favela": false }, "geometry": { "type": "Polygon", "coordinates": [ [ [ -46.612128, -23.527219 ], [ -46.612945, -23.528082 ], [ -46.614168, -23.527673 ], [ -46.615359, -23.527478 ], [ -46.615233, -23.52681 ], [ -46.613909, -23.527029 ], [ -46.613355, -23.525664 ], [ -46.612733, -23.525911 ], [ -46.612982, -23.526542 ], [ -46.612128, -23.527219 ] ] ] } },
{ "type": "Feature", "properties": { "CD_SETOR": "355030856000028", "faces": 3, "pavimentada": 100.0, "bueiro": 0.0, "iluminacao": 0.0, "onibus": 0.0, "ciclovia": 0.0, "calcada": 33.33, "obstaculo": 0.0, "rampa": 0.0, "rampa_faces": 0.0, "sem_calcada": 66.67, "sem_arvore": 66.67, "muitas_arvores": 33.33, "vao": 100.0, "V05400": 3, "V05421": 1, "V05406": 3, "V05412": 0, "V05422": 2, "V05424": 0, "V05427": 0, "V05409": 0, "V05415": 0, "V05418": 0, "V05430": 2, "V05433": 1, "criancas_0a4": 50, "em_favela": true }, "geometry": { "type": "Polygon", "coordinates": [ [ [ -46.619719, -23.524064 ], [ -46.620307, -23.524872 ], [ -46.621177, -23.524283 ], [ -46.619793, -23.523947 ], [ -46.619719, -23.524064 ] ] ] } },
{ "type": "Feature", "properties": { "CD_SETOR": "355030856000029", "faces": 16, "pavimentada": 100.0, "bueiro": 62.5, "iluminacao": 100.0, "onibus": 6.25, "ciclovia": 12.5, "calcada": 93.75, "obstaculo": 13.33, "rampa": 53.33, "rampa_faces": 50.0, "sem_calcada": 6.25, "sem_arvore": 62.5, "muitas_arvores": 18.75, "vao": 50.0, "V05400": 16, "V05421": 15, "V05406": 16, "V05412": 16, "V05422": 1, "V05424": 2, "V05427": 8, "V05409": 10, "V05415": 1, "V05418": 2, "V05430": 10, "V05433": 3, "criancas_0a4": 32, "em_favela": false }, "geometry": { "type": "Polygon", "coordinates": [ [ [ -46.617413, -23.526999 ], [ -46.617301, -23.527489 ], [ -46.617146, -23.527527 ], [ -46.61658, -23.52828 ], [ -46.616055, -23.528852 ], [ -46.617214, -23.529345 ], [ -46.617368, -23.52946 ], [ -46.618591, -23.529145 ], [ -46.618262, -23.52803 ], [ -46.618834, -23.527515 ], [ -46.618789, -23.527071 ], [ -46.617947, -23.527372 ], [ -46.617678, -23.526869 ], [ -46.617413, -23.526999 ] ] ] } },
{ "type": "Feature", "properties": { "CD_SETOR": "355030856000030", "faces": 20, "pavimentada": 100.0, "bueiro": 25.0, "iluminacao": 100.0, "onibus": 5.0, "ciclovia": 0.0, "calcada": 80.0, "obstaculo": 31.25, "rampa": 56.25, "rampa_faces": 45.0, "sem_calcada": 20.0, "sem_arvore": 50.0, "muitas_arvores": 20.0, "vao": 55.0, "V05400": 20, "V05421": 16, "V05406": 20, "V05412": 20, "V05422": 4, "V05424": 5, "V05427": 9, "V05409": 5, "V05415": 1, "V05418": 0, "V05430": 10, "V05433": 4, "criancas_0a4": 17, "em_favela": false }, "geometry": { "type": "Polygon", "coordinates": [ [ [ -46.616107, -23.527355 ], [ -46.614168, -23.527673 ], [ -46.612945, -23.528082 ], [ -46.613778, -23.528962 ], [ -46.615581, -23.528651 ], [ -46.616055, -23.528852 ], [ -46.61658, -23.52828 ], [ -46.617146, -23.527527 ], [ -46.617301, -23.527489 ], [ -46.617368, -23.527158 ], [ -46.616486, -23.527096 ], [ -46.616437, -23.527149 ], [ -46.616025, -23.527218 ], [ -46.616107, -23.527355 ] ] ] } },
{ "type": "Feature", "properties": { "CD_SETOR": "355030856000031", "faces": 15, "pavimentada": 100.0, "bueiro": 33.33, "iluminacao": 100.0, "onibus": 13.33, "ciclovia": 0.0, "calcada": 60.0, "obstaculo": 55.56, "rampa": 11.11, "rampa_faces": 6.67, "sem_calcada": 40.0, "sem_arvore": 66.67, "muitas_arvores": 13.33, "vao": 93.33, "V05400": 15, "V05421": 9, "V05406": 15, "V05412": 15, "V05422": 6, "V05424": 5, "V05427": 1, "V05409": 5, "V05415": 2, "V05418": 0, "V05430": 10, "V05433": 2, "criancas_0a4": 21, "em_favela": false }, "geometry": { "type": "Polygon", "coordinates": [ [ [ -46.616659, -23.526573 ], [ -46.616486, -23.527096 ], [ -46.61738, -23.527159 ], [ -46.617413, -23.526999 ], [ -46.617809, -23.526804 ], [ -46.618718, -23.52669 ], [ -46.618466, -23.525276 ], [ -46.618217, -23.525144 ], [ -46.618102, -23.525144 ], [ -46.617513, -23.524422 ], [ -46.615972, -23.525025 ], [ -46.616955, -23.525724 ], [ -46.616916, -23.525906 ], [ -46.617311, -23.526291 ], [ -46.616946, -23.526524 ], [ -46.616659, -23.526573 ] ] ] } },
{ "type": "Feature", "properties": { "CD_SETOR": "355030856000032", "faces": 20, "pavimentada": 95.0, "bueiro": 75.0, "iluminacao": 100.0, "onibus": 15.0, "ciclovia": 20.0, "calcada": 90.0, "obstaculo": 38.89, "rampa": 66.67, "rampa_faces": 60.0, "sem_calcada": 10.0, "sem_arvore": 35.0, "muitas_arvores": 35.0, "vao": 35.0, "V05400": 20, "V05421": 18, "V05406": 19, "V05412": 20, "V05422": 2, "V05424": 7, "V05427": 12, "V05409": 15, "V05415": 3, "V05418": 4, "V05430": 7, "V05433": 7, "criancas_0a4": 25, "em_favela": false }, "geometry": { "type": "Polygon", "coordinates": [ [ [ -46.613986, -23.525413 ], [ -46.614775, -23.5251 ], [ -46.614953, -23.525429 ], [ -46.616558, -23.526784 ], [ -46.616659, -23.526573 ], [ -46.616946, -23.526524 ], [ -46.617311, -23.526291 ], [ -46.616916, -23.525906 ], [ -46.616955, -23.525724 ], [ -46.615972, -23.525025 ], [ -46.617513, -23.524422 ], [ -46.61722, -23.524063 ], [ -46.616949, -23.523035 ], [ -46.615907, -23.52274 ], [ -46.616087, -23.523712 ], [ -46.615345, -23.523875 ], [ -46.61512, -23.524027 ], [ -46.613867, -23.52453 ], [ -46.614069, -23.525169 ], [ -46.613986, -23.525413 ] ] ] } },
{ "type": "Feature", "properties": { "CD_SETOR": "355030856000033", "faces": 9, "pavimentada": 88.89, "bueiro": 66.67, "iluminacao": 88.89, "onibus": 11.11, "ciclovia": 0.0, "calcada": 88.89, "obstaculo": 0.0, "rampa": 50.0, "rampa_faces": 44.44, "sem_calcada": 0.0, "sem_arvore": 11.11, "muitas_arvores": 0.0, "vao": 44.44, "V05400": 9, "V05421": 8, "V05406": 8, "V05412": 8, "V05422": 0, "V05424": 0, "V05427": 4, "V05409": 6, "V05415": 1, "V05418": 0, "V05430": 1, "V05433": 0, "criancas_0a4": 13, "em_favela": false }, "geometry": { "type": "Polygon", "coordinates": [ [ [ -46.613778, -23.528962 ], [ -46.614682, -23.529917 ], [ -46.614871, -23.529765 ], [ -46.615155, -23.529643 ], [ -46.615529, -23.529594 ], [ -46.615998, -23.529665 ], [ -46.616321, -23.529776 ], [ -46.616763, -23.530013 ], [ -46.617201, -23.52934 ], [ -46.615581, -23.528651 ], [ -46.613778, -23.528962 ] ] ] } },
{ "type": "Feature", "properties": { "CD_SETOR": "355030856000034", "faces": 15, "pavimentada": 100.0, "bueiro": 53.33, "iluminacao": 100.0, "onibus": 13.33, "ciclovia": 0.0, "calcada": 100.0, "obstaculo": 13.33, "rampa": 100.0, "rampa_faces": 100.0, "sem_calcada": 0.0, "sem_arvore": 66.67, "muitas_arvores": 0.0, "vao": 0.0, "V05400": 15, "V05421": 15, "V05406": 15, "V05412": 15, "V05422": 0, "V05424": 2, "V05427": 15, "V05409": 8, "V05415": 2, "V05418": 0, "V05430": 10, "V05433": 0, "criancas_0a4": 0, "em_favela": false }, "geometry": { "type": "Polygon", "coordinates": [ [ [ -46.614682, -23.529917 ], [ -46.615773, -23.531069 ], [ -46.615834, -23.531258 ], [ -46.61596, -23.531259 ], [ -46.61767, -23.53188 ], [ -46.617671, -23.531438 ], [ -46.61749, -23.530821 ], [ -46.617236, -23.530435 ], [ -46.616763, -23.530013 ], [ -46.616321, -23.529776 ], [ -46.615998, -23.529665 ], [ -46.615529, -23.529594 ], [ -46.615155, -23.529643 ], [ -46.614871, -23.529765 ], [ -46.614682, -23.529917 ] ] ] } },
{ "type": "Feature", "properties": { "CD_SETOR": "355030856000035", "faces": 8, "pavimentada": 100.0, "bueiro": 50.0, "iluminacao": 100.0, "onibus": 12.5, "ciclovia": 0.0, "calcada": 100.0, "obstaculo": 75.0, "rampa": 87.5, "rampa_faces": 87.5, "sem_calcada": 0.0, "sem_arvore": 62.5, "muitas_arvores": 0.0, "vao": 12.5, "V05400": 8, "V05421": 8, "V05406": 8, "V05412": 8, "V05422": 0, "V05424": 6, "V05427": 7, "V05409": 4, "V05415": 1, "V05418": 0, "V05430": 5, "V05433": 0, "criancas_0a4": 19, "em_favela": false }, "geometry": { "type": "Polygon", "coordinates": [ [ [ -46.616763, -23.530013 ], [ -46.617236, -23.530435 ], [ -46.61749, -23.530821 ], [ -46.617671, -23.531438 ], [ -46.61767, -23.53188 ], [ -46.618601, -23.532246 ], [ -46.618265, -23.530493 ], [ -46.618093, -23.530289 ], [ -46.617803, -23.530116 ], [ -46.617368, -23.52946 ], [ -46.617201, -23.52934 ], [ -46.616763, -23.530013 ] ] ] } },
{ "type": "Feature", "properties": { "CD_SETOR": "355030856000036", "faces": 8, "pavimentada": 100.0, "bueiro": 87.5, "iluminacao": 87.5, "onibus": 12.5, "ciclovia": 0.0, "calcada": 100.0, "obstaculo": 50.0, "rampa": 50.0, "rampa_faces": 50.0, "sem_calcada": 0.0, "sem_arvore": 75.0, "muitas_arvores": 12.5, "vao": 50.0, "V05400": 8, "V05421": 8, "V05406": 8, "V05412": 7, "V05422": 0, "V05424": 4, "V05427": 4, "V05409": 7, "V05415": 1, "V05418": 0, "V05430": 6, "V05433": 1, "criancas_0a4": 8, "em_favela": false }, "geometry": { "type": "Polygon", "coordinates": [ [ [ -46.617368, -23.52946 ], [ -46.617803, -23.530116 ], [ -46.618093, -23.530289 ], [ -46.618265, -23.530493 ], [ -46.618601, -23.532246 ], [ -46.620363, -23.53179 ], [ -46.619795, -23.529861 ], [ -46.618869, -23.530094 ], [ -46.618591, -23.529145 ], [ -46.617368, -23.52946 ] ] ] } },
{ "type": "Feature", "properties": { "CD_SETOR": "355030856000037", "faces": 12, "pavimentada": 100.0, "bueiro": 91.67, "iluminacao": 100.0, "onibus": 8.33, "ciclovia": 33.33, "calcada": 100.0, "obstaculo": 16.67, "rampa": 66.67, "rampa_faces": 66.67, "sem_calcada": 0.0, "sem_arvore": 33.33, "muitas_arvores": 41.67, "vao": 33.33, "V05400": 12, "V05421": 12, "V05406": 12, "V05412": 12, "V05422": 0, "V05424": 2, "V05427": 8, "V05409": 11, "V05415": 1, "V05418": 4, "V05430": 4, "V05433": 5, "criancas_0a4": 15, "em_favela": false }, "geometry": { "type": "Polygon", "coordinates": [ [ [ -46.624195, -23.530797 ], [ -46.622271, -23.531296 ], [ -46.622613, -23.532453 ], [ -46.623609, -23.532194 ], [ -46.62366, -23.532362 ], [ -46.625376, -23.531921 ], [ -46.625577, -23.531829 ], [ -46.625563, -23.531357 ], [ -46.624195, -23.530797 ] ] ] } },
{ "type": "Feature", "properties": { "CD_SETOR": "355030856000038", "faces": 24, "pavimentada": 100.0, "bueiro": 66.67, "iluminacao": 100.0, "onibus": 8.33, "ciclovia": 16.67, "calcada": 100.0, "obstaculo": 16.67, "rampa": 58.33, "rampa_faces": 58.33, "sem_calcada": 0.0, "sem_arvore": 41.67, "muitas_arvores": 25.0, "vao": 41.67, "V05400": 24, "V05421": 24, "V05406": 24, "V05412": 24, "V05422": 0, "V05424": 4, "V05427": 14, "V05409": 16, "V05415": 2, "V05418": 4, "V05430": 10, "V05433": 6, "criancas_0a4": 28, "em_favela": false }, "geometry": { "type": "Polygon", "coordinates": [ [ [ -46.622613, -23.532453 ], [ -46.62333, -23.534757 ], [ -46.62494, -23.534339 ], [ -46.625184, -23.534201 ], [ -46.625159, -23.533351 ], [ -46.625272, -23.532947 ], [ -46.625592, -23.532325 ], [ -46.625577, -23.531829 ], [ -46.625376, -23.531921 ], [ -46.62366, -23.532362 ], [ -46.623609, -23.532194 ], [ -46.622613, -23.532453 ] ], [ [ -46.625016, -23.533053 ], [ -46.62494, -23.533726 ], [ -46.624426, -23.533853 ], [ -46.624397, -23.533763 ], [ -46.624104, -23.533842 ], [ -46.62395, -23.533325 ], [ -46.625016, -23.533053 ] ] ] } },
{ "type": "Feature", "properties": { "CD_SETOR": "355030856000039", "faces": 8, "pavimentada": 100.0, "bueiro": 87.5, "iluminacao": 100.0, "onibus": 12.5, "ciclovia": 0.0, "calcada": 100.0, "obstaculo": 0.0, "rampa": 75.0, "rampa_faces": 75.0, "sem_calcada": 0.0, "sem_arvore": 12.5, "muitas_arvores": 25.0, "vao": 25.0, "V05400": 8, "V05421": 8, "V05406": 8, "V05412": 8, "V05422": 0, "V05424": 0, "V05427": 6, "V05409": 7, "V05415": 1, "V05418": 0, "V05430": 1, "V05433": 2, "criancas_0a4": 54, "em_favela": false }, "geometry": { "type": "Polygon", "coordinates": [ [ [ -46.624195, -23.530797 ], [ -46.625563, -23.531357 ], [ -46.625525, -23.530084 ], [ -46.625407, -23.530087 ], [ -46.625292, -23.529991 ], [ -46.623759, -23.52929 ], [ -46.624195, -23.530797 ] ] ] } },
{ "type": "Feature", "properties": { "CD_SETOR": "355030856000040", "faces": 5, "pavimentada": 100.0, "bueiro": 100.0, "iluminacao": 100.0, "onibus": 0.0, "ciclovia": 0.0, "calcada": 100.0, "obstaculo": 0.0, "rampa": 60.0, "rampa_faces": 60.0, "sem_calcada": 0.0, "sem_arvore": 40.0, "muitas_arvores": 20.0, "vao": 40.0, "V05400": 5, "V05421": 5, "V05406": 5, "V05412": 5, "V05422": 0, "V05424": 0, "V05427": 3, "V05409": 5, "V05415": 0, "V05418": 0, "V05430": 2, "V05433": 1, "criancas_0a4": 54, "em_favela": false }, "geometry": { "type": "Polygon", "coordinates": [ [ [ -46.623259, -23.53104 ], [ -46.624195, -23.530797 ], [ -46.623759, -23.52929 ], [ -46.622565, -23.528745 ], [ -46.623259, -23.53104 ] ] ] } },
{ "type": "Feature", "properties": { "CD_SETOR": "355030856000041", "faces": 41, "pavimentada": 85.37, "bueiro": 70.73, "iluminacao": 85.37, "onibus": 21.95, "ciclovia": 4.88, "calcada": 92.68, "obstaculo": 71.05, "rampa": 21.05, "rampa_faces": 19.51, "sem_calcada": 7.32, "sem_arvore": 31.71, "muitas_arvores": 53.66, "vao": 65.85, "V05400": 41, "V05421": 38, "V05406": 35, "V05412": 35, "V05422": 3, "V05424": 27, "V05427": 8, "V05409": 29, "V05415": 9, "V05418": 2, "V05430": 13, "V05433": 22, "criancas_0a4": 38, "em_favela": false }, "geometry": { "type": "Polygon", "coordinates": [ [ [ -46.61892, -23.518777 ], [ -46.618223, -23.518855 ], [ -46.617668, -23.518983 ], [ -46.616248, -23.519563 ], [ -46.617509, -23.520979 ], [ -46.617916, -23.522189 ], [ -46.616817, -23.522439 ], [ -46.61722, -23.524063 ], [ -46.618102, -23.525144 ], [ -46.618217, -23.525144 ], [ -46.618466, -23.525276 ], [ -46.618547, -23.525707 ], [ -46.620065, -23.526398 ], [ -46.621207, -23.525381 ], [ -46.623168, -23.52546 ], [ -46.623197, -23.525794 ], [ -46.622174, -23.52737 ], [ -46.622565, -23.528745 ], [ -46.625292, -23.529991 ], [ -46.625407, -23.530087 ], [ -46.625525, -23.530084 ], [ -46.625201, -23.519303 ], [ -46.623642, -23.519406 ], [ -46.622874, -23.519371 ], [ -46.620437, -23.518867 ], [ -46.619851, -23.518791 ], [ -46.61892, -23.518777 ] ], [ [ -46.619719, -23.524064 ], [ -46.619793, -23.523947 ], [ -46.621177, -23.524283 ], [ -46.620307, -23.524872 ], [ -46.619719, -23.524064 ] ] ] } },
{ "type": "Feature", "properties": { "CD_SETOR": "355030856000042", "faces": 15, "pavimentada": 100.0, "bueiro": 93.33, "iluminacao": 100.0, "onibus": 6.67, "ciclovia": 0.0, "calcada": 73.33, "obstaculo": 45.45, "rampa": 0.0, "rampa_faces": 0.0, "sem_calcada": 26.67, "sem_arvore": 40.0, "muitas_arvores": 46.67, "vao": 100.0, "V05400": 15, "V05421": 11, "V05406": 15, "V05412": 15, "V05422": 4, "V05424": 5, "V05427": 0, "V05409": 14, "V05415": 1, "V05418": 0, "V05430": 6, "V05433": 7, "criancas_0a4": 15, "em_favela": false }, "geometry": { "type": "Polygon", "coordinates": [ [ [ -46.615235, -23.520221 ], [ -46.61546, -23.521099 ], [ -46.615472, -23.521818 ], [ -46.615907, -23.52274 ], [ -46.616949, -23.523035 ], [ -46.616817, -23.522439 ], [ -46.617916, -23.522189 ], [ -46.617509, -23.520979 ], [ -46.616248, -23.519563 ], [ -46.615706, -23.519875 ], [ -46.615235, -23.520221 ] ] ] } },
{ "type": "Feature", "properties": { "CD_SETOR": "355030856000043", "faces": 16, "pavimentada": 100.0, "bueiro": 93.75, "iluminacao": 100.0, "onibus": 6.25, "ciclovia": 18.75, "calcada": 100.0, "obstaculo": 87.5, "rampa": 18.75, "rampa_faces": 18.75, "sem_calcada": 0.0, "sem_arvore": 12.5, "muitas_arvores": 68.75, "vao": 81.25, "V05400": 16, "V05421": 16, "V05406": 16, "V05412": 16, "V05422": 0, "V05424": 14, "V05427": 3, "V05409": 15, "V05415": 1, "V05418": 3, "V05430": 2, "V05433": 11, "criancas_0a4": 33, "em_favela": false }, "geometry": { "type": "Polygon", "coordinates": [ [ [ -46.608755, -23.523287 ], [ -46.608578, -23.524155 ], [ -46.607856, -23.525701 ], [ -46.608779, -23.526506 ], [ -46.610079, -23.525275 ], [ -46.610722, -23.52587 ], [ -46.610925, -23.525955 ], [ -46.611302, -23.52598 ], [ -46.611451, -23.526053 ], [ -46.611553, -23.526286 ], [ -46.611588, -23.526085 ], [ -46.611558, -23.525651 ], [ -46.611912, -23.525339 ], [ -46.612458, -23.523441 ], [ -46.612635, -23.522649 ], [ -46.612623, -23.522298 ], [ -46.61158, -23.522823 ], [ -46.610645, -23.523126 ], [ -46.609973, -23.523262 ], [ -46.608755, -23.523287 ] ] ] } },
{ "type": "Feature", "properties": { "CD_SETOR": "355030856000044", "faces": 12, "pavimentada": 100.0, "bueiro": 100.0, "iluminacao": 100.0, "onibus": 8.33, "ciclovia": 33.33, "calcada": 100.0, "obstaculo": 0.0, "rampa": 58.33, "rampa_faces": 58.33, "sem_calcada": 0.0, "sem_arvore": 25.0, "muitas_arvores": 25.0, "vao": 41.67, "V05400": 12, "V05421": 12, "V05406": 12, "V05412": 12, "V05422": 0, "V05424": 0, "V05427": 7, "V05409": 12, "V05415": 1, "V05418": 4, "V05430": 3, "V05433": 3, "criancas_0a4": 35, "em_favela": false }, "geometry": { "type": "Polygon", "coordinates": [ [ [ -46.609073, -23.528604 ], [ -46.610064, -23.527682 ], [ -46.607856, -23.525701 ], [ -46.607329, -23.52685 ], [ -46.609073, -23.528604 ] ] ] } },
{ "type": "Feature", "properties": { "CD_SETOR": "355030856000045", "faces": 10, "pavimentada": 100.0, "bueiro": 80.0, "iluminacao": 90.0, "onibus": 10.0, "ciclovia": 10.0, "calcada": 90.0, "obstaculo": 11.11, "rampa": 33.33, "rampa_faces": 30.0, "sem_calcada": 10.0, "sem_arvore": 40.0, "muitas_arvores": 30.0, "vao": 70.0, "V05400": 10, "V05421": 9, "V05406": 10, "V05412": 9, "V05422": 1, "V05424": 1, "V05427": 3, "V05409": 8, "V05415": 1, "V05418": 1, "V05430": 4, "V05433": 3, "criancas_0a4": 0, "em_favela": false }, "geometry": { "type": "Polygon", "coordinates": [ [ [ -46.609362, -23.525954 ], [ -46.61005, -23.526589 ], [ -46.609811, -23.526812 ], [ -46.609109, -23.526193 ], [ -46.608779, -23.526506 ], [ -46.610064, -23.527682 ], [ -46.61101, -23.526821 ], [ -46.610893, -23.526521 ], [ -46.610883, -23.52636 ], [ -46.610947, -23.526162 ], [ -46.610992, -23.52614 ], [ -46.610079, -23.525275 ], [ -46.609362, -23.525954 ] ] ] } },
{ "type": "Feature", "properties": { "CD_SETOR": "355030856000046", "faces": 2, "pavimentada": 100.0, "bueiro": 100.0, "iluminacao": 100.0, "onibus": 0.0, "ciclovia": 0.0, "calcada": 100.0, "obstaculo": 0.0, "rampa": 0.0, "rampa_faces": 0.0, "sem_calcada": 0.0, "sem_arvore": 50.0, "muitas_arvores": 0.0, "vao": 100.0, "V05400": 2, "V05421": 2, "V05406": 2, "V05412": 2, "V05422": 0, "V05424": 0, "V05427": 0, "V05409": 2, "V05415": 0, "V05418": 0, "V05430": 1, "V05433": 0, "criancas_0a4": 16, "em_favela": false }, "geometry": { "type": "Polygon", "coordinates": [ [ [ -46.609109, -23.526193 ], [ -46.609811, -23.526812 ], [ -46.61005, -23.526589 ], [ -46.609362, -23.525954 ], [ -46.609109, -23.526193 ] ] ] } },
{ "type": "Feature", "properties": { "CD_SETOR": "355030856000047", "faces": 1, "pavimentada": 100.0, "bueiro": 100.0, "iluminacao": 100.0, "onibus": 0.0, "ciclovia": 0.0, "calcada": 100.0, "obstaculo": 0.0, "rampa": 0.0, "rampa_faces": 0.0, "sem_calcada": 0.0, "sem_arvore": 0.0, "muitas_arvores": 0.0, "vao": 100.0, "V05400": 1, "V05421": 1, "V05406": 1, "V05412": 1, "V05422": 0, "V05424": 0, "V05427": 0, "V05409": 1, "V05415": 0, "V05418": 0, "V05430": 0, "V05433": 0, "criancas_0a4": 12, "em_favela": false }, "geometry": { "type": "Polygon", "coordinates": [ [ [ -46.606481, -23.525257 ], [ -46.606468, -23.525307 ], [ -46.606917, -23.525432 ], [ -46.607119, -23.524957 ], [ -46.607431, -23.525039 ], [ -46.607745, -23.524298 ], [ -46.607192, -23.524175 ], [ -46.60691, -23.525338 ], [ -46.606481, -23.525257 ] ] ] } },
{ "type": "Feature", "properties": { "CD_SETOR": "355030856000048", "faces": 1, "pavimentada": 100.0, "bueiro": 100.0, "iluminacao": 100.0, "onibus": 0.0, "ciclovia": 0.0, "calcada": 100.0, "obstaculo": 0.0, "rampa": 0.0, "rampa_faces": 0.0, "sem_calcada": 0.0, "sem_arvore": 0.0, "muitas_arvores": 0.0, "vao": 100.0, "V05400": 1, "V05421": 1, "V05406": 1, "V05412": 1, "V05422": 0, "V05424": 0, "V05427": 0, "V05409": 1, "V05415": 0, "V05418": 0, "V05430": 0, "V05433": 0, "criancas_0a4": 8, "em_favela": false }, "geometry": { "type": "Polygon", "coordinates": [ [ [ -46.606468, -23.525307 ], [ -46.606454, -23.525362 ], [ -46.607179, -23.525635 ], [ -46.607431, -23.525039 ], [ -46.607119, -23.524957 ], [ -46.606917, -23.525432 ], [ -46.606468, -23.525307 ] ] ] } },
{ "type": "Feature", "properties": { "CD_SETOR": "355030856000049", "faces": 1, "pavimentada": 100.0, "bueiro": 100.0, "iluminacao": 100.0, "onibus": 0.0, "ciclovia": 0.0, "calcada": 100.0, "obstaculo": 100.0, "rampa": 100.0, "rampa_faces": 100.0, "sem_calcada": 0.0, "sem_arvore": 0.0, "muitas_arvores": 100.0, "vao": 0.0, "V05400": 1, "V05421": 1, "V05406": 1, "V05412": 1, "V05422": 0, "V05424": 1, "V05427": 1, "V05409": 1, "V05415": 0, "V05418": 0, "V05430": 0, "V05433": 1, "criancas_0a4": 8, "em_favela": false }, "geometry": { "type": "Polygon", "coordinates": [ [ [ -46.607745, -23.524298 ], [ -46.607179, -23.525635 ], [ -46.606454, -23.525362 ], [ -46.606438, -23.525424 ], [ -46.607189, -23.525716 ], [ -46.607481, -23.525078 ], [ -46.607741, -23.525166 ], [ -46.608109, -23.524378 ], [ -46.607745, -23.524298 ] ] ] } },
{ "type": "Feature", "properties": { "CD_SETOR": "355030856000050", "faces": 1, "pavimentada": 100.0, "bueiro": 100.0, "iluminacao": 100.0, "onibus": 0.0, "ciclovia": 0.0, "calcada": 100.0, "obstaculo": 100.0, "rampa": 0.0, "rampa_faces": 0.0, "sem_calcada": 0.0, "sem_arvore": 0.0, "muitas_arvores": 100.0, "vao": 100.0, "V05400": 1, "V05421": 1, "V05406": 1, "V05412": 1, "V05422": 0, "V05424": 1, "V05427": 0, "V05409": 1, "V05415": 0, "V05418": 0, "V05430": 0, "V05433": 1, "criancas_0a4": 3, "em_favela": false }, "geometry": { "type": "Polygon", "coordinates": [ [ [ -46.606438, -23.525424 ], [ -46.606421, -23.525488 ], [ -46.607416, -23.525864 ], [ -46.607741, -23.525166 ], [ -46.607481, -23.525078 ], [ -46.607189, -23.525716 ], [ -46.606438, -23.525424 ] ] ] } },
{ "type": "Feature", "properties": { "CD_SETOR": "355030856000051", "faces": 21, "pavimentada": 100.0, "bueiro": 100.0, "iluminacao": 100.0, "onibus": 33.33, "ciclovia": 33.33, "calcada": 100.0, "obstaculo": 9.52, "rampa": 42.86, "rampa_faces": 42.86, "sem_calcada": 0.0, "sem_arvore": 23.81, "muitas_arvores": 19.05, "vao": 57.14, "V05400": 21, "V05421": 21, "V05406": 21, "V05412": 21, "V05422": 0, "V05424": 2, "V05427": 9, "V05409": 21, "V05415": 7, "V05418": 7, "V05430": 5, "V05433": 4, "criancas_0a4": 33, "em_favela": false }, "geometry": { "type": "Polygon", "coordinates": [ [ [ -46.606481, -23.525257 ], [ -46.60691, -23.525338 ], [ -46.607192, -23.524175 ], [ -46.608109, -23.524378 ], [ -46.607416, -23.525864 ], [ -46.606421, -23.525488 ], [ -46.606195, -23.526463 ], [ -46.605745, -23.526895 ], [ -46.608239, -23.529381 ], [ -46.609073, -23.528604 ], [ -46.607329, -23.52685 ], [ -46.608578, -23.524155 ], [ -46.608755, -23.523287 ], [ -46.608263, -23.523238 ], [ -46.607066, -23.523001 ], [ -46.606481, -23.525257 ] ] ] } },
{ "type": "Feature", "properties": { "CD_SETOR": "355030856000052", "faces": 19, "pavimentada": 100.0, "bueiro": 68.42, "iluminacao": 94.74, "onibus": 26.32, "ciclovia": 0.0, "calcada": 100.0, "obstaculo": 21.05, "rampa": 57.89, "rampa_faces": 57.89, "sem_calcada": 0.0, "sem_arvore": 36.84, "muitas_arvores": 5.26, "vao": 42.11, "V05400": 19, "V05421": 19, "V05406": 19, "V05412": 18, "V05422": 0, "V05424": 4, "V05427": 11, "V05409": 13, "V05415": 5, "V05418": 0, "V05430": 7, "V05433": 1, "criancas_0a4": 0, "em_favela": false }, "geometry": { "type": "Polygon", "coordinates": [ [ [ -46.611537, -23.532623 ], [ -46.612544, -23.533614 ], [ -46.613384, -23.532907 ], [ -46.613815, -23.533336 ], [ -46.614584, -23.532516 ], [ -46.613281, -23.53112 ], [ -46.611537, -23.532623 ] ] ] } },
{ "type": "Feature", "properties": { "CD_SETOR": "355030856000053", "faces": 9, "pavimentada": 100.0, "bueiro": 88.89, "iluminacao": 100.0, "onibus": 0.0, "ciclovia": 0.0, "calcada": 100.0, "obstaculo": 0.0, "rampa": 88.89, "rampa_faces": 88.89, "sem_calcada": 0.0, "sem_arvore": 22.22, "muitas_arvores": 33.33, "vao": 11.11, "V05400": 9, "V05421": 9, "V05406": 9, "V05412": 9, "V05422": 0, "V05424": 0, "V05427": 8, "V05409": 8, "V05415": 0, "V05418": 0, "V05430": 2, "V05433": 3, "criancas_0a4": 42, "em_favela": false }, "geometry": { "type": "Polygon", "coordinates": [ [ [ -46.614682, -23.529917 ], [ -46.613281, -23.53112 ], [ -46.614584, -23.532516 ], [ -46.615536, -23.531502 ], [ -46.615651, -23.531658 ], [ -46.615941, -23.531328 ], [ -46.61596, -23.531259 ], [ -46.615834, -23.531258 ], [ -46.615773, -23.531069 ], [ -46.614682, -23.529917 ] ] ] } },
{ "type": "Feature", "properties": { "CD_SETOR": "355030856000054", "faces": 10, "pavimentada": 100.0, "bueiro": 70.0, "iluminacao": 100.0, "onibus": 30.0, "ciclovia": 0.0, "calcada": 80.0, "obstaculo": 0.0, "rampa": 100.0, "rampa_faces": 80.0, "sem_calcada": 20.0, "sem_arvore": 20.0, "muitas_arvores": 30.0, "vao": 20.0, "V05400": 10, "V05421": 8, "V05406": 10, "V05412": 10, "V05422": 2, "V05424": 0, "V05427": 8, "V05409": 7, "V05415": 3, "V05418": 0, "V05430": 2, "V05433": 3, "criancas_0a4": 14, "em_favela": false }, "geometry": { "type": "Polygon", "coordinates": [ [ [ -46.615536, -23.531502 ], [ -46.613815, -23.533336 ], [ -46.615464, -23.534975 ], [ -46.616613, -23.53296 ], [ -46.615536, -23.531502 ] ] ] } },
{ "type": "Feature", "properties": { "CD_SETOR": "355030856000055", "faces": 8, "pavimentada": 100.0, "bueiro": 25.0, "iluminacao": 100.0, "onibus": 25.0, "ciclovia": 0.0, "calcada": 100.0, "obstaculo": 25.0, "rampa": 87.5, "rampa_faces": 87.5, "sem_calcada": 0.0, "sem_arvore": 25.0, "muitas_arvores": 12.5, "vao": 12.5, "V05400": 8, "V05421": 8, "V05406": 8, "V05412": 8, "V05422": 0, "V05424": 2, "V05427": 7, "V05409": 2, "V05415": 2, "V05418": 0, "V05430": 2, "V05433": 1, "criancas_0a4": 7, "em_favela": false }, "geometry": { "type": "Polygon", "coordinates": [ [ [ -46.61596, -23.531259 ], [ -46.615651, -23.531658 ], [ -46.616613, -23.53296 ], [ -46.616896, -23.533279 ], [ -46.617231, -23.532943 ], [ -46.617483, -23.532539 ], [ -46.617601, -23.532241 ], [ -46.61767, -23.53188 ], [ -46.61596, -23.531259 ] ] ] } }
]
}
