{
"type": "FeatureCollection",
"name": "se",
"crs": { "type": "name", "properties": { "name": "urn:ogc:def:crs:OGC:1.3:CRS84" } },
"xy_coordinate_resolution": 1e-06,
"features": [
{ "type": "Feature", "properties": { "CD_SETOR": "355030878000006", "faces": 51, "pavimentada": 100.0, "bueiro": 100.0, "iluminacao": 100.0, "onibus": 11.76, "ciclovia": 19.61, "calcada": 100.0, "obstaculo": 1.96, "rampa": 100.0, "rampa_faces": 100.0, "sem_calcada": 0.0, "sem_arvore": 82.35, "muitas_arvores": 9.8, "vao": 0.0, "V05400": 51, "V05421": 51, "V05406": 51, "V05412": 51, "V05422": 0, "V05424": 1, "V05427": 51, "V05409": 51, "V05415": 6, "V05418": 10, "V05430": 42, "V05433": 5, "criancas_0a4": 0, "em_favela": false }, "geometry": { "type": "Polygon", "coordinates": [ [ [ -46.634354, -23.545869 ], [ -46.634186, -23.547337 ], [ -46.633634, -23.548996 ], [ -46.634341, -23.548825 ], [ -46.636849, -23.547592 ], [ -46.637459, -23.548713 ], [ -46.637499, -23.548891 ], [ -46.637644, -23.54887 ], [ -46.638742, -23.548398 ], [ -46.636247, -23.544579 ], [ -46.635612, -23.544957 ], [ -46.635364, -23.545201 ], [ -46.634456, -23.54573 ], [ -46.634354, -23.545869 ] ] ] } },
{ "type": "Feature", "properties": { "CD_SETOR": "355030878000008", "faces": 28, "pavimentada": 100.0, "bueiro": 100.0, "iluminacao": 96.43, "onibus": 0.0, "ciclovia": 0.0, "calcada": 100.0, "obstaculo": 25.0, "rampa": 78.57, "rampa_faces": 78.57, "sem_calcada": 0.0, "sem_arvore": 89.29, "muitas_arvores": 0.0, "vao": 21.43, "V05400": 28, "V05421": 28, "V05406": 28, "V05412": 27, "V05422": 0, "V05424": 7, "V05427": 22, "V05409": 28, "V05415": 0, "V05418": 0, "V05430": 25, "V05433": 0, "criancas_0a4": 12, "em_favela": false }, "geometry": { "type": "Polygon", "coordinates": [ [ [ -46.630665, -23.540337 ], [ -46.630966, -23.544019 ], [ -46.631045, -23.54416 ], [ -46.632548, -23.544284 ], [ -46.632464, -23.543626 ], [ -46.633303, -23.543233 ], [ -46.633161, -23.54297 ], [ -46.632763, -23.541391 ], [ -46.632762, -23.54069 ], [ -46.630665, -23.540337 ] ] ] } },
{ "type": "Feature", "properties": { "CD_SETOR": "355030878000009", "faces": 17, "pavimentada": 100.0, "bueiro": 100.0, "iluminacao": 100.0, "onibus": 17.65, "ciclovia": 0.0, "calcada": 100.0, "obstaculo": 0.0, "rampa": 100.0, "rampa_faces": 100.0, "sem_calcada": 0.0, "sem_arvore": 88.24, "muitas_arvores": 0.0, "vao": 0.0, "V05400": 17, "V05421": 17, "V05406": 17, "V05412": 17, "V05422": 0, "V05424": 0, "V05427": 17, "V05409": 17, "V05415": 3, "V05418": 0, "V05430": 15, "V05433": 0, "criancas_0a4": 16, "em_favela": false }, "geometry": { "type": "Polygon", "coordinates": [ [ [ -46.627537, -23.539899 ], [ -46.628197, -23.541373 ], [ -46.628048, -23.541496 ], [ -46.62863, -23.54278 ], [ -46.630388, -23.542693 ], [ -46.630855, -23.542617 ], [ -46.630665, -23.540337 ], [ -46.629714, -23.540181 ], [ -46.629442, -23.54041 ], [ -46.629299, -23.540069 ], [ -46.629233, -23.540051 ], [ -46.629149, -23.540099 ], [ -46.62778, -23.539873 ], [ -46.627537, -23.539899 ] ] ] } },
{ "type": "Feature", "properties": { "CD_SETOR": "355030878000013", "faces": 12, "pavimentada": 100.0, "bueiro": 58.33, "iluminacao": 100.0, "onibus": 0.0, "ciclovia": 0.0, "calcada": 100.0, "obstaculo": 75.0, "rampa": 66.67, "rampa_faces": 66.67, "sem_calcada": 0.0, "sem_arvore": 25.0, "muitas_arvores": 25.0, "vao": 33.33, "V05400": 12, "V05421": 12, "V05406": 12, "V05412": 12, "V05422": 0, "V05424": 9, "V05427": 8, "V05409": 7, "V05415": 0, "V05418": 0, "V05430": 3, "V05433": 3, "criancas_0a4": 4, "em_favela": false }, "geometry": { "type": "Polygon", "coordinates": [ [ [ -46.629157, -23.551404 ], [ -46.629168, -23.551903 ], [ -46.627791, -23.551711 ], [ -46.627601, -23.551897 ], [ -46.627507, -23.552242 ], [ -46.627718, -23.552162 ], [ -46.628558, -23.552199 ], [ -46.628832, -23.552245 ], [ -46.629423, -23.552495 ], [ -46.630432, -23.552513 ], [ -46.630465, -23.552407 ], [ -46.631151, -23.551661 ], [ -46.631143, -23.551594 ], [ -46.630769, -23.551257 ], [ -46.630655, -23.551248 ], [ -46.63001, -23.55194 ], [ -46.629276, -23.551432 ], [ -46.629157, -23.551404 ] ] ] } },
{ "type": "Feature", "properties": { "CD_SETOR": "355030878000024", "faces": 2, "pavimentada": 100.0, "bueiro": 100.0, "iluminacao": 100.0, "onibus": 0.0, "ciclovia": 0.0, "calcada": 100.0, "obstaculo": 0.0, "rampa": 50.0, "rampa_faces": 50.0, "sem_calcada": 0.0, "sem_arvore": 50.0, "muitas_arvores": 0.0, "vao": 50.0, "V05400": 2, "V05421": 2, "V05406": 2, "V05412": 2, "V05422": 0, "V05424": 0, "V05427": 1, "V05409": 2, "V05415": 0, "V05418": 0, "V05430": 1, "V05433": 0, "criancas_0a4": 22, "em_favela": false }, "geometry": { "type": "Polygon", "coordinates": [ [ [ -46.629361, -23.554064 ], [ -46.629479, -23.55435 ], [ -46.629829, -23.554262 ], [ -46.629658, -23.553933 ], [ -46.629361, -23.554064 ] ] ] } },
{ "type": "Feature", "properties": { "CD_SETOR": "355030878000025", "faces": 2, "pavimentada": 100.0, "bueiro": 100.0, "iluminacao": 100.0, "onibus": 0.0, "ciclovia": 0.0, "calcada": 100.0, "obstaculo": 0.0, "rampa": 100.0, "rampa_faces": 100.0, "sem_calcada": 0.0, "sem_arvore": 100.0, "muitas_arvores": 0.0, "vao": 0.0, "V05400": 2, "V05421": 2, "V05406": 2, "V05412": 2, "V05422": 0, "V05424": 0, "V05427": 2, "V05409": 2, "V05415": 0, "V05418": 0, "V05430": 2, "V05433": 0, "criancas_0a4": 25, "em_favela": false }, "geometry": { "type": "Polygon", "coordinates": [ [ [ -46.628997, -23.554215 ], [ -46.629134, -23.554486 ], [ -46.629479, -23.55435 ], [ -46.629361, -23.554064 ], [ -46.628997, -23.554215 ] ] ] } },
{ "type": "Feature", "properties": { "CD_SETOR": "355030878000028", "faces": 7, "pavimentada": 100.0, "bueiro": 71.43, "iluminacao": 100.0, "onibus": 0.0, "ciclovia": 0.0, "calcada": 85.71, "obstaculo": 50.0, "rampa": 66.67, "rampa_faces": 57.14, "sem_calcada": 14.29, "sem_arvore": 28.57, "muitas_arvores": 14.29, "vao": 42.86, "V05400": 7, "V05421": 6, "V05406": 7, "V05412": 7, "V05422": 1, "V05424": 3, "V05427": 4, "V05409": 5, "V05415": 0, "V05418": 0, "V05430": 2, "V05433": 1, "criancas_0a4": 77, "em_favela": false }, "geometry": { "type": "Polygon", "coordinates": [ [ [ -46.627532, -23.552967 ], [ -46.62864, -23.555098 ], [ -46.629283, -23.554844 ], [ -46.629134, -23.554486 ], [ -46.628936, -23.554567 ], [ -46.628861, -23.554414 ], [ -46.628907, -23.554397 ], [ -46.628677, -23.553943 ], [ -46.628605, -23.553967 ], [ -46.628416, -23.553589 ], [ -46.628344, -23.553607 ], [ -46.628176, -23.553362 ], [ -46.627982, -23.552935 ], [ -46.627719, -23.552885 ], [ -46.627532, -23.552967 ] ] ] } },
{ "type": "Feature", "properties": { "CD_SETOR": "355030878000033", "faces": 16, "pavimentada": 100.0, "bueiro": 81.25, "iluminacao": 100.0, "onibus": 43.75, "ciclovia": 31.25, "calcada": 100.0, "obstaculo": 0.0, "rampa": 100.0, "rampa_faces": 100.0, "sem_calcada": 0.0, "sem_arvore": 12.5, "muitas_arvores": 56.25, "vao": 0.0, "V05400": 16, "V05421": 16, "V05406": 16, "V05412": 16, "V05422": 0, "V05424": 0, "V05427": 16, "V05409": 13, "V05415": 7, "V05418": 5, "V05430": 2, "V05433": 9, "criancas_0a4": 54, "em_favela": false }, "geometry": { "type": "Polygon", "coordinates": [ [ [ -46.632875, -23.55251 ], [ -46.6332, -23.553142 ], [ -46.633178, -23.553435 ], [ -46.631925, -23.553742 ], [ -46.631933, -23.55538 ], [ -46.634182, -23.555527 ], [ -46.634371, -23.553052 ], [ -46.634629, -23.552955 ], [ -46.634295, -23.552251 ], [ -46.634308, -23.552 ], [ -46.633126, -23.552493 ], [ -46.632875, -23.55251 ] ] ] } },
{ "type": "Feature", "properties": { "CD_SETOR": "355030878000036", "faces": 38, "pavimentada": 100.0, "bueiro": 100.0, "iluminacao": 100.0, "onibus": 13.16, "ciclovia": 0.0, "calcada": 100.0, "obstaculo": 26.32, "rampa": 89.47, "rampa_faces": 89.47, "sem_calcada": 0.0, "sem_arvore": 63.16, "muitas_arvores": 2.63, "vao": 10.53, "V05400": 38, "V05421": 38, "V05406": 38, "V05412": 38, "V05422": 0, "V05424": 10, "V05427": 34, "V05409": 38, "V05415": 5, "V05418": 0, "V05430": 24, "V05433": 1, "criancas_0a4": 17, "em_favela": false }, "geometry": { "type": "Polygon", "coordinates": [ [ [ -46.633012, -23.535941 ], [ -46.632921, -23.537835 ], [ -46.632658, -23.53782 ], [ -46.630596, -23.538356 ], [ -46.630669, -23.5399 ], [ -46.632023, -23.539576 ], [ -46.63206, -23.540572 ], [ -46.633027, -23.540746 ], [ -46.633968, -23.54126 ], [ -46.634229, -23.541451 ], [ -46.634062, -23.541102 ], [ -46.633969, -23.540641 ], [ -46.633584, -23.53692 ], [ -46.633537, -23.53583 ], [ -46.633012, -23.535941 ] ] ] } },
{ "type": "Feature", "properties": { "CD_SETOR": "355030878000037", "faces": 4, "pavimentada": 100.0, "bueiro": 100.0, "iluminacao": 100.0, "onibus": 0.0, "ciclovia": 0.0, "calcada": 100.0, "obstaculo": 0.0, "rampa": 100.0, "rampa_faces": 100.0, "sem_calcada": 0.0, "sem_arvore": 50.0, "muitas_arvores": 0.0, "vao": 0.0, "V05400": 4, "V05421": 4, "V05406": 4, "V05412": 4, "V05422": 0, "V05424": 0, "V05427": 4, "V05409": 4, "V05415": 0, "V05418": 0, "V05430": 2, "V05433": 0, "criancas_0a4": 17, "em_favela": false }, "geometry": { "type": "Polygon", "coordinates": [ [ [ -46.630669, -23.5399 ], [ -46.630665, -23.540337 ], [ -46.63206, -23.540572 ], [ -46.632023, -23.539576 ], [ -46.630669, -23.5399 ] ] ] } },
{ "type": "Feature", "properties": { "CD_SETOR": "355030878000039", "faces": 16, "pavimentada": 100.0, "bueiro": 100.0, "iluminacao": 100.0, "onibus": 43.75, "ciclovia": 0.0, "calcada": 100.0, "obstaculo": 12.5, "rampa": 68.75, "rampa_faces": 68.75, "sem_calcada": 0.0, "sem_arvore": 43.75, "muitas_arvores": 25.0, "vao": 31.25, "V05400": 16, "V05421": 16, "V05406": 16, "V05412": 16, "V05422": 0, "V05424": 2, "V05427": 11, "V05409": 16, "V05415": 7, "V05418": 0, "V05430": 7, "V05433": 4, "criancas_0a4": 41, "em_favela": false }, "geometry": { "type": "Polygon", "coordinates": [ [ [ -46.629939, -23.536734 ], [ -46.626544, -23.537605 ], [ -46.627281, -23.539321 ], [ -46.628342, -23.538928 ], [ -46.628776, -23.538821 ], [ -46.629063, -23.539505 ], [ -46.630569, -23.539132 ], [ -46.63065, -23.539165 ], [ -46.630621, -23.538428 ], [ -46.629939, -23.536734 ] ] ] } },
{ "type": "Feature", "properties": { "CD_SETOR": "355030878000042", "faces": 1, "pavimentada": 100.0, "bueiro": 100.0, "iluminacao": 100.0, "onibus": 0.0, "ciclovia": 0.0, "calcada": 100.0, "obstaculo": 0.0, "rampa": 100.0, "rampa_faces": 100.0, "sem_calcada": 0.0, "sem_arvore": 0.0, "muitas_arvores": 0.0, "vao": 0.0, "V05400": 1, "V05421": 1, "V05406": 1, "V05412": 1, "V05422": 0, "V05424": 0, "V05427": 1, "V05409": 1, "V05415": 0, "V05418": 0, "V05430": 0, "V05433": 0, "criancas_0a4": 30, "em_favela": false }, "geometry": { "type": "Polygon", "coordinates": [ [ [ -46.629166, -23.553636 ], [ -46.629248, -23.553393 ], [ -46.628955, -23.553288 ], [ -46.628911, -23.553406 ], [ -46.629034, -23.553657 ], [ -46.629166, -23.553636 ] ] ] } },
{ "type": "Feature", "properties": { "CD_SETOR": "355030878000043", "faces": 7, "pavimentada": 100.0, "bueiro": 85.71, "iluminacao": 100.0, "onibus": 28.57, "ciclovia": 0.0, "calcada": 85.71, "obstaculo": 50.0, "rampa": 0.0, "rampa_faces": 0.0, "sem_calcada": 14.29, "sem_arvore": 85.71, "muitas_arvores": 14.29, "vao": 100.0, "V05400": 7, "V05421": 6, "V05406": 7, "V05412": 7, "V05422": 1, "V05424": 3, "V05427": 0, "V05409": 6, "V05415": 2, "V05418": 0, "V05430": 6, "V05433": 1, "criancas_0a4": 19, "em_favela": false }, "geometry": { "type": "Polygon", "coordinates": [ [ [ -46.629828, -23.556278 ], [ -46.630703, -23.556347 ], [ -46.630774, -23.555294 ], [ -46.629917, -23.555233 ], [ -46.629828, -23.556278 ] ] ] } },
{ "type": "Feature", "properties": { "CD_SETOR": "355030878000044", "faces": 7, "pavimentada": 100.0, "bueiro": 100.0, "iluminacao": 100.0, "onibus": 0.0, "ciclovia": 0.0, "calcada": 100.0, "obstaculo": 42.86, "rampa": 71.43, "rampa_faces": 71.43, "sem_calcada": 0.0, "sem_arvore": 42.86, "muitas_arvores": 0.0, "vao": 28.57, "V05400": 7, "V05421": 7, "V05406": 7, "V05412": 7, "V05422": 0, "V05424": 3, "V05427": 5, "V05409": 7, "V05415": 0, "V05418": 0, "V05430": 3, "V05433": 0, "criancas_0a4": 54, "em_favela": false }, "geometry": { "type": "Polygon", "coordinates": [ [ [ -46.631925, -23.553742 ], [ -46.631029, -23.553965 ], [ -46.631037, -23.555313 ], [ -46.631933, -23.55538 ], [ -46.631925, -23.553742 ] ] ] } },
{ "type": "Feature", "properties": { "CD_SETOR": "355030878000045", "faces": 1, "pavimentada": 100.0, "bueiro": 100.0, "iluminacao": 100.0, "onibus": 100.0, "ciclovia": 0.0, "calcada": 100.0, "obstaculo": 100.0, "rampa": 100.0, "rampa_faces": 100.0, "sem_calcada": 0.0, "sem_arvore": 100.0, "muitas_arvores": 0.0, "vao": 0.0, "V05400": 1, "V05421": 1, "V05406": 1, "V05412": 1, "V05422": 0, "V05424": 1, "V05427": 1, "V05409": 1, "V05415": 1, "V05418": 0, "V05430": 1, "V05433": 0, "criancas_0a4": 18, "em_favela": false }, "geometry": { "type": "Polygon", "coordinates": [ [ [ -46.632812, -23.535992 ], [ -46.632799, -23.536264 ], [ -46.632996, -23.536276 ], [ -46.633012, -23.535941 ], [ -46.632812, -23.535992 ] ] ] } },
{ "type": "Feature", "properties": { "CD_SETOR": "355030878000046", "faces": 11, "pavimentada": 100.0, "bueiro": 100.0, "iluminacao": 100.0, "onibus": 18.18, "ciclovia": 0.0, "calcada": 100.0, "obstaculo": 0.0, "rampa": 100.0, "rampa_faces": 100.0, "sem_calcada": 0.0, "sem_arvore": 72.73, "muitas_arvores": 0.0, "vao": 0.0, "V05400": 11, "V05421": 11, "V05406": 11, "V05412": 11, "V05422": 0, "V05424": 0, "V05427": 11, "V05409": 11, "V05415": 2, "V05418": 0, "V05430": 8, "V05433": 0, "criancas_0a4": 16, "em_favela": false }, "geometry": { "type": "Polygon", "coordinates": [ [ [ -46.627281, -23.539321 ], [ -46.627537, -23.539899 ], [ -46.62778, -23.539873 ], [ -46.629149, -23.540099 ], [ -46.629233, -23.540051 ], [ -46.629299, -23.540069 ], [ -46.629442, -23.54041 ], [ -46.629714, -23.540181 ], [ -46.630665, -23.540337 ], [ -46.63065, -23.539165 ], [ -46.630606, -23.539135 ], [ -46.629063, -23.539505 ], [ -46.628776, -23.538821 ], [ -46.628342, -23.538928 ], [ -46.627281, -23.539321 ] ] ] } },
{ "type": "Feature", "properties": { "CD_SETOR": "355030878000047", "faces": 8, "pavimentada": 100.0, "bueiro": 100.0, "iluminacao": 100.0, "onibus": 37.5, "ciclovia": 0.0, "calcada": 100.0, "obstaculo": 0.0, "rampa": 100.0, "rampa_faces": 100.0, "sem_calcada": 0.0, "sem_arvore": 87.5, "muitas_arvores": 12.5, "vao": 0.0, "V05400": 8, "V05421": 8, "V05406": 8, "V05412": 8, "V05422": 0, "V05424": 0, "V05427": 8, "V05409": 8, "V05415": 3, "V05418": 0, "V05430": 7, "V05433": 1, "criancas_0a4": 12, "em_favela": false }, "geometry": { "type": "Polygon", "coordinates": [ [ [ -46.629275, -23.549047 ], [ -46.629411, -23.549192 ], [ -46.630049, -23.549472 ], [ -46.630808, -23.547965 ], [ -46.630277, -23.547639 ], [ -46.629275, -23.549047 ] ] ] } },
{ "type": "Feature", "properties": { "CD_SETOR": "355030878000048", "faces": 4, "pavimentada": 100.0, "bueiro": 100.0, "iluminacao": 100.0, "onibus": 50.0, "ciclovia": 0.0, "calcada": 100.0, "obstaculo": 50.0, "rampa": 100.0, "rampa_faces": 100.0, "sem_calcada": 0.0, "sem_arvore": 75.0, "muitas_arvores": 25.0, "vao": 0.0, "V05400": 4, "V05421": 4, "V05406": 4, "V05412": 4, "V05422": 0, "V05424": 2, "V05427": 4, "V05409": 4, "V05415": 2, "V05418": 0, "V05430": 3, "V05433": 1, "criancas_0a4": 11, "em_favela": false }, "geometry": { "type": "Polygon", "coordinates": [ [ [ -46.630049, -23.549472 ], [ -46.630725, -23.549769 ], [ -46.631481, -23.548202 ], [ -46.630808, -23.547965 ], [ -46.630049, -23.549472 ] ] ] } },
{ "type": "Feature", "properties": { "CD_SETOR": "355030878000049", "faces": 4, "pavimentada": 100.0, "bueiro": 100.0, "iluminacao": 100.0, "onibus": 75.0, "ciclovia": 0.0, "calcada": 100.0, "obstaculo": 0.0, "rampa": 100.0, "rampa_faces": 100.0, "sem_calcada": 0.0, "sem_arvore": 75.0, "muitas_arvores": 25.0, "vao": 0.0, "V05400": 4, "V05421": 4, "V05406": 4, "V05412": 4, "V05422": 0, "V05424": 0, "V05427": 4, "V05409": 4, "V05415": 3, "V05418": 0, "V05430": 3, "V05433": 1, "criancas_0a4": 0, "em_favela": false }, "geometry": { "type": "Polygon", "coordinates": [ [ [ -46.630725, -23.549769 ], [ -46.631543, -23.550123 ], [ -46.631701, -23.550101 ], [ -46.631901, -23.549864 ], [ -46.632023, -23.54938 ], [ -46.631187, -23.549285 ], [ -46.631014, -23.549217 ], [ -46.630725, -23.549769 ] ] ] } },
{ "type": "Feature", "properties": { "CD_SETOR": "355030878000051", "faces": 23, "pavimentada": 100.0, "bueiro": 100.0, "iluminacao": 100.0, "onibus": 39.13, "ciclovia": 21.74, "calcada": 100.0, "obstaculo": 21.74, "rampa": 95.65, "rampa_faces": 95.65, "sem_calcada": 0.0, "sem_arvore": 26.09, "muitas_arvores": 56.52, "vao": 4.35, "V05400": 23, "V05421": 23, "V05406": 23, "V05412": 23, "V05422": 0, "V05424": 5, "V05427": 22, "V05409": 23, "V05415": 9, "V05418": 5, "V05430": 6, "V05433": 13, "criancas_0a4": 8, "em_favela": false }, "geometry": { "type": "Polygon", "coordinates": [ [ [ -46.629275, -23.549047 ], [ -46.628246, -23.550647 ], [ -46.628602, -23.550875 ], [ -46.629117, -23.550353 ], [ -46.629157, -23.551404 ], [ -46.629276, -23.551432 ], [ -46.63001, -23.55194 ], [ -46.630655, -23.551248 ], [ -46.630769, -23.551257 ], [ -46.631143, -23.551594 ], [ -46.631151, -23.551661 ], [ -46.631661, -23.551116 ], [ -46.632502, -23.55177 ], [ -46.631866, -23.550474 ], [ -46.631831, -23.550282 ], [ -46.631901, -23.549864 ], [ -46.631701, -23.550101 ], [ -46.631543, -23.550123 ], [ -46.629411, -23.549192 ], [ -46.629275, -23.549047 ] ] ] } },
{ "type": "Feature", "properties": { "CD_SETOR": "355030878000052", "faces": 25, "pavimentada": 100.0, "bueiro": 100.0, "iluminacao": 100.0, "onibus": 36.0, "ciclovia": 36.0, "calcada": 100.0, "obstaculo": 0.0, "rampa": 100.0, "rampa_faces": 100.0, "sem_calcada": 0.0, "sem_arvore": 8.0, "muitas_arvores": 84.0, "vao": 0.0, "V05400": 25, "V05421": 25, "V05406": 25, "V05412": 25, "V05422": 0, "V05424": 0, "V05427": 25, "V05409": 25, "V05415": 9, "V05418": 9, "V05430": 2, "V05433": 21, "criancas_0a4": 9, "em_favela": false }, "geometry": { "type": "Polygon", "coordinates": [ [ [ -46.631901, -23.549864 ], [ -46.631831, -23.550282 ], [ -46.631866, -23.550474 ], [ -46.632502, -23.55177 ], [ -46.631661, -23.551116 ], [ -46.630465, -23.552407 ], [ -46.630432, -23.552513 ], [ -46.631689, -23.552511 ], [ -46.631693, -23.552139 ], [ -46.631816, -23.55203 ], [ -46.632113, -23.552251 ], [ -46.632115, -23.552511 ], [ -46.633126, -23.552493 ], [ -46.634864, -23.551745 ], [ -46.63444, -23.550837 ], [ -46.633803, -23.549647 ], [ -46.633609, -23.549191 ], [ -46.633634, -23.548996 ], [ -46.633426, -23.549028 ], [ -46.632988, -23.54891 ], [ -46.633138, -23.549395 ], [ -46.633111, -23.549481 ], [ -46.633254, -23.549877 ], [ -46.632557, -23.550095 ], [ -46.631901, -23.549864 ] ] ] } },
{ "type": "Feature", "properties": { "CD_SETOR": "355030878000053", "faces": 1, "pavimentada": 100.0, "bueiro": 100.0, "iluminacao": 100.0, "onibus": 0.0, "ciclovia": 0.0, "calcada": 100.0, "obstaculo": 0.0, "rampa": 100.0, "rampa_faces": 100.0, "sem_calcada": 0.0, "sem_arvore": 0.0, "muitas_arvores": 100.0, "vao": 0.0, "V05400": 1, "V05421": 1, "V05406": 1, "V05412": 1, "V05422": 0, "V05424": 0, "V05427": 1, "V05409": 1, "V05415": 0, "V05418": 0, "V05430": 0, "V05433": 1, "criancas_0a4": 0, "em_favela": false }, "geometry": { "type": "Polygon", "coordinates": [ [ [ -46.631689, -23.552511 ], [ -46.632115, -23.552511 ], [ -46.632113, -23.552251 ], [ -46.631816, -23.55203 ], [ -46.631693, -23.552139 ], [ -46.631689, -23.552511 ] ] ] } },
{ "type": "Feature", "properties": { "CD_SETOR": "355030878000054", "faces": 32, "pavimentada": 100.0, "bueiro": 100.0, "iluminacao": 100.0, "onibus": 25.0, "ciclovia": 50.0, "calcada": 100.0, "obstaculo": 0.0, "rampa": 59.38, "rampa_faces": 59.38, "sem_calcada": 0.0, "sem_arvore": 59.38, "muitas_arvores": 25.0, "vao": 40.62, "V05400": 32, "V05421": 32, "V05406": 32, "V05412": 32, "V05422": 0, "V05424": 0, "V05427": 19, "V05409": 32, "V05415": 8, "V05418": 16, "V05430": 19, "V05433": 8, "criancas_0a4": 67, "em_favela": false }, "geometry": { "type": "Polygon", "coordinates": [ [ [ -46.633634, -23.548996 ], [ -46.633609, -23.549191 ], [ -46.634018, -23.550096 ], [ -46.636693, -23.549527 ], [ -46.63756, -23.54941 ], [ -46.637923, -23.549093 ], [ -46.637644, -23.54887 ], [ -46.637499, -23.548891 ], [ -46.637459, -23.548713 ], [ -46.636849, -23.547592 ], [ -46.634341, -23.548825 ], [ -46.633634, -23.548996 ] ] ] } },
{ "type": "Feature", "properties": { "CD_SETOR": "355030878000055", "faces": 3, "pavimentada": 100.0, "bueiro": 100.0, "iluminacao": 100.0, "onibus": 0.0, "ciclovia": 0.0, "calcada": 100.0, "obstaculo": 66.67, "rampa": 33.33, "rampa_faces": 33.33, "sem_calcada": 0.0, "sem_arvore": 100.0, "muitas_arvores": 0.0, "vao": 66.67, "V05400": 3, "V05421": 3, "V05406": 3, "V05412": 3, "V05422": 0, "V05424": 2, "V05427": 1, "V05409": 3, "V05415": 0, "V05418": 0, "V05430": 3, "V05433": 0, "criancas_0a4": 3, "em_favela": false }, "geometry": { "type": "Polygon", "coordinates": [ [ [ -46.637644, -23.54887 ], [ -46.637923, -23.549093 ], [ -46.638387, -23.54864 ], [ -46.638523, -23.548562 ], [ -46.638491, -23.548523 ], [ -46.637644, -23.54887 ] ] ] } },
{ "type": "Feature", "properties": { "CD_SETOR": "355030878000056", "faces": 3, "pavimentada": 100.0, "bueiro": 100.0, "iluminacao": 100.0, "onibus": 0.0, "ciclovia": 0.0, "calcada": 100.0, "obstaculo": 66.67, "rampa": 100.0, "rampa_faces": 100.0, "sem_calcada": 0.0, "sem_arvore": 66.67, "muitas_arvores": 0.0, "vao": 0.0, "V05400": 3, "V05421": 3, "V05406": 3, "V05412": 3, "V05422": 0, "V05424": 2, "V05427": 3, "V05409": 3, "V05415": 0, "V05418": 0, "V05430": 2, "V05433": 0, "criancas_0a4": 15, "em_favela": false }, "geometry": { "type": "Polygon", "coordinates": [ [ [ -46.638491, -23.548523 ], [ -46.638523, -23.548562 ], [ -46.638387, -23.54864 ], [ -46.637923, -23.549093 ], [ -46.638407, -23.549501 ], [ -46.63863, -23.549132 ], [ -46.638695, -23.549068 ], [ -46.638798, -23.549106 ], [ -46.638862, -23.548748 ], [ -46.638742, -23.548398 ], [ -46.638491, -23.548523 ] ] ] } },
{ "type": "Feature", "properties": { "CD_SETOR": "355030878000057", "faces": 27, "pavimentada": 100.0, "bueiro": 100.0, "iluminacao": 100.0, "onibus": 18.52, "ciclovia": 22.22, "calcada": 100.0, "obstaculo": 18.52, "rampa": 92.59, "rampa_faces": 92.59, "sem_calcada": 0.0, "sem_arvore": 70.37, "muitas_arvores": 11.11, "vao": 7.41, "V05400": 27, "V05421": 27, "V05406": 27, "V05412": 27, "V05422": 0, "V05424": 5, "V05427": 25, "V05409": 27, "V05415": 5, "V05418": 6, "V05430": 19, "V05433": 3, "criancas_0a4": 3, "em_favela": false }, "geometry": { "type": "Polygon", "coordinates": [ [ [ -46.632548, -23.544284 ], [ -46.63303, -23.544563 ], [ -46.634354, -23.545869 ], [ -46.634456, -23.54573 ], [ -46.635364, -23.545201 ], [ -46.635612, -23.544957 ], [ -46.636247, -23.544579 ], [ -46.634229, -23.541451 ], [ -46.633968, -23.54126 ], [ -46.633027, -23.540746 ], [ -46.632762, -23.54069 ], [ -46.632763, -23.541391 ], [ -46.633161, -23.54297 ], [ -46.633303, -23.543233 ], [ -46.632464, -23.543626 ], [ -46.632548, -23.544284 ] ] ] } },
{ "type": "Feature", "properties": { "CD_SETOR": "355030878000058", "faces": 26, "pavimentada": 100.0, "bueiro": 100.0, "iluminacao": 100.0, "onibus": 11.54, "ciclovia": 19.23, "calcada": 100.0, "obstaculo": 11.54, "rampa": 100.0, "rampa_faces": 100.0, "sem_calcada": 0.0, "sem_arvore": 88.46, "muitas_arvores": 7.69, "vao": 0.0, "V05400": 26, "V05421": 26, "V05406": 26, "V05412": 26, "V05422": 0, "V05424": 3, "V05427": 26, "V05409": 26, "V05415": 3, "V05418": 5, "V05430": 23, "V05433": 2, "criancas_0a4": 8, "em_favela": false }, "geometry": { "type": "Polygon", "coordinates": [ [ [ -46.630524, -23.544498 ], [ -46.631431, -23.545482 ], [ -46.631524, -23.545486 ], [ -46.6317, -23.545769 ], [ -46.633479, -23.547676 ], [ -46.633888, -23.548235 ], [ -46.634186, -23.547337 ], [ -46.634354, -23.545869 ], [ -46.63303, -23.544563 ], [ -46.632621, -23.544292 ], [ -46.631045, -23.54416 ], [ -46.630822, -23.544245 ], [ -46.630524, -23.544498 ] ] ] } },
{ "type": "Feature", "properties": { "CD_SETOR": "355030878000059", "faces": 10, "pavimentada": 100.0, "bueiro": 100.0, "iluminacao": 100.0, "onibus": 10.0, "ciclovia": 20.0, "calcada": 100.0, "obstaculo": 70.0, "rampa": 40.0, "rampa_faces": 40.0, "sem_calcada": 0.0, "sem_arvore": 100.0, "muitas_arvores": 0.0, "vao": 60.0, "V05400": 10, "V05421": 10, "V05406": 10, "V05412": 10, "V05422": 0, "V05424": 7, "V05427": 4, "V05409": 10, "V05415": 1, "V05418": 2, "V05430": 10, "V05433": 0, "criancas_0a4": 15, "em_favela": false }, "geometry": { "type": "Polygon", "coordinates": [ [ [ -46.630024, -23.553194 ], [ -46.630305, -23.554141 ], [ -46.630863, -23.554005 ], [ -46.630811, -23.553854 ], [ -46.630961, -23.553813 ], [ -46.630884, -23.553538 ], [ -46.630923, -23.553524 ], [ -46.630961, -23.553518 ], [ -46.631086, -23.553948 ], [ -46.633178, -23.553435 ], [ -46.6332, -23.553142 ], [ -46.633039, -23.552845 ], [ -46.631891, -23.552864 ], [ -46.6319, -23.55325 ], [ -46.631445, -23.553361 ], [ -46.631457, -23.553112 ], [ -46.630763, -23.553285 ], [ -46.630678, -23.553147 ], [ -46.630024, -23.553194 ] ] ] } },
{ "type": "Feature", "properties": { "CD_SETOR": "355030878000060", "faces": 2, "pavimentada": 100.0, "bueiro": 100.0, "iluminacao": 100.0, "onibus": 0.0, "ciclovia": 0.0, "calcada": 100.0, "obstaculo": 100.0, "rampa": 50.0, "rampa_faces": 50.0, "sem_calcada": 0.0, "sem_arvore": 100.0, "muitas_arvores": 0.0, "vao": 50.0, "V05400": 2, "V05421": 2, "V05406": 2, "V05412": 2, "V05422": 0, "V05424": 2, "V05427": 1, "V05409": 2, "V05415": 0, "V05418": 0, "V05430": 2, "V05433": 0, "criancas_0a4": 3, "em_favela": false }, "geometry": { "type": "Polygon", "coordinates": [ [ [ -46.630863, -23.554005 ], [ -46.631086, -23.553948 ], [ -46.630961, -23.553518 ], [ -46.630884, -23.553538 ], [ -46.630961, -23.553813 ], [ -46.630811, -23.553854 ], [ -46.630863, -23.554005 ] ] ] } },
{ "type": "Feature", "properties": { "CD_SETOR": "355030878000061", "faces": 1, "pavimentada": 100.0, "bueiro": 100.0, "iluminacao": 100.0, "onibus": 0.0, "ciclovia": 0.0, "calcada": 100.0, "obstaculo": 100.0, "rampa": 100.0, "rampa_faces": 100.0, "sem_calcada": 0.0, "sem_arvore": 0.0, "muitas_arvores": 100.0, "vao": 0.0, "V05400": 1, "V05421": 1, "V05406": 1, "V05412": 1, "V05422": 0, "V05424": 1, "V05427": 1, "V05409": 1, "V05415": 0, "V05418": 0, "V05430": 0, "V05433": 1, "criancas_0a4": 6, "em_favela": false }, "geometry": { "type": "Polygon", "coordinates": [ [ [ -46.627507, -23.552242 ], [ -46.627461, -23.552321 ], [ -46.627559, -23.552393 ], [ -46.628274, -23.55263 ], [ -46.628328, -23.552184 ], [ -46.627718, -23.552162 ], [ -46.627507, -23.552242 ] ] ] } },
{ "type": "Feature", "properties": { "CD_SETOR": "355030878000063", "faces": 1, "pavimentada": 100.0, "bueiro": 100.0, "iluminacao": 100.0, "onibus": 0.0, "ciclovia": 0.0, "calcada": 100.0, "obstaculo": 100.0, "rampa": 0.0, "rampa_faces": 0.0, "sem_calcada": 0.0, "sem_arvore": 0.0, "muitas_arvores": 0.0, "vao": 100.0, "V05400": 1, "V05421": 1, "V05406": 1, "V05412": 1, "V05422": 0, "V05424": 1, "V05427": 0, "V05409": 1, "V05415": 0, "V05418": 0, "V05430": 0, "V05433": 0, "criancas_0a4": 11, "em_favela": false }, "geometry": { "type": "Polygon", "coordinates": [ [ [ -46.628447, -23.552651 ], [ -46.628498, -23.552195 ], [ -46.628328, -23.552184 ], [ -46.628274, -23.55263 ], [ -46.628447, -23.552651 ] ] ] } },
{ "type": "Feature", "properties": { "CD_SETOR": "355030878000064", "faces": 2, "pavimentada": 100.0, "bueiro": 100.0, "iluminacao": 100.0, "onibus": 0.0, "ciclovia": 50.0, "calcada": 100.0, "obstaculo": 0.0, "rampa": 100.0, "rampa_faces": 100.0, "sem_calcada": 0.0, "sem_arvore": 50.0, "muitas_arvores": 50.0, "vao": 0.0, "V05400": 2, "V05421": 2, "V05406": 2, "V05412": 2, "V05422": 0, "V05424": 0, "V05427": 2, "V05409": 2, "V05415": 0, "V05418": 1, "V05430": 1, "V05433": 1, "criancas_0a4": 12, "em_favela": false }, "geometry": { "type": "Polygon", "coordinates": [ [ [ -46.629321, -23.553043 ], [ -46.629732, -23.5532 ], [ -46.629828, -23.55316 ], [ -46.630024, -23.553194 ], [ -46.630678, -23.553147 ], [ -46.630763, -23.553285 ], [ -46.631457, -23.553112 ], [ -46.631445, -23.553361 ], [ -46.6319, -23.55325 ], [ -46.631891, -23.552864 ], [ -46.633039, -23.552845 ], [ -46.632875, -23.55251 ], [ -46.629551, -23.552506 ], [ -46.629321, -23.553043 ] ] ] } },
{ "type": "Feature", "properties": { "CD_SETOR": "355030878000065", "faces": 1, "pavimentada": 100.0, "bueiro": 100.0, "iluminacao": 100.0, "onibus": 0.0, "ciclovia": 0.0, "calcada": 100.0, "obstaculo": 100.0, "rampa": 100.0, "rampa_faces": 100.0, "sem_calcada": 0.0, "sem_arvore": 100.0, "muitas_arvores": 0.0, "vao": 0.0, "V05400": 1, "V05421": 1, "V05406": 1, "V05412": 1, "V05422": 0, "V05424": 1, "V05427": 1, "V05409": 1, "V05415": 0, "V05418": 0, "V05430": 1, "V05433": 0, "criancas_0a4": 12, "em_favela": false }, "geometry": { "type": "Polygon", "coordinates": [ [ [ -46.630006, -23.553921 ], [ -46.630214, -23.553842 ], [ -46.630024, -23.553194 ], [ -46.629828, -23.55316 ], [ -46.630006, -23.553921 ] ] ] } },
{ "type": "Feature", "properties": { "CD_SETOR": "355030878000066", "faces": 3, "pavimentada": 100.0, "bueiro": 100.0, "iluminacao": 100.0, "onibus": 0.0, "ciclovia": 0.0, "calcada": 100.0, "obstaculo": 0.0, "rampa": 100.0, "rampa_faces": 100.0, "sem_calcada": 0.0, "sem_arvore": 0.0, "muitas_arvores": 66.67, "vao": 0.0, "V05400": 3, "V05421": 3, "V05406": 3, "V05412": 3, "V05422": 0, "V05424": 0, "V05427": 3, "V05409": 3, "V05415": 0, "V05418": 0, "V05430": 0, "V05433": 2, "criancas_0a4": 13, "em_favela": false }, "geometry": { "type": "Polygon", "coordinates": [ [ [ -46.630214, -23.553842 ], [ -46.629709, -23.55403 ], [ -46.629829, -23.554262 ], [ -46.630305, -23.554141 ], [ -46.630214, -23.553842 ] ] ] } },
{ "type": "Feature", "properties": { "CD_SETOR": "355030878000067", "faces": 1, "pavimentada": 100.0, "bueiro": 100.0, "iluminacao": 100.0, "onibus": 0.0, "ciclovia": 0.0, "calcada": 100.0, "obstaculo": 0.0, "rampa": 100.0, "rampa_faces": 100.0, "sem_calcada": 0.0, "sem_arvore": 100.0, "muitas_arvores": 0.0, "vao": 0.0, "V05400": 1, "V05421": 1, "V05406": 1, "V05412": 1, "V05422": 0, "V05424": 0, "V05427": 1, "V05409": 1, "V05415": 0, "V05418": 0, "V05430": 1, "V05433": 0, "criancas_0a4": 11, "em_favela": false }, "geometry": { "type": "Polygon", "coordinates": [ [ [ -46.629391, -23.55346 ], [ -46.629419, -23.553483 ], [ -46.629732, -23.5532 ], [ -46.629571, -23.553149 ], [ -46.629391, -23.55346 ] ] ] } },
{ "type": "Feature", "properties": { "CD_SETOR": "355030878000068", "faces": 1, "pavimentada": 100.0, "bueiro": 100.0, "iluminacao": 100.0, "onibus": 0.0, "ciclovia": 0.0, "calcada": 100.0, "obstaculo": 0.0, "rampa": 100.0, "rampa_faces": 100.0, "sem_calcada": 0.0, "sem_arvore": 100.0, "muitas_arvores": 0.0, "vao": 0.0, "V05400": 1, "V05421": 1, "V05406": 1, "V05412": 1, "V05422": 0, "V05424": 0, "V05427": 1, "V05409": 1, "V05415": 0, "V05418": 0, "V05430": 1, "V05433": 0, "criancas_0a4": 13, "em_favela": false }, "geometry": { "type": "Polygon", "coordinates": [ [ [ -46.629331, -23.553424 ], [ -46.629391, -23.55346 ], [ -46.629571, -23.553149 ], [ -46.629468, -23.553107 ], [ -46.629331, -23.553424 ] ] ] } },
{ "type": "Feature", "properties": { "CD_SETOR": "355030878000069", "faces": 5, "pavimentada": 100.0, "bueiro": 100.0, "iluminacao": 100.0, "onibus": 20.0, "ciclovia": 0.0, "calcada": 100.0, "obstaculo": 100.0, "rampa": 60.0, "rampa_faces": 60.0, "sem_calcada": 0.0, "sem_arvore": 40.0, "muitas_arvores": 40.0, "vao": 40.0, "V05400": 5, "V05421": 5, "V05406": 5, "V05412": 5, "V05422": 0, "V05424": 5, "V05427": 3, "V05409": 5, "V05415": 1, "V05418": 0, "V05430": 2, "V05433": 2, "criancas_0a4": 9, "em_favela": false }, "geometry": { "type": "Polygon", "coordinates": [ [ [ -46.627156, -23.554376 ], [ -46.628062, -23.55399 ], [ -46.627532, -23.552967 ], [ -46.627825, -23.552884 ], [ -46.627969, -23.552534 ], [ -46.627461, -23.552321 ], [ -46.627349, -23.552607 ], [ -46.627156, -23.554376 ] ] ] } },
{ "type": "Feature", "properties": { "CD_SETOR": "355030878000070", "faces": 1, "pavimentada": 100.0, "bueiro": 100.0, "iluminacao": 100.0, "onibus": 0.0, "ciclovia": 0.0, "calcada": 100.0, "obstaculo": 100.0, "rampa": 0.0, "rampa_faces": 0.0, "sem_calcada": 0.0, "sem_arvore": 0.0, "muitas_arvores": 0.0, "vao": 100.0, "V05400": 1, "V05421": 1, "V05406": 1, "V05412": 1, "V05422": 0, "V05424": 1, "V05427": 0, "V05409": 1, "V05415": 0, "V05418": 0, "V05430": 0, "V05433": 0, "criancas_0a4": 15, "em_favela": false }, "geometry": { "type": "Polygon", "coordinates": [ [ [ -46.627825, -23.552884 ], [ -46.628431, -23.5531 ], [ -46.628403, -23.55305 ], [ -46.628514, -23.552781 ], [ -46.628431, -23.552755 ], [ -46.628447, -23.552651 ], [ -46.627969, -23.552534 ], [ -46.627825, -23.552884 ] ] ] } },
{ "type": "Feature", "properties": { "CD_SETOR": "355030878000071", "faces": 1, "pavimentada": 100.0, "bueiro": 100.0, "iluminacao": 100.0, "onibus": 0.0, "ciclovia": 0.0, "calcada": 100.0, "obstaculo": 0.0, "rampa": 100.0, "rampa_faces": 100.0, "sem_calcada": 0.0, "sem_arvore": 0.0, "muitas_arvores": 0.0, "vao": 0.0, "V05400": 1, "V05421": 1, "V05406": 1, "V05412": 1, "V05422": 0, "V05424": 0, "V05427": 1, "V05409": 1, "V05415": 0, "V05418": 0, "V05430": 0, "V05433": 0, "criancas_0a4": 10, "em_favela": false }, "geometry": { "type": "Polygon", "coordinates": [ [ [ -46.62909, -23.553337 ], [ -46.629214, -23.553381 ], [ -46.629352, -23.553055 ], [ -46.629208, -23.553008 ], [ -46.62909, -23.553337 ] ] ] } },
{ "type": "Feature", "properties": { "CD_SETOR": "355030878000072", "faces": 1, "pavimentada": 100.0, "bueiro": 100.0, "iluminacao": 100.0, "onibus": 0.0, "ciclovia": 0.0, "calcada": 100.0, "obstaculo": 0.0, "rampa": 100.0, "rampa_faces": 100.0, "sem_calcada": 0.0, "sem_arvore": 0.0, "muitas_arvores": 0.0, "vao": 0.0, "V05400": 1, "V05421": 1, "V05406": 1, "V05412": 1, "V05422": 0, "V05424": 0, "V05427": 1, "V05409": 1, "V05415": 0, "V05418": 0, "V05430": 0, "V05433": 0, "criancas_0a4": 35, "em_favela": false }, "geometry": { "type": "Polygon", "coordinates": [ [ [ -46.628802, -23.553234 ], [ -46.62909, -23.553337 ], [ -46.629208, -23.553008 ], [ -46.628938, -23.55292 ], [ -46.628802, -23.553234 ] ] ] } },
{ "type": "Feature", "properties": { "CD_SETOR": "355030878000073", "faces": 1, "pavimentada": 100.0, "bueiro": 100.0, "iluminacao": 100.0, "onibus": 0.0, "ciclovia": 0.0, "calcada": 100.0, "obstaculo": 0.0, "rampa": 0.0, "rampa_faces": 0.0, "sem_calcada": 0.0, "sem_arvore": 0.0, "muitas_arvores": 0.0, "vao": 100.0, "V05400": 1, "V05421": 1, "V05406": 1, "V05412": 1, "V05422": 0, "V05424": 0, "V05427": 0, "V05409": 1, "V05415": 0, "V05418": 0, "V05430": 0, "V05433": 0, "criancas_0a4": 15, "em_favela": false }, "geometry": { "type": "Polygon", "coordinates": [ [ [ -46.628533, -23.553137 ], [ -46.628802, -23.553234 ], [ -46.628938, -23.55292 ], [ -46.628656, -23.552827 ], [ -46.628533, -23.553137 ] ] ] } },
{ "type": "Feature", "properties": { "CD_SETOR": "355030878000074", "faces": 1, "pavimentada": 100.0, "bueiro": 100.0, "iluminacao": 100.0, "onibus": 0.0, "ciclovia": 0.0, "calcada": 100.0, "obstaculo": 0.0, "rampa": 0.0, "rampa_faces": 0.0, "sem_calcada": 0.0, "sem_arvore": 0.0, "muitas_arvores": 0.0, "vao": 100.0, "V05400": 1, "V05421": 1, "V05406": 1, "V05412": 1, "V05422": 0, "V05424": 0, "V05427": 0, "V05409": 1, "V05415": 0, "V05418": 0, "V05430": 0, "V05433": 0, "criancas_0a4": 6, "em_favela": false }, "geometry": { "type": "Polygon", "coordinates": [ [ [ -46.628403, -23.55305 ], [ -46.628533, -23.553137 ], [ -46.628656, -23.552827 ], [ -46.628514, -23.552781 ], [ -46.628403, -23.55305 ] ] ] } },
{ "type": "Feature", "properties": { "CD_SETOR": "355030878000075", "faces": 4, "pavimentada": 75.0, "bueiro": 75.0, "iluminacao": 75.0, "onibus": 0.0, "ciclovia": 0.0, "calcada": 75.0, "obstaculo": 0.0, "rampa": 100.0, "rampa_faces": 75.0, "sem_calcada": 0.0, "sem_arvore": 0.0, "muitas_arvores": 25.0, "vao": 0.0, "V05400": 4, "V05421": 3, "V05406": 3, "V05412": 3, "V05422": 0, "V05424": 0, "V05427": 3, "V05409": 3, "V05415": 0, "V05418": 0, "V05430": 0, "V05433": 1, "criancas_0a4": 15, "em_favela": false }, "geometry": { "type": "Polygon", "coordinates": [ [ [ -46.628431, -23.5531 ], [ -46.628867, -23.553955 ], [ -46.629229, -23.55382 ], [ -46.629166, -23.553636 ], [ -46.629034, -23.553657 ], [ -46.628911, -23.553406 ], [ -46.628955, -23.553288 ], [ -46.628431, -23.5531 ] ] ] } },
{ "type": "Feature", "properties": { "CD_SETOR": "355030878000076", "faces": 1, "pavimentada": 100.0, "bueiro": 100.0, "iluminacao": 100.0, "onibus": 0.0, "ciclovia": 0.0, "calcada": 100.0, "obstaculo": 0.0, "rampa": 100.0, "rampa_faces": 100.0, "sem_calcada": 0.0, "sem_arvore": 0.0, "muitas_arvores": 0.0, "vao": 0.0, "V05400": 1, "V05421": 1, "V05406": 1, "V05412": 1, "V05422": 0, "V05424": 0, "V05427": 1, "V05409": 1, "V05415": 0, "V05418": 0, "V05430": 0, "V05433": 0, "criancas_0a4": 6, "em_favela": false }, "geometry": { "type": "Polygon", "coordinates": [ [ [ -46.629166, -23.553636 ], [ -46.629361, -23.554064 ], [ -46.629658, -23.553933 ], [ -46.629459, -23.553535 ], [ -46.629364, -23.553437 ], [ -46.629248, -23.553393 ], [ -46.629166, -23.553636 ] ] ] } },
{ "type": "Feature", "properties": { "CD_SETOR": "355030878000077", "faces": 1, "pavimentada": 100.0, "bueiro": 100.0, "iluminacao": 100.0, "onibus": 0.0, "ciclovia": 0.0, "calcada": 100.0, "obstaculo": 0.0, "rampa": 0.0, "rampa_faces": 0.0, "sem_calcada": 0.0, "sem_arvore": 0.0, "muitas_arvores": 0.0, "vao": 100.0, "V05400": 1, "V05421": 1, "V05406": 1, "V05412": 1, "V05422": 0, "V05424": 0, "V05427": 0, "V05409": 1, "V05415": 0, "V05418": 0, "V05430": 0, "V05433": 0, "criancas_0a4": 30, "em_favela": false }, "geometry": { "type": "Polygon", "coordinates": [ [ [ -46.628867, -23.553955 ], [ -46.628939, -23.554099 ], [ -46.629292, -23.553937 ], [ -46.629229, -23.55382 ], [ -46.628867, -23.553955 ] ] ] } },
{ "type": "Feature", "properties": { "CD_SETOR": "355030878000078", "faces": 1, "pavimentada": 100.0, "bueiro": 100.0, "iluminacao": 100.0, "onibus": 0.0, "ciclovia": 0.0, "calcada": 100.0, "obstaculo": 100.0, "rampa": 0.0, "rampa_faces": 0.0, "sem_calcada": 0.0, "sem_arvore": 100.0, "muitas_arvores": 0.0, "vao": 100.0, "V05400": 1, "V05421": 1, "V05406": 1, "V05412": 1, "V05422": 0, "V05424": 1, "V05427": 0, "V05409": 1, "V05415": 0, "V05418": 0, "V05430": 1, "V05433": 0, "criancas_0a4": 27, "em_favela": false }, "geometry": { "type": "Polygon", "coordinates": [ [ [ -46.628939, -23.554099 ], [ -46.628997, -23.554215 ], [ -46.629361, -23.554064 ], [ -46.629292, -23.553937 ], [ -46.628939, -23.554099 ] ] ] } },
{ "type": "Feature", "properties": { "CD_SETOR": "355030878000079", "faces": 2, "pavimentada": 100.0, "bueiro": 100.0, "iluminacao": 100.0, "onibus": 0.0, "ciclovia": 0.0, "calcada": 100.0, "obstaculo": 50.0, "rampa": 0.0, "rampa_faces": 0.0, "sem_calcada": 0.0, "sem_arvore": 50.0, "muitas_arvores": 0.0, "vao": 100.0, "V05400": 2, "V05421": 2, "V05406": 2, "V05412": 2, "V05422": 0, "V05424": 1, "V05427": 0, "V05409": 2, "V05415": 0, "V05418": 0, "V05430": 1, "V05433": 0, "criancas_0a4": 10, "em_favela": false }, "geometry": { "type": "Polygon", "coordinates": [ [ [ -46.62822, -23.553381 ], [ -46.62851, -23.553245 ], [ -46.628431, -23.5531 ], [ -46.627982, -23.552935 ], [ -46.62822, -23.553381 ] ] ] } },
{ "type": "Feature", "properties": { "CD_SETOR": "355030878000080", "faces": 1, "pavimentada": 100.0, "bueiro": 100.0, "iluminacao": 100.0, "onibus": 0.0, "ciclovia": 0.0, "calcada": 100.0, "obstaculo": 0.0, "rampa": 0.0, "rampa_faces": 0.0, "sem_calcada": 0.0, "sem_arvore": 100.0, "muitas_arvores": 0.0, "vao": 100.0, "V05400": 1, "V05421": 1, "V05406": 1, "V05412": 1, "V05422": 0, "V05424": 0, "V05427": 0, "V05409": 1, "V05415": 0, "V05418": 0, "V05430": 1, "V05433": 0, "criancas_0a4": 18, "em_favela": false }, "geometry": { "type": "Polygon", "coordinates": [ [ [ -46.62822, -23.553381 ], [ -46.628344, -23.553607 ], [ -46.628637, -23.5535 ], [ -46.62851, -23.553245 ], [ -46.62822, -23.553381 ] ] ] } },
{ "type": "Feature", "properties": { "CD_SETOR": "355030878000081", "faces": 1, "pavimentada": 100.0, "bueiro": 100.0, "iluminacao": 100.0, "onibus": 0.0, "ciclovia": 0.0, "calcada": 100.0, "obstaculo": 100.0, "rampa": 0.0, "rampa_faces": 0.0, "sem_calcada": 0.0, "sem_arvore": 100.0, "muitas_arvores": 0.0, "vao": 100.0, "V05400": 1, "V05421": 1, "V05406": 1, "V05412": 1, "V05422": 0, "V05424": 1, "V05427": 0, "V05409": 1, "V05415": 0, "V05418": 0, "V05430": 1, "V05433": 0, "criancas_0a4": 12, "em_favela": false }, "geometry": { "type": "Polygon", "coordinates": [ [ [ -46.628416, -23.553589 ], [ -46.628605, -23.553967 ], [ -46.628677, -23.553943 ], [ -46.628756, -23.554103 ], [ -46.628907, -23.554035 ], [ -46.628637, -23.5535 ], [ -46.628416, -23.553589 ] ] ] } },
{ "type": "Feature", "properties": { "CD_SETOR": "355030878000082", "faces": 2, "pavimentada": 100.0, "bueiro": 100.0, "iluminacao": 100.0, "onibus": 0.0, "ciclovia": 0.0, "calcada": 100.0, "obstaculo": 50.0, "rampa": 50.0, "rampa_faces": 50.0, "sem_calcada": 0.0, "sem_arvore": 50.0, "muitas_arvores": 0.0, "vao": 50.0, "V05400": 2, "V05421": 2, "V05406": 2, "V05412": 2, "V05422": 0, "V05424": 1, "V05427": 1, "V05409": 2, "V05415": 0, "V05418": 0, "V05430": 1, "V05433": 0, "criancas_0a4": 22, "em_favela": false }, "geometry": { "type": "Polygon", "coordinates": [ [ [ -46.628756, -23.554103 ], [ -46.628813, -23.554221 ], [ -46.628904, -23.55418 ], [ -46.629072, -23.554511 ], [ -46.629134, -23.554486 ], [ -46.628907, -23.554035 ], [ -46.628756, -23.554103 ] ] ] } },
{ "type": "Feature", "properties": { "CD_SETOR": "355030878000083", "faces": 1, "pavimentada": 100.0, "bueiro": 100.0, "iluminacao": 100.0, "onibus": 0.0, "ciclovia": 0.0, "calcada": 100.0, "obstaculo": 0.0, "rampa": 0.0, "rampa_faces": 0.0, "sem_calcada": 0.0, "sem_arvore": 100.0, "muitas_arvores": 0.0, "vao": 100.0, "V05400": 1, "V05421": 1, "V05406": 1, "V05412": 1, "V05422": 0, "V05424": 0, "V05427": 0, "V05409": 1, "V05415": 0, "V05418": 0, "V05430": 1, "V05433": 0, "criancas_0a4": 17, "em_favela": false }, "geometry": { "type": "Polygon", "coordinates": [ [ [ -46.628813, -23.554221 ], [ -46.628875, -23.554338 ], [ -46.628927, -23.554317 ], [ -46.629032, -23.554527 ], [ -46.629072, -23.554511 ], [ -46.628904, -23.55418 ], [ -46.628813, -23.554221 ] ] ] } },
{ "type": "Feature", "properties": { "CD_SETOR": "355030878000084", "faces": 1, "pavimentada": 100.0, "bueiro": 0.0, "iluminacao": 100.0, "onibus": 0.0, "ciclovia": 0.0, "calcada": 100.0, "obstaculo": 0.0, "rampa": 0.0, "rampa_faces": 0.0, "sem_calcada": 0.0, "sem_arvore": 100.0, "muitas_arvores": 0.0, "vao": 100.0, "V05400": 1, "V05421": 1, "V05406": 1, "V05412": 1, "V05422": 0, "V05424": 0, "V05427": 0, "V05409": 0, "V05415": 0, "V05418": 0, "V05430": 1, "V05433": 0, "criancas_0a4": 15, "em_favela": false }, "geometry": { "type": "Polygon", "coordinates": [ [ [ -46.628875, -23.554338 ], [ -46.628907, -23.554397 ], [ -46.628861, -23.554414 ], [ -46.628936, -23.554567 ], [ -46.629032, -23.554527 ], [ -46.628927, -23.554317 ], [ -46.628875, -23.554338 ] ] ] } },
{ "type": "Feature", "properties": { "CD_SETOR": "355030878000086", "faces": 10, "pavimentada": 100.0, "bueiro": 80.0, "iluminacao": 100.0, "onibus": 10.0, "ciclovia": 0.0, "calcada": 90.0, "obstaculo": 55.56, "rampa": 44.44, "rampa_faces": 40.0, "sem_calcada": 10.0, "sem_arvore": 70.0, "muitas_arvores": 10.0, "vao": 60.0, "V05400": 10, "V05421": 9, "V05406": 10, "V05412": 10, "V05422": 1, "V05424": 5, "V05427": 4, "V05409": 8, "V05415": 1, "V05418": 0, "V05430": 7, "V05433": 1, "criancas_0a4": 101, "em_favela": false }, "geometry": { "type": "Polygon", "coordinates": [ [ [ -46.631029, -23.553965 ], [ -46.629417, -23.554365 ], [ -46.629134, -23.554486 ], [ -46.629459, -23.555183 ], [ -46.631037, -23.555313 ], [ -46.631029, -23.553965 ] ] ] } },
{ "type": "Feature", "properties": { "CD_SETOR": "355030878000087", "faces": 13, "pavimentada": 100.0, "bueiro": 84.62, "iluminacao": 100.0, "onibus": 7.69, "ciclovia": 0.0, "calcada": 100.0, "obstaculo": 61.54, "rampa": 15.38, "rampa_faces": 15.38, "sem_calcada": 0.0, "sem_arvore": 53.85, "muitas_arvores": 23.08, "vao": 84.62, "V05400": 13, "V05421": 13, "V05406": 13, "V05412": 13, "V05422": 0, "V05424": 8, "V05427": 2, "V05409": 11, "V05415": 1, "V05418": 0, "V05430": 7, "V05433": 3, "criancas_0a4": 10, "em_favela": false }, "geometry": { "type": "Polygon", "coordinates": [ [ [ -46.630711, -23.556092 ], [ -46.631446, -23.556137 ], [ -46.631944, -23.556077 ], [ -46.631933, -23.55538 ], [ -46.630774, -23.555294 ], [ -46.630711, -23.556092 ] ] ] } },
{ "type": "Feature", "properties": { "CD_SETOR": "355030878000088", "faces": 4, "pavimentada": 100.0, "bueiro": 100.0, "iluminacao": 100.0, "onibus": 0.0, "ciclovia": 25.0, "calcada": 100.0, "obstaculo": 0.0, "rampa": 100.0, "rampa_faces": 100.0, "sem_calcada": 0.0, "sem_arvore": 50.0, "muitas_arvores": 0.0, "vao": 0.0, "V05400": 4, "V05421": 4, "V05406": 4, "V05412": 4, "V05422": 0, "V05424": 0, "V05427": 4, "V05409": 4, "V05415": 0, "V05418": 1, "V05430": 2, "V05433": 0, "criancas_0a4": 8, "em_favela": false }, "geometry": { "type": "Polygon", "coordinates": [ [ [ -46.631944, -23.556077 ], [ -46.633009, -23.555963 ], [ -46.633052, -23.55546 ], [ -46.631933, -23.55538 ], [ -46.631944, -23.556077 ] ] ] } },
{ "type": "Feature", "properties": { "CD_SETOR": "355030878000089", "faces": 4, "pavimentada": 100.0, "bueiro": 100.0, "iluminacao": 100.0, "onibus": 25.0, "ciclovia": 25.0, "calcada": 75.0, "obstaculo": 33.33, "rampa": 66.67, "rampa_faces": 50.0, "sem_calcada": 25.0, "sem_arvore": 25.0, "muitas_arvores": 25.0, "vao": 50.0, "V05400": 4, "V05421": 3, "V05406": 4, "V05412": 4, "V05422": 1, "V05424": 1, "V05427": 2, "V05409": 4, "V05415": 1, "V05418": 1, "V05430": 1, "V05433": 1, "criancas_0a4": 4, "em_favela": false }, "geometry": { "type": "Polygon", "coordinates": [ [ [ -46.633009, -23.555963 ], [ -46.631446, -23.556137 ], [ -46.630711, -23.556092 ], [ -46.630703, -23.556347 ], [ -46.632979, -23.556515 ], [ -46.633009, -23.555963 ] ] ] } },
{ "type": "Feature", "properties": { "CD_SETOR": "355030878000092", "faces": 7, "pavimentada": 100.0, "bueiro": 71.43, "iluminacao": 100.0, "onibus": 42.86, "ciclovia": 28.57, "calcada": 100.0, "obstaculo": 14.29, "rampa": 42.86, "rampa_faces": 42.86, "sem_calcada": 0.0, "sem_arvore": 14.29, "muitas_arvores": 57.14, "vao": 57.14, "V05400": 7, "V05421": 7, "V05406": 7, "V05412": 7, "V05422": 0, "V05424": 1, "V05427": 3, "V05409": 5, "V05415": 3, "V05418": 2, "V05430": 1, "V05433": 4, "criancas_0a4": 4, "em_favela": false }, "geometry": { "type": "Polygon", "coordinates": [ [ [ -46.633016, -23.555875 ], [ -46.632979, -23.556515 ], [ -46.634105, -23.556581 ], [ -46.63414, -23.556119 ], [ -46.633655, -23.556177 ], [ -46.633671, -23.555909 ], [ -46.633016, -23.555875 ] ] ] } },
{ "type": "Feature", "properties": { "CD_SETOR": "355030878000093", "faces": 20, "pavimentada": 100.0, "bueiro": 65.0, "iluminacao": 100.0, "onibus": 45.0, "ciclovia": 45.0, "calcada": 100.0, "obstaculo": 15.0, "rampa": 70.0, "rampa_faces": 70.0, "sem_calcada": 0.0, "sem_arvore": 35.0, "muitas_arvores": 50.0, "vao": 30.0, "V05400": 20, "V05421": 20, "V05406": 20, "V05412": 20, "V05422": 0, "V05424": 3, "V05427": 14, "V05409": 13, "V05415": 9, "V05418": 9, "V05430": 7, "V05433": 10, "criancas_0a4": 4, "em_favela": false }, "geometry": { "type": "Polygon", "coordinates": [ [ [ -46.634371, -23.553052 ], [ -46.634105, -23.556581 ], [ -46.634672, -23.556597 ], [ -46.636137, -23.556379 ], [ -46.635944, -23.555651 ], [ -46.634629, -23.552955 ], [ -46.634371, -23.553052 ] ], [ [ -46.634975, -23.555019 ], [ -46.635014, -23.554703 ], [ -46.635287, -23.554629 ], [ -46.635246, -23.555018 ], [ -46.634975, -23.555019 ] ] ] } },
{ "type": "Feature", "properties": { "CD_SETOR": "355030878000094", "faces": 1, "pavimentada": 100.0, "bueiro": 100.0, "iluminacao": 100.0, "onibus": 100.0, "ciclovia": 100.0, "calcada": 100.0, "obstaculo": 0.0, "rampa": 100.0, "rampa_faces": 100.0, "sem_calcada": 0.0, "sem_arvore": 0.0, "muitas_arvores": 0.0, "vao": 0.0, "V05400": 1, "V05421": 1, "V05406": 1, "V05412": 1, "V05422": 0, "V05424": 0, "V05427": 1, "V05409": 1, "V05415": 1, "V05418": 1, "V05430": 0, "V05433": 0, "criancas_0a4": 4, "em_favela": false }, "geometry": { "type": "Polygon", "coordinates": [ [ [ -46.634996, -23.554846 ], [ -46.635271, -23.554812 ], [ -46.635287, -23.554629 ], [ -46.635014, -23.554703 ], [ -46.634996, -23.554846 ] ] ] } },
{ "type": "Feature", "properties": { "CD_SETOR": "355030878000095", "faces": 1, "pavimentada": 100.0, "bueiro": 100.0, "iluminacao": 100.0, "onibus": 100.0, "ciclovia": 100.0, "calcada": 100.0, "obstaculo": 0.0, "rampa": 100.0, "rampa_faces": 100.0, "sem_calcada": 0.0, "sem_arvore": 0.0, "muitas_arvores": 0.0, "vao": 0.0, "V05400": 1, "V05421": 1, "V05406": 1, "V05412": 1, "V05422": 0, "V05424": 0, "V05427": 1, "V05409": 1, "V05415": 1, "V05418": 1, "V05430": 0, "V05433": 0, "criancas_0a4": 0, "em_favela": false }, "geometry": { "type": "Polygon", "coordinates": [ [ [ -46.634996, -23.554846 ], [ -46.634975, -23.555019 ], [ -46.635246, -23.555018 ], [ -46.635271, -23.554812 ], [ -46.634996, -23.554846 ] ] ] } },
{ "type": "Feature", "properties": { "CD_SETOR": "355030878000096", "faces": 13, "pavimentada": 100.0, "bueiro": 84.62, "iluminacao": 92.31, "onibus": 30.77, "ciclovia": 38.46, "calcada": 100.0, "obstaculo": 30.77, "rampa": 69.23, "rampa_faces": 69.23, "sem_calcada": 0.0, "sem_arvore": 38.46, "muitas_arvores": 53.85, "vao": 30.77, "V05400": 13, "V05421": 13, "V05406": 13, "V05412": 12, "V05422": 0, "V05424": 4, "V05427": 9, "V05409": 11, "V05415": 4, "V05418": 5, "V05430": 5, "V05433": 7, "criancas_0a4": 9, "em_favela": false }, "geometry": { "type": "Polygon", "coordinates": [ [ [ -46.634864, -23.551745 ], [ -46.634308, -23.552 ], [ -46.634295, -23.552251 ], [ -46.635944, -23.555651 ], [ -46.636137, -23.556379 ], [ -46.63751, -23.556134 ], [ -46.637243, -23.555464 ], [ -46.637092, -23.555517 ], [ -46.636872, -23.555315 ], [ -46.636516, -23.554933 ], [ -46.636346, -23.554599 ], [ -46.636167, -23.553944 ], [ -46.636103, -23.552849 ], [ -46.635735, -23.552891 ], [ -46.635638, -23.554185 ], [ -46.63553, -23.552948 ], [ -46.635377, -23.552068 ], [ -46.635449, -23.55191 ], [ -46.635347, -23.551729 ], [ -46.635333, -23.551508 ], [ -46.634909, -23.551677 ], [ -46.634864, -23.551745 ] ] ] } },
{ "type": "Feature", "properties": { "CD_SETOR": "355030878000097", "faces": 12, "pavimentada": 100.0, "bueiro": 33.33, "iluminacao": 100.0, "onibus": 66.67, "ciclovia": 0.0, "calcada": 100.0, "obstaculo": 25.0, "rampa": 75.0, "rampa_faces": 75.0, "sem_calcada": 0.0, "sem_arvore": 33.33, "muitas_arvores": 50.0, "vao": 25.0, "V05400": 12, "V05421": 12, "V05406": 12, "V05412": 12, "V05422": 0, "V05424": 3, "V05427": 9, "V05409": 4, "V05415": 8, "V05418": 0, "V05430": 4, "V05433": 6, "criancas_0a4": 3, "em_favela": false }, "geometry": { "type": "Polygon", "coordinates": [ [ [ -46.638407, -23.549501 ], [ -46.637938, -23.550025 ], [ -46.635405, -23.551165 ], [ -46.635337, -23.551262 ], [ -46.635347, -23.551729 ], [ -46.635449, -23.55191 ], [ -46.635377, -23.552068 ], [ -46.63553, -23.552948 ], [ -46.635638, -23.554185 ], [ -46.635735, -23.552891 ], [ -46.636103, -23.552849 ], [ -46.636167, -23.553944 ], [ -46.636346, -23.554599 ], [ -46.636516, -23.554933 ], [ -46.637092, -23.555517 ], [ -46.637243, -23.555464 ], [ -46.636718, -23.554116 ], [ -46.636598, -23.553556 ], [ -46.636575, -23.553323 ], [ -46.636632, -23.552516 ], [ -46.636715, -23.552092 ], [ -46.636825, -23.551823 ], [ -46.636986, -23.551609 ], [ -46.638259, -23.550048 ], [ -46.638798, -23.549106 ], [ -46.638695, -23.549068 ], [ -46.63863, -23.549132 ], [ -46.638407, -23.549501 ] ] ] } },
{ "type": "Feature", "properties": { "CD_SETOR": "355030878000098", "faces": 11, "pavimentada": 100.0, "bueiro": 100.0, "iluminacao": 100.0, "onibus": 18.18, "ciclovia": 0.0, "calcada": 100.0, "obstaculo": 63.64, "rampa": 54.55, "rampa_faces": 54.55, "sem_calcada": 0.0, "sem_arvore": 9.09, "muitas_arvores": 18.18, "vao": 45.45, "V05400": 11, "V05421": 11, "V05406": 11, "V05412": 11, "V05422": 0, "V05424": 7, "V05427": 6, "V05409": 11, "V05415": 2, "V05418": 0, "V05430": 1, "V05433": 2, "criancas_0a4": 4, "em_favela": false }, "geometry": { "type": "Polygon", "coordinates": [ [ [ -46.629939, -23.536734 ], [ -46.630269, -23.537546 ], [ -46.630781, -23.537415 ], [ -46.630751, -23.537288 ], [ -46.632096, -23.536957 ], [ -46.632069, -23.537597 ], [ -46.632502, -23.537485 ], [ -46.632937, -23.537497 ], [ -46.632996, -23.536276 ], [ -46.632799, -23.536264 ], [ -46.632812, -23.535992 ], [ -46.629939, -23.536734 ] ] ] } },
{ "type": "Feature", "properties": { "CD_SETOR": "355030878000099", "faces": 13, "pavimentada": 100.0, "bueiro": 69.23, "iluminacao": 100.0, "onibus": 0.0, "ciclovia": 0.0, "calcada": 53.85, "obstaculo": 28.57, "rampa": 71.43, "rampa_faces": 38.46, "sem_calcada": 46.15, "sem_arvore": 76.92, "muitas_arvores": 15.38, "vao": 61.54, "V05400": 13, "V05421": 7, "V05406": 13, "V05412": 13, "V05422": 6, "V05424": 2, "V05427": 5, "V05409": 9, "V05415": 0, "V05418": 0, "V05430": 10, "V05433": 2, "criancas_0a4": 34, "em_favela": false }, "geometry": { "type": "Polygon", "coordinates": [ [ [ -46.630269, -23.537546 ], [ -46.630596, -23.538356 ], [ -46.632658, -23.53782 ], [ -46.632921, -23.537835 ], [ -46.632937, -23.537497 ], [ -46.632502, -23.537485 ], [ -46.632069, -23.537597 ], [ -46.632096, -23.536957 ], [ -46.630751, -23.537288 ], [ -46.630781, -23.537415 ], [ -46.630269, -23.537546 ] ] ] } },
{ "type": "Feature", "properties": { "CD_SETOR": "355030878000100", "faces": 3, "pavimentada": 100.0, "bueiro": 66.67, "iluminacao": 100.0, "onibus": 33.33, "ciclovia": 0.0, "calcada": 100.0, "obstaculo": 100.0, "rampa": 100.0, "rampa_faces": 100.0, "sem_calcada": 0.0, "sem_arvore": 66.67, "muitas_arvores": 0.0, "vao": 0.0, "V05400": 3, "V05421": 3, "V05406": 3, "V05412": 3, "V05422": 0, "V05424": 3, "V05427": 3, "V05409": 2, "V05415": 1, "V05418": 0, "V05430": 2, "V05433": 0, "criancas_0a4": 18, "em_favela": false }, "geometry": { "type": "Polygon", "coordinates": [ [ [ -46.629117, -23.550353 ], [ -46.627791, -23.551711 ], [ -46.628985, -23.551877 ], [ -46.629001, -23.551706 ], [ -46.628762, -23.551654 ], [ -46.628909, -23.551071 ], [ -46.629137, -23.551063 ], [ -46.629117, -23.550353 ] ] ] } },
{ "type": "Feature", "properties": { "CD_SETOR": "355030878000101", "faces": 1, "pavimentada": 100.0, "bueiro": 0.0, "iluminacao": 100.0, "onibus": 0.0, "ciclovia": 0.0, "calcada": 100.0, "obstaculo": 100.0, "rampa": 100.0, "rampa_faces": 100.0, "sem_calcada": 0.0, "sem_arvore": 0.0, "muitas_arvores": 0.0, "vao": 0.0, "V05400": 1, "V05421": 1, "V05406": 1, "V05412": 1, "V05422": 0, "V05424": 1, "V05427": 1, "V05409": 0, "V05415": 0, "V05418": 0, "V05430": 0, "V05433": 0, "criancas_0a4": 13, "em_favela": false }, "geometry": { "type": "Polygon", "coordinates": [ [ [ -46.628985, -23.551877 ], [ -46.629168, -23.551903 ], [ -46.629137, -23.551063 ], [ -46.628909, -23.551071 ], [ -46.628762, -23.551654 ], [ -46.629001, -23.551706 ], [ -46.628985, -23.551877 ] ] ] } },
{ "type": "Feature", "properties": { "CD_SETOR": "355030878000102", "faces": 1, "pavimentada": 100.0, "bueiro": 100.0, "iluminacao": 100.0, "onibus": 0.0, "ciclovia": 0.0, "calcada": 100.0, "obstaculo": 0.0, "rampa": 0.0, "rampa_faces": 0.0, "sem_calcada": 0.0, "sem_arvore": 0.0, "muitas_arvores": 0.0, "vao": 100.0, "V05400": 1, "V05421": 1, "V05406": 1, "V05412": 1, "V05422": 0, "V05424": 0, "V05427": 0, "V05409": 1, "V05415": 0, "V05418": 0, "V05430": 0, "V05433": 0, "criancas_0a4": 0, "em_favela": false }, "geometry": { "type": "Polygon", "coordinates": [ [ [ -46.629214, -23.553381 ], [ -46.629331, -23.553424 ], [ -46.629473, -23.553091 ], [ -46.629352, -23.553055 ], [ -46.629214, -23.553381 ] ] ] } },
{ "type": "Feature", "properties": { "CD_SETOR": "355030878000103", "faces": 1, "pavimentada": 100.0, "bueiro": 100.0, "iluminacao": 100.0, "onibus": 0.0, "ciclovia": 0.0, "calcada": 100.0, "obstaculo": 0.0, "rampa": 100.0, "rampa_faces": 100.0, "sem_calcada": 0.0, "sem_arvore": 0.0, "muitas_arvores": 0.0, "vao": 0.0, "V05400": 1, "V05421": 1, "V05406": 1, "V05412": 1, "V05422": 0, "V05424": 0, "V05427": 1, "V05409": 1, "V05415": 0, "V05418": 0, "V05430": 0, "V05433": 0, "criancas_0a4": 10, "em_favela": false }, "geometry": { "type": "Polygon", "coordinates": [ [ [ -46.629828, -23.55316 ], [ -46.629419, -23.553483 ], [ -46.629709, -23.55403 ], [ -46.630006, -23.553921 ], [ -46.629828, -23.55316 ] ] ] } },
{ "type": "Feature", "properties": { "CD_SETOR": "355030878000105", "faces": 55, "pavimentada": 100.0, "bueiro": 100.0, "iluminacao": 100.0, "onibus": 21.82, "ciclovia": 14.55, "calcada": 100.0, "obstaculo": 16.36, "rampa": 100.0, "rampa_faces": 100.0, "sem_calcada": 0.0, "sem_arvore": 54.55, "muitas_arvores": 25.45, "vao": 0.0, "V05400": 55, "V05421": 55, "V05406": 55, "V05412": 55, "V05422": 0, "V05424": 9, "V05427": 55, "V05409": 55, "V05415": 12, "V05418": 8, "V05430": 30, "V05433": 14, "criancas_0a4": 4, "em_favela": false }, "geometry": { "type": "Polygon", "coordinates": [ [ [ -46.630277, -23.547639 ], [ -46.630808, -23.547965 ], [ -46.631481, -23.548202 ], [ -46.631014, -23.549217 ], [ -46.631187, -23.549285 ], [ -46.632023, -23.54938 ], [ -46.631901, -23.549864 ], [ -46.632557, -23.550095 ], [ -46.633254, -23.549877 ], [ -46.633111, -23.549481 ], [ -46.633138, -23.549395 ], [ -46.632988, -23.54891 ], [ -46.633426, -23.549028 ], [ -46.633634, -23.548996 ], [ -46.633888, -23.548235 ], [ -46.633479, -23.547676 ], [ -46.6317, -23.545769 ], [ -46.631524, -23.545486 ], [ -46.631328, -23.545478 ], [ -46.631129, -23.54562 ], [ -46.631136, -23.546059 ], [ -46.631049, -23.546417 ], [ -46.63091, -23.546705 ], [ -46.630277, -23.547639 ] ] ] } },
{ "type": "Feature", "properties": { "CD_SETOR": "355030878000106", "faces": 11, "pavimentada": 100.0, "bueiro": 100.0, "iluminacao": 100.0, "onibus": 0.0, "ciclovia": 0.0, "calcada": 100.0, "obstaculo": 0.0, "rampa": 100.0, "rampa_faces": 100.0, "sem_calcada": 0.0, "sem_arvore": 100.0, "muitas_arvores": 0.0, "vao": 0.0, "V05400": 11, "V05421": 11, "V05406": 11, "V05412": 11, "V05422": 0, "V05424": 0, "V05427": 11, "V05409": 11, "V05415": 0, "V05418": 0, "V05430": 11, "V05433": 0, "criancas_0a4": 3, "em_favela": false }, "geometry": { "type": "Polygon", "coordinates": [ [ [ -46.629096, -23.542742 ], [ -46.629323, -23.543177 ], [ -46.630524, -23.544498 ], [ -46.630822, -23.544245 ], [ -46.631045, -23.54416 ], [ -46.630966, -23.544019 ], [ -46.630855, -23.542617 ], [ -46.630388, -23.542693 ], [ -46.629096, -23.542742 ] ] ] } },
{ "type": "Feature", "properties": { "CD_SETOR": "355030878000110", "faces": 3, "pavimentada": 100.0, "bueiro": 66.67, "iluminacao": 100.0, "onibus": 0.0, "ciclovia": 0.0, "calcada": 100.0, "obstaculo": 33.33, "rampa": 66.67, "rampa_faces": 66.67, "sem_calcada": 0.0, "sem_arvore": 33.33, "muitas_arvores": 33.33, "vao": 33.33, "V05400": 3, "V05421": 3, "V05406": 3, "V05412": 3, "V05422": 0, "V05424": 1, "V05427": 2, "V05409": 2, "V05415": 0, "V05418": 0, "V05430": 1, "V05433": 1, "criancas_0a4": 14, "em_favela": false }, "geometry": { "type": "Polygon", "coordinates": [ [ [ -46.628328, -23.555543 ], [ -46.628157, -23.555203 ], [ -46.628596, -23.555014 ], [ -46.628553, -23.55493 ], [ -46.627654, -23.55533 ], [ -46.627716, -23.555453 ], [ -46.627968, -23.555706 ], [ -46.628328, -23.555543 ] ] ] } },
{ "type": "Feature", "properties": { "CD_SETOR": "355030878000111", "faces": 1, "pavimentada": 100.0, "bueiro": 100.0, "iluminacao": 100.0, "onibus": 0.0, "ciclovia": 0.0, "calcada": 100.0, "obstaculo": 0.0, "rampa": 100.0, "rampa_faces": 100.0, "sem_calcada": 0.0, "sem_arvore": 0.0, "muitas_arvores": 100.0, "vao": 0.0, "V05400": 1, "V05421": 1, "V05406": 1, "V05412": 1, "V05422": 0, "V05424": 0, "V05427": 1, "V05409": 1, "V05415": 0, "V05418": 0, "V05430": 0, "V05433": 1, "criancas_0a4": 20, "em_favela": false }, "geometry": { "type": "Polygon", "coordinates": [ [ [ -46.628596, -23.555014 ], [ -46.628157, -23.555203 ], [ -46.628328, -23.555543 ], [ -46.628765, -23.555345 ], [ -46.628596, -23.555014 ] ] ] } },
{ "type": "Feature", "properties": { "CD_SETOR": "355030878000112", "faces": 20, "pavimentada": 100.0, "bueiro": 80.0, "iluminacao": 100.0, "onibus": 10.0, "ciclovia": 0.0, "calcada": 75.0, "obstaculo": 73.33, "rampa": 46.67, "rampa_faces": 35.0, "sem_calcada": 25.0, "sem_arvore": 60.0, "muitas_arvores": 15.0, "vao": 65.0, "V05400": 20, "V05421": 15, "V05406": 20, "V05412": 20, "V05422": 5, "V05424": 11, "V05427": 7, "V05409": 16, "V05415": 2, "V05418": 0, "V05430": 12, "V05433": 3, "criancas_0a4": 25, "em_favela": false }, "geometry": { "type": "Polygon", "coordinates": [ [ [ -46.629283, -23.554844 ], [ -46.62864, -23.555098 ], [ -46.628765, -23.555345 ], [ -46.627968, -23.555706 ], [ -46.627716, -23.555453 ], [ -46.627654, -23.55533 ], [ -46.628553, -23.55493 ], [ -46.628062, -23.55399 ], [ -46.627156, -23.554376 ], [ -46.627051, -23.554526 ], [ -46.627518, -23.555471 ], [ -46.627693, -23.555709 ], [ -46.628013, -23.555966 ], [ -46.628628, -23.556175 ], [ -46.629828, -23.556278 ], [ -46.629917, -23.555233 ], [ -46.629459, -23.555183 ], [ -46.629283, -23.554844 ] ] ] } },
{ "type": "Feature", "properties": { "CD_SETOR": "355030878000113", "faces": 1, "pavimentada": 100.0, "bueiro": 0.0, "iluminacao": 100.0, "onibus": 0.0, "ciclovia": 0.0, "calcada": 100.0, "obstaculo": 100.0, "rampa": 100.0, "rampa_faces": 100.0, "sem_calcada": 0.0, "sem_arvore": 0.0, "muitas_arvores": 0.0, "vao": 0.0, "V05400": 1, "V05421": 1, "V05406": 1, "V05412": 1, "V05422": 0, "V05424": 1, "V05427": 1, "V05409": 0, "V05415": 0, "V05418": 0, "V05430": 0, "V05433": 0, "criancas_0a4": 9, "em_favela": false }, "geometry": { "type": "Polygon", "coordinates": [ [ [ -46.628742, -23.55223 ], [ -46.628634, -23.55282 ], [ -46.629321, -23.553043 ], [ -46.629551, -23.552506 ], [ -46.629423, -23.552495 ], [ -46.628742, -23.55223 ] ] ] } },
{ "type": "Feature", "properties": { "CD_SETOR": "355030878000114", "faces": 1, "pavimentada": 100.0, "bueiro": 100.0, "iluminacao": 100.0, "onibus": 0.0, "ciclovia": 0.0, "calcada": 100.0, "obstaculo": 100.0, "rampa": 100.0, "rampa_faces": 100.0, "sem_calcada": 0.0, "sem_arvore": 0.0, "muitas_arvores": 0.0, "vao": 0.0, "V05400": 1, "V05421": 1, "V05406": 1, "V05412": 1, "V05422": 0, "V05424": 1, "V05427": 1, "V05409": 1, "V05415": 0, "V05418": 0, "V05430": 0, "V05433": 0, "criancas_0a4": 0, "em_favela": false }, "geometry": { "type": "Polygon", "coordinates": [ [ [ -46.628634, -23.55282 ], [ -46.628742, -23.55223 ], [ -46.628498, -23.552195 ], [ -46.628431, -23.552755 ], [ -46.628634, -23.55282 ] ] ] } },
{ "type": "Feature", "properties": { "CD_SETOR": "355030878000115", "faces": 16, "pavimentada": 100.0, "bueiro": 75.0, "iluminacao": 100.0, "onibus": 68.75, "ciclovia": 25.0, "calcada": 100.0, "obstaculo": 0.0, "rampa": 100.0, "rampa_faces": 100.0, "sem_calcada": 0.0, "sem_arvore": 75.0, "muitas_arvores": 0.0, "vao": 0.0, "V05400": 16, "V05421": 16, "V05406": 16, "V05412": 16, "V05422": 0, "V05424": 0, "V05427": 16, "V05409": 12, "V05415": 11, "V05418": 4, "V05430": 12, "V05433": 0, "criancas_0a4": 0, "em_favela": false }, "geometry": { "type": "Polygon", "coordinates": [ [ [ -46.636685, -23.550606 ], [ -46.636426, -23.549876 ], [ -46.636531, -23.54956 ], [ -46.634018, -23.550096 ], [ -46.63444, -23.550837 ], [ -46.634864, -23.551745 ], [ -46.634909, -23.551677 ], [ -46.635333, -23.551508 ], [ -46.635337, -23.551262 ], [ -46.635405, -23.551165 ], [ -46.636685, -23.550606 ] ] ] } },
{ "type": "Feature", "properties": { "CD_SETOR": "355030878000116", "faces": 5, "pavimentada": 100.0, "bueiro": 80.0, "iluminacao": 100.0, "onibus": 80.0, "ciclovia": 0.0, "calcada": 100.0, "obstaculo": 20.0, "rampa": 60.0, "rampa_faces": 60.0, "sem_calcada": 0.0, "sem_arvore": 80.0, "muitas_arvores": 20.0, "vao": 40.0, "V05400": 5, "V05421": 5, "V05406": 5, "V05412": 5, "V05422": 0, "V05424": 1, "V05427": 3, "V05409": 4, "V05415": 4, "V05418": 0, "V05430": 4, "V05433": 1, "criancas_0a4": 0, "em_favela": false }, "geometry": { "type": "Polygon", "coordinates": [ [ [ -46.636531, -23.54956 ], [ -46.636426, -23.549876 ], [ -46.636685, -23.550606 ], [ -46.637994, -23.54999 ], [ -46.638407, -23.549501 ], [ -46.637923, -23.549093 ], [ -46.63756, -23.54941 ], [ -46.636531, -23.54956 ] ] ] } },
{ "type": "Feature", "properties": { "CD_SETOR": "355030878000117", "faces": 4, "pavimentada": 100.0, "bueiro": 75.0, "iluminacao": 100.0, "onibus": 25.0, "ciclovia": 50.0, "calcada": 100.0, "obstaculo": 0.0, "rampa": 100.0, "rampa_faces": 100.0, "sem_calcada": 0.0, "sem_arvore": 50.0, "muitas_arvores": 0.0, "vao": 0.0, "V05400": 4, "V05421": 4, "V05406": 4, "V05412": 4, "V05422": 0, "V05424": 0, "V05427": 4, "V05409": 3, "V05415": 1, "V05418": 2, "V05430": 2, "V05433": 0, "criancas_0a4": 12, "em_favela": false }, "geometry": { "type": "Polygon", "coordinates": [ [ [ -46.633671, -23.555909 ], [ -46.633655, -23.556177 ], [ -46.63414, -23.556119 ], [ -46.634182, -23.555527 ], [ -46.633052, -23.55546 ], [ -46.633016, -23.555875 ], [ -46.633671, -23.555909 ] ] ] } },
{ "type": "Feature", "properties": { "CD_SETOR": "355030878000118", "faces": 35, "pavimentada": 94.29, "bueiro": 88.57, "iluminacao": 100.0, "onibus": 40.0, "ciclovia": 20.0, "calcada": 94.29, "obstaculo": 60.61, "rampa": 69.7, "rampa_faces": 65.71, "sem_calcada": 5.71, "sem_arvore": 40.0, "muitas_arvores": 48.57, "vao": 28.57, "V05400": 35, "V05421": 33, "V05406": 33, "V05412": 35, "V05422": 2, "V05424": 20, "V05427": 23, "V05409": 31, "V05415": 14, "V05418": 7, "V05430": 14, "V05433": 17, "criancas_0a4": 0, "em_favela": false }, "geometry": { "type": "Polygon", "coordinates": [ [ [ -46.625347, -23.553622 ], [ -46.624844, -23.554272 ], [ -46.627051, -23.554526 ], [ -46.627156, -23.554376 ], [ -46.627349, -23.552607 ], [ -46.627601, -23.551897 ], [ -46.628602, -23.550875 ], [ -46.628246, -23.550647 ], [ -46.629221, -23.549116 ], [ -46.63091, -23.546705 ], [ -46.631115, -23.546198 ], [ -46.631129, -23.54562 ], [ -46.631328, -23.545478 ], [ -46.631431, -23.545482 ], [ -46.629323, -23.543177 ], [ -46.629096, -23.542742 ], [ -46.62863, -23.54278 ], [ -46.628048, -23.541496 ], [ -46.627316, -23.542104 ], [ -46.626826, -23.542739 ], [ -46.626262, -23.5447 ], [ -46.626291, -23.545722 ], [ -46.626408, -23.547017 ], [ -46.626336, -23.547843 ], [ -46.626251, -23.548119 ], [ -46.62549, -23.549392 ], [ -46.625318, -23.549793 ], [ -46.625012, -23.55071 ], [ -46.624871, -23.551296 ], [ -46.624955, -23.552194 ], [ -46.625156, -23.553175 ], [ -46.625347, -23.553622 ] ] ] } }
]
}
