{
"type": "FeatureCollection",
"name": "socorro",
"crs": { "type": "name", "properties": { "name": "urn:ogc:def:crs:OGC:1.3:CRS84" } },
"xy_coordinate_resolution": 1e-06,
"features": [
{ "type": "Feature", "properties": { "CD_SETOR": "355030879000011", "faces": 58, "pavimentada": 100.0, "bueiro": 63.79, "iluminacao": 100.0, "onibus": 20.69, "ciclovia": 5.17, "calcada": 93.1, "obstaculo": 87.04, "rampa": 18.52, "rampa_faces": 17.24, "sem_calcada": 6.9, "sem_arvore": 27.59, "muitas_arvores": 31.03, "vao": 82.76, "V05400": 58, "V05421": 54, "V05406": 58, "V05412": 58, "V05422": 4, "V05424": 47, "V05427": 10, "V05409": 37, "V05415": 12, "V05418": 3, "V05430": 16, "V05433": 18, "criancas_0a4": 95, "em_favela": false }, "geometry": { "type": "Polygon", "coordinates": [ [ [ -46.710536, -23.671255 ], [ -46.708733, -23.674746 ], [ -46.708164, -23.675737 ], [ -46.707314, -23.677513 ], [ -46.708033, -23.677815 ], [ -46.708488, -23.677879 ], [ -46.70881, -23.677227 ], [ -46.709878, -23.677393 ], [ -46.709993, -23.677478 ], [ -46.710221, -23.677867 ], [ -46.710747, -23.677685 ], [ -46.711042, -23.677516 ], [ -46.711548, -23.676914 ], [ -46.711932, -23.675949 ], [ -46.712253, -23.675645 ], [ -46.712353, -23.675645 ], [ -46.712424, -23.675748 ], [ -46.712271, -23.672621 ], [ -46.713411, -23.671982 ], [ -46.712317, -23.67022 ], [ -46.712145, -23.670157 ], [ -46.712121, -23.669845 ], [ -46.711046, -23.670401 ], [ -46.710536, -23.671255 ] ] ] } },
{ "type": "Feature", "properties": { "CD_SETOR": "355030879000012", "faces": 36, "pavimentada": 97.22, "bueiro": 44.44, "iluminacao": 97.22, "onibus": 5.56, "ciclovia": 0.0, "calcada": 86.11, "obstaculo": 90.32, "rampa": 6.45, "rampa_faces": 5.56, "sem_calcada": 13.89, "sem_arvore": 44.44, "muitas_arvores": 13.89, "vao": 91.67, "V05400": 36, "V05421": 31, "V05406": 35, "V05412": 35, "V05422": 5, "V05424": 28, "V05427": 2, "V05409": 16, "V05415": 2, "V05418": 0, "V05430": 16, "V05433": 5, "criancas_0a4": 17, "em_favela": false }, "geometry": { "type": "Polygon", "coordinates": [ [ [ -46.706172, -23.672278 ], [ -46.707649, -23.67303 ], [ -46.708207, -23.672089 ], [ -46.70972, -23.672846 ], [ -46.710536, -23.671255 ], [ -46.709117, -23.67054 ], [ -46.709554, -23.669791 ], [ -46.709912, -23.669549 ], [ -46.711979, -23.667893 ], [ -46.711896, -23.666174 ], [ -46.711794, -23.665835 ], [ -46.711735, -23.665776 ], [ -46.710386, -23.665104 ], [ -46.706172, -23.672278 ] ] ] } },
{ "type": "Feature", "properties": { "CD_SETOR": "355030879000013", "faces": 43, "pavimentada": 100.0, "bueiro": 65.12, "iluminacao": 97.67, "onibus": 9.3, "ciclovia": 0.0, "calcada": 100.0, "obstaculo": 93.02, "rampa": 6.98, "rampa_faces": 6.98, "sem_calcada": 0.0, "sem_arvore": 27.91, "muitas_arvores": 30.23, "vao": 93.02, "V05400": 43, "V05421": 43, "V05406": 43, "V05412": 42, "V05422": 0, "V05424": 40, "V05427": 3, "V05409": 28, "V05415": 4, "V05418": 0, "V05430": 12, "V05433": 13, "criancas_0a4": 21, "em_favela": false }, "geometry": { "type": "Polygon", "coordinates": [ [ [ -46.706172, -23.672278 ], [ -46.703197, -23.677236 ], [ -46.702428, -23.678282 ], [ -46.703723, -23.679182 ], [ -46.703915, -23.679251 ], [ -46.705799, -23.680584 ], [ -46.706099, -23.680114 ], [ -46.706264, -23.679961 ], [ -46.707129, -23.677811 ], [ -46.707314, -23.677513 ], [ -46.708164, -23.675737 ], [ -46.708733, -23.674746 ], [ -46.70972, -23.672846 ], [ -46.708207, -23.672089 ], [ -46.707649, -23.67303 ], [ -46.706172, -23.672278 ] ] ] } },
{ "type": "Feature", "properties": { "CD_SETOR": "355030879000015", "faces": 57, "pavimentada": 100.0, "bueiro": 45.61, "iluminacao": 100.0, "onibus": 5.26, "ciclovia": 0.0, "calcada": 94.74, "obstaculo": 92.59, "rampa": 9.26, "rampa_faces": 8.77, "sem_calcada": 5.26, "sem_arvore": 38.6, "muitas_arvores": 28.07, "vao": 91.23, "V05400": 57, "V05421": 54, "V05406": 57, "V05412": 57, "V05422": 3, "V05424": 50, "V05427": 5, "V05409": 26, "V05415": 3, "V05418": 0, "V05430": 22, "V05433": 16, "criancas_0a4": 11, "em_favela": false }, "geometry": { "type": "Polygon", "coordinates": [ [ [ -46.705362, -23.681242 ], [ -46.703405, -23.683538 ], [ -46.703067, -23.684262 ], [ -46.706271, -23.686 ], [ -46.707164, -23.684358 ], [ -46.708733, -23.684637 ], [ -46.706204, -23.682173 ], [ -46.706042, -23.682124 ], [ -46.705825, -23.681275 ], [ -46.705678, -23.681002 ], [ -46.705569, -23.68095 ], [ -46.705362, -23.681242 ] ] ] } },
{ "type": "Feature", "properties": { "CD_SETOR": "355030879000016", "faces": 22, "pavimentada": 100.0, "bueiro": 63.64, "iluminacao": 100.0, "onibus": 4.55, "ciclovia": 0.0, "calcada": 81.82, "obstaculo": 77.78, "rampa": 0.0, "rampa_faces": 0.0, "sem_calcada": 18.18, "sem_arvore": 50.0, "muitas_arvores": 22.73, "vao": 100.0, "V05400": 22, "V05421": 18, "V05406": 22, "V05412": 22, "V05422": 4, "V05424": 14, "V05427": 0, "V05409": 14, "V05415": 1, "V05418": 0, "V05430": 11, "V05433": 5, "criancas_0a4": 14, "em_favela": false }, "geometry": { "type": "Polygon", "coordinates": [ [ [ -46.706271, -23.686 ], [ -46.706907, -23.686674 ], [ -46.707732, -23.685983 ], [ -46.708497, -23.68678 ], [ -46.708976, -23.686322 ], [ -46.709111, -23.686315 ], [ -46.709429, -23.686422 ], [ -46.710034, -23.685226 ], [ -46.709706, -23.684983 ], [ -46.709221, -23.684734 ], [ -46.709054, -23.684831 ], [ -46.708987, -23.68472 ], [ -46.708733, -23.684637 ], [ -46.707164, -23.684358 ], [ -46.706271, -23.686 ] ] ] } },
{ "type": "Feature", "properties": { "CD_SETOR": "355030879000017", "faces": 29, "pavimentada": 100.0, "bueiro": 72.41, "iluminacao": 100.0, "onibus": 3.45, "ciclovia": 6.9, "calcada": 93.1, "obstaculo": 3.7, "rampa": 25.93, "rampa_faces": 24.14, "sem_calcada": 6.9, "sem_arvore": 6.9, "muitas_arvores": 62.07, "vao": 75.86, "V05400": 29, "V05421": 27, "V05406": 29, "V05412": 29, "V05422": 2, "V05424": 1, "V05427": 7, "V05409": 21, "V05415": 1, "V05418": 2, "V05430": 2, "V05433": 18, "criancas_0a4": 24, "em_favela": false }, "geometry": { "type": "Polygon", "coordinates": [ [ [ -46.710074, -23.68517 ], [ -46.709429, -23.686422 ], [ -46.711939, -23.687293 ], [ -46.712107, -23.687507 ], [ -46.712021, -23.688074 ], [ -46.712012, -23.688513 ], [ -46.713504, -23.68846 ], [ -46.713522, -23.68933 ], [ -46.714628, -23.689297 ], [ -46.714541, -23.686634 ], [ -46.713546, -23.686567 ], [ -46.712962, -23.686336 ], [ -46.713414, -23.685699 ], [ -46.712498, -23.68573 ], [ -46.712114, -23.685687 ], [ -46.711952, -23.685923 ], [ -46.711081, -23.686025 ], [ -46.710804, -23.685943 ], [ -46.710532, -23.685718 ], [ -46.710656, -23.685619 ], [ -46.710074, -23.68517 ] ] ] } },
{ "type": "Feature", "properties": { "CD_SETOR": "355030879000018", "faces": 36, "pavimentada": 100.0, "bueiro": 36.11, "iluminacao": 100.0, "onibus": 19.44, "ciclovia": 2.78, "calcada": 100.0, "obstaculo": 94.44, "rampa": 33.33, "rampa_faces": 33.33, "sem_calcada": 0.0, "sem_arvore": 50.0, "muitas_arvores": 25.0, "vao": 66.67, "V05400": 36, "V05421": 36, "V05406": 36, "V05412": 36, "V05422": 0, "V05424": 34, "V05427": 12, "V05409": 13, "V05415": 7, "V05418": 1, "V05430": 18, "V05433": 9, "criancas_0a4": 27, "em_favela": false }, "geometry": { "type": "Polygon", "coordinates": [ [ [ -46.71667, -23.669123 ], [ -46.718057, -23.671311 ], [ -46.716125, -23.67234 ], [ -46.716949, -23.673629 ], [ -46.716966, -23.67373 ], [ -46.716914, -23.673818 ], [ -46.71639, -23.674104 ], [ -46.7144, -23.674732 ], [ -46.714606, -23.675177 ], [ -46.724358, -23.672021 ], [ -46.726398, -23.671415 ], [ -46.726938, -23.671234 ], [ -46.72707, -23.67109 ], [ -46.727049, -23.670945 ], [ -46.726871, -23.670718 ], [ -46.72672, -23.670694 ], [ -46.726349, -23.670373 ], [ -46.726146, -23.670291 ], [ -46.726155, -23.670385 ], [ -46.726561, -23.670911 ], [ -46.726372, -23.671125 ], [ -46.726021, -23.671219 ], [ -46.725593, -23.671232 ], [ -46.723564, -23.671028 ], [ -46.722878, -23.671061 ], [ -46.721566, -23.671305 ], [ -46.721382, -23.671246 ], [ -46.721187, -23.671334 ], [ -46.720653, -23.671317 ], [ -46.720429, -23.67116 ], [ -46.72074, -23.670749 ], [ -46.717817, -23.668947 ], [ -46.717249, -23.66878 ], [ -46.71667, -23.669123 ] ] ] } },
{ "type": "Feature", "properties": { "CD_SETOR": "355030879000020", "faces": 21, "pavimentada": 100.0, "bueiro": 38.1, "iluminacao": 95.24, "onibus": 0.0, "ciclovia": 0.0, "calcada": 100.0, "obstaculo": 90.48, "rampa": 28.57, "rampa_faces": 28.57, "sem_calcada": 0.0, "sem_arvore": 19.05, "muitas_arvores": 33.33, "vao": 71.43, "V05400": 21, "V05421": 21, "V05406": 21, "V05412": 20, "V05422": 0, "V05424": 19, "V05427": 6, "V05409": 8, "V05415": 0, "V05418": 0, "V05430": 4, "V05433": 7, "criancas_0a4": 16, "em_favela": false }, "geometry": { "type": "Polygon", "coordinates": [ [ [ -46.698317, -23.686007 ], [ -46.698549, -23.685901 ], [ -46.70014, -23.684698 ], [ -46.700384, -23.684576 ], [ -46.700786, -23.684627 ], [ -46.701411, -23.68517 ], [ -46.701475, -23.684937 ], [ -46.701666, -23.684637 ], [ -46.702852, -23.683445 ], [ -46.703372, -23.6836 ], [ -46.703943, -23.682864 ], [ -46.703018, -23.682174 ], [ -46.702771, -23.682438 ], [ -46.70261, -23.682513 ], [ -46.70121, -23.683086 ], [ -46.699894, -23.683542 ], [ -46.699446, -23.684013 ], [ -46.699397, -23.684234 ], [ -46.698317, -23.686007 ] ] ] } },
{ "type": "Feature", "properties": { "CD_SETOR": "355030879000022", "faces": 40, "pavimentada": 97.5, "bueiro": 57.5, "iluminacao": 97.5, "onibus": 25.0, "ciclovia": 0.0, "calcada": 97.5, "obstaculo": 89.74, "rampa": 2.56, "rampa_faces": 2.5, "sem_calcada": 0.0, "sem_arvore": 37.5, "muitas_arvores": 47.5, "vao": 95.0, "V05400": 40, "V05421": 39, "V05406": 39, "V05412": 39, "V05422": 0, "V05424": 35, "V05427": 1, "V05409": 23, "V05415": 10, "V05418": 0, "V05430": 15, "V05433": 19, "criancas_0a4": 25, "em_favela": false }, "geometry": { "type": "Polygon", "coordinates": [ [ [ -46.702683, -23.685165 ], [ -46.703811, -23.68595 ], [ -46.703218, -23.688751 ], [ -46.706531, -23.689487 ], [ -46.706725, -23.689683 ], [ -46.706899, -23.689767 ], [ -46.708103, -23.691058 ], [ -46.708409, -23.690832 ], [ -46.708637, -23.690735 ], [ -46.708969, -23.690648 ], [ -46.709462, -23.690599 ], [ -46.709456, -23.690439 ], [ -46.709189, -23.690251 ], [ -46.708407, -23.689189 ], [ -46.70682, -23.687684 ], [ -46.70614, -23.687292 ], [ -46.706907, -23.686674 ], [ -46.706271, -23.686 ], [ -46.703067, -23.684262 ], [ -46.702683, -23.685165 ] ] ] } },
{ "type": "Feature", "properties": { "CD_SETOR": "355030879000023", "faces": 24, "pavimentada": 95.83, "bueiro": 45.83, "iluminacao": 95.83, "onibus": 20.83, "ciclovia": 0.0, "calcada": 95.83, "obstaculo": 86.96, "rampa": 8.7, "rampa_faces": 8.33, "sem_calcada": 0.0, "sem_arvore": 25.0, "muitas_arvores": 8.33, "vao": 87.5, "V05400": 24, "V05421": 23, "V05406": 23, "V05412": 23, "V05422": 0, "V05424": 20, "V05427": 2, "V05409": 11, "V05415": 5, "V05418": 0, "V05430": 6, "V05433": 2, "criancas_0a4": 24, "em_favela": false }, "geometry": { "type": "Polygon", "coordinates": [ [ [ -46.707732, -23.685983 ], [ -46.70614, -23.687292 ], [ -46.70682, -23.687684 ], [ -46.708407, -23.689189 ], [ -46.709189, -23.690251 ], [ -46.709456, -23.690439 ], [ -46.709462, -23.690599 ], [ -46.709571, -23.690636 ], [ -46.709905, -23.690605 ], [ -46.709905, -23.688587 ], [ -46.712012, -23.688513 ], [ -46.712021, -23.688074 ], [ -46.712107, -23.687507 ], [ -46.711939, -23.687293 ], [ -46.711825, -23.687229 ], [ -46.70904, -23.686304 ], [ -46.7089, -23.686379 ], [ -46.708497, -23.68678 ], [ -46.707732, -23.685983 ] ] ] } },
{ "type": "Feature", "properties": { "CD_SETOR": "355030879000024", "faces": 28, "pavimentada": 100.0, "bueiro": 67.86, "iluminacao": 100.0, "onibus": 0.0, "ciclovia": 0.0, "calcada": 100.0, "obstaculo": 100.0, "rampa": 28.57, "rampa_faces": 28.57, "sem_calcada": 0.0, "sem_arvore": 14.29, "muitas_arvores": 64.29, "vao": 71.43, "V05400": 28, "V05421": 28, "V05406": 28, "V05412": 28, "V05422": 0, "V05424": 28, "V05427": 8, "V05409": 19, "V05415": 0, "V05418": 0, "V05430": 4, "V05433": 18, "criancas_0a4": 15, "em_favela": false }, "geometry": { "type": "Polygon", "coordinates": [ [ [ -46.713504, -23.68846 ], [ -46.709905, -23.688587 ], [ -46.709905, -23.690605 ], [ -46.713518, -23.690243 ], [ -46.713504, -23.690013 ], [ -46.714645, -23.689854 ], [ -46.714628, -23.689297 ], [ -46.713522, -23.68933 ], [ -46.713504, -23.68846 ] ] ] } },
{ "type": "Feature", "properties": { "CD_SETOR": "355030879000025", "faces": 6, "pavimentada": 100.0, "bueiro": 50.0, "iluminacao": 100.0, "onibus": 0.0, "ciclovia": 0.0, "calcada": 100.0, "obstaculo": 50.0, "rampa": 50.0, "rampa_faces": 50.0, "sem_calcada": 0.0, "sem_arvore": 33.33, "muitas_arvores": 33.33, "vao": 50.0, "V05400": 6, "V05421": 6, "V05406": 6, "V05412": 6, "V05422": 0, "V05424": 3, "V05427": 3, "V05409": 3, "V05415": 0, "V05418": 0, "V05430": 2, "V05433": 2, "criancas_0a4": 20, "em_favela": false }, "geometry": { "type": "Polygon", "coordinates": [ [ [ -46.721108, -23.670251 ], [ -46.720429, -23.67116 ], [ -46.720653, -23.671317 ], [ -46.721187, -23.671334 ], [ -46.721382, -23.671246 ], [ -46.721566, -23.671305 ], [ -46.722397, -23.671155 ], [ -46.721108, -23.670251 ] ] ] } },
{ "type": "Feature", "properties": { "CD_SETOR": "355030879000028", "faces": 37, "pavimentada": 94.59, "bueiro": 89.19, "iluminacao": 100.0, "onibus": 2.7, "ciclovia": 0.0, "calcada": 94.59, "obstaculo": 100.0, "rampa": 2.86, "rampa_faces": 2.7, "sem_calcada": 5.41, "sem_arvore": 56.76, "muitas_arvores": 32.43, "vao": 91.89, "V05400": 37, "V05421": 35, "V05406": 35, "V05412": 37, "V05422": 2, "V05424": 35, "V05427": 1, "V05409": 33, "V05415": 1, "V05418": 0, "V05430": 21, "V05433": 12, "criancas_0a4": 27, "em_favela": false }, "geometry": { "type": "Polygon", "coordinates": [ [ [ -46.717007, -23.666221 ], [ -46.722598, -23.666778 ], [ -46.724415, -23.667006 ], [ -46.722186, -23.658891 ], [ -46.721638, -23.659 ], [ -46.718397, -23.662086 ], [ -46.71783, -23.661585 ], [ -46.716439, -23.662934 ], [ -46.718435, -23.664759 ], [ -46.71706, -23.66611 ], [ -46.717007, -23.666221 ] ] ] } },
{ "type": "Feature", "properties": { "CD_SETOR": "355030879000029", "faces": 50, "pavimentada": 100.0, "bueiro": 88.0, "iluminacao": 100.0, "onibus": 32.0, "ciclovia": 0.0, "calcada": 100.0, "obstaculo": 100.0, "rampa": 2.0, "rampa_faces": 2.0, "sem_calcada": 0.0, "sem_arvore": 64.0, "muitas_arvores": 16.0, "vao": 98.0, "V05400": 50, "V05421": 50, "V05406": 50, "V05412": 50, "V05422": 0, "V05424": 50, "V05427": 1, "V05409": 44, "V05415": 16, "V05418": 0, "V05430": 32, "V05433": 8, "criancas_0a4": 13, "em_favela": false }, "geometry": { "type": "Polygon", "coordinates": [ [ [ -46.716049, -23.665282 ], [ -46.71698, -23.666129 ], [ -46.717007, -23.666221 ], [ -46.71706, -23.66611 ], [ -46.718435, -23.664759 ], [ -46.716439, -23.662934 ], [ -46.71783, -23.661585 ], [ -46.718397, -23.662086 ], [ -46.721638, -23.659 ], [ -46.722186, -23.658891 ], [ -46.722034, -23.658339 ], [ -46.72186, -23.657923 ], [ -46.721687, -23.657654 ], [ -46.721479, -23.657417 ], [ -46.720956, -23.65707 ], [ -46.719709, -23.656583 ], [ -46.719124, -23.657143 ], [ -46.718566, -23.657562 ], [ -46.714974, -23.659911 ], [ -46.714032, -23.660628 ], [ -46.71312, -23.661441 ], [ -46.711879, -23.662911 ], [ -46.715278, -23.666024 ], [ -46.715769, -23.666105 ], [ -46.715905, -23.665916 ], [ -46.715626, -23.665712 ], [ -46.716049, -23.665282 ] ], [ [ -46.716234, -23.662045 ], [ -46.715835, -23.661665 ], [ -46.716093, -23.661423 ], [ -46.716507, -23.661775 ], [ -46.716234, -23.662045 ] ] ] } },
{ "type": "Feature", "properties": { "CD_SETOR": "355030879000030", "faces": 7, "pavimentada": 100.0, "bueiro": 100.0, "iluminacao": 100.0, "onibus": 28.57, "ciclovia": 0.0, "calcada": 100.0, "obstaculo": 100.0, "rampa": 0.0, "rampa_faces": 0.0, "sem_calcada": 0.0, "sem_arvore": 71.43, "muitas_arvores": 14.29, "vao": 100.0, "V05400": 7, "V05421": 7, "V05406": 7, "V05412": 7, "V05422": 0, "V05424": 7, "V05427": 0, "V05409": 7, "V05415": 2, "V05418": 0, "V05430": 5, "V05433": 1, "criancas_0a4": 17, "em_favela": true }, "geometry": { "type": "Polygon", "coordinates": [ [ [ -46.71698, -23.666129 ], [ -46.716049, -23.665282 ], [ -46.715626, -23.665712 ], [ -46.715905, -23.665916 ], [ -46.715769, -23.666105 ], [ -46.717002, -23.66622 ], [ -46.71698, -23.666129 ] ] ] } },
{ "type": "Feature", "properties": { "CD_SETOR": "355030879000032", "faces": 19, "pavimentada": 100.0, "bueiro": 47.37, "iluminacao": 73.68, "onibus": 0.0, "ciclovia": 0.0, "calcada": 31.58, "obstaculo": 100.0, "rampa": 0.0, "rampa_faces": 0.0, "sem_calcada": 68.42, "sem_arvore": 94.74, "muitas_arvores": 0.0, "vao": 100.0, "V05400": 19, "V05421": 6, "V05406": 19, "V05412": 14, "V05422": 13, "V05424": 6, "V05427": 0, "V05409": 9, "V05415": 0, "V05418": 0, "V05430": 18, "V05433": 0, "criancas_0a4": 23, "em_favela": true }, "geometry": { "type": "Polygon", "coordinates": [ [ [ -46.699512, -23.687697 ], [ -46.700064, -23.687923 ], [ -46.700315, -23.688189 ], [ -46.70055, -23.68866 ], [ -46.700646, -23.688511 ], [ -46.700579, -23.688447 ], [ -46.700246, -23.687572 ], [ -46.699482, -23.687188 ], [ -46.699553, -23.687444 ], [ -46.699512, -23.687697 ] ] ] } },
{ "type": "Feature", "properties": { "CD_SETOR": "355030879000033", "faces": 3, "pavimentada": 100.0, "bueiro": 0.0, "iluminacao": 100.0, "onibus": 0.0, "ciclovia": 0.0, "calcada": 66.67, "obstaculo": 50.0, "rampa": 50.0, "rampa_faces": 33.33, "sem_calcada": 33.33, "sem_arvore": 33.33, "muitas_arvores": 66.67, "vao": 66.67, "V05400": 3, "V05421": 2, "V05406": 3, "V05412": 3, "V05422": 1, "V05424": 1, "V05427": 1, "V05409": 0, "V05415": 0, "V05418": 0, "V05430": 1, "V05433": 2, "criancas_0a4": 13, "em_favela": false }, "geometry": { "type": "Polygon", "coordinates": [ [ [ -46.70055, -23.68866 ], [ -46.699843, -23.689058 ], [ -46.699413, -23.688712 ], [ -46.699047, -23.688903 ], [ -46.70006, -23.690381 ], [ -46.700304, -23.689801 ], [ -46.700548, -23.689452 ], [ -46.700986, -23.688659 ], [ -46.700646, -23.688511 ], [ -46.70055, -23.68866 ] ] ] } },
{ "type": "Feature", "properties": { "CD_SETOR": "355030879000034", "faces": 1, "pavimentada": 100.0, "bueiro": 100.0, "iluminacao": 100.0, "onibus": 0.0, "ciclovia": 0.0, "calcada": 100.0, "obstaculo": 0.0, "rampa": 100.0, "rampa_faces": 100.0, "sem_calcada": 0.0, "sem_arvore": 0.0, "muitas_arvores": 100.0, "vao": 0.0, "V05400": 1, "V05421": 1, "V05406": 1, "V05412": 1, "V05422": 0, "V05424": 0, "V05427": 1, "V05409": 1, "V05415": 0, "V05418": 0, "V05430": 0, "V05433": 1, "criancas_0a4": 22, "em_favela": false }, "geometry": { "type": "Polygon", "coordinates": [ [ [ -46.698362, -23.687822 ], [ -46.699047, -23.688903 ], [ -46.699413, -23.688712 ], [ -46.699843, -23.689058 ], [ -46.70055, -23.68866 ], [ -46.700315, -23.688189 ], [ -46.700064, -23.687923 ], [ -46.699679, -23.687738 ], [ -46.6992, -23.687633 ], [ -46.698906, -23.687653 ], [ -46.698362, -23.687822 ] ] ] } },
{ "type": "Feature", "properties": { "CD_SETOR": "355030879000035", "faces": 1, "pavimentada": 100.0, "bueiro": 0.0, "iluminacao": 100.0, "onibus": 0.0, "ciclovia": 0.0, "calcada": 100.0, "obstaculo": 0.0, "rampa": 100.0, "rampa_faces": 100.0, "sem_calcada": 0.0, "sem_arvore": 0.0, "muitas_arvores": 100.0, "vao": 0.0, "V05400": 1, "V05421": 1, "V05406": 1, "V05412": 1, "V05422": 0, "V05424": 0, "V05427": 1, "V05409": 0, "V05415": 0, "V05418": 0, "V05430": 0, "V05433": 1, "criancas_0a4": 18, "em_favela": false }, "geometry": { "type": "Polygon", "coordinates": [ [ [ -46.69859, -23.690742 ], [ -46.699253, -23.69117 ], [ -46.699491, -23.691185 ], [ -46.699542, -23.691244 ], [ -46.70006, -23.690381 ], [ -46.699047, -23.688903 ], [ -46.699006, -23.68938 ], [ -46.699107, -23.689466 ], [ -46.699209, -23.690025 ], [ -46.699344, -23.690383 ], [ -46.69859, -23.690742 ] ] ] } },
{ "type": "Feature", "properties": { "CD_SETOR": "355030879000036", "faces": 1, "pavimentada": 100.0, "bueiro": 100.0, "iluminacao": 100.0, "onibus": 0.0, "ciclovia": 100.0, "calcada": 100.0, "obstaculo": 100.0, "rampa": 100.0, "rampa_faces": 100.0, "sem_calcada": 0.0, "sem_arvore": 0.0, "muitas_arvores": 100.0, "vao": 0.0, "V05400": 1, "V05421": 1, "V05406": 1, "V05412": 1, "V05422": 0, "V05424": 1, "V05427": 1, "V05409": 1, "V05415": 0, "V05418": 1, "V05430": 0, "V05433": 1, "criancas_0a4": 38, "em_favela": false }, "geometry": { "type": "Polygon", "coordinates": [ [ [ -46.69859, -23.690742 ], [ -46.699344, -23.690383 ], [ -46.699209, -23.690025 ], [ -46.699107, -23.689466 ], [ -46.699006, -23.68938 ], [ -46.699047, -23.688903 ], [ -46.698362, -23.687822 ], [ -46.698182, -23.687926 ], [ -46.69771, -23.688614 ], [ -46.698247, -23.690198 ], [ -46.69859, -23.690742 ] ] ] } },
{ "type": "Feature", "properties": { "CD_SETOR": "355030879000038", "faces": 20, "pavimentada": 100.0, "bueiro": 85.0, "iluminacao": 100.0, "onibus": 10.0, "ciclovia": 0.0, "calcada": 100.0, "obstaculo": 95.0, "rampa": 75.0, "rampa_faces": 75.0, "sem_calcada": 0.0, "sem_arvore": 40.0, "muitas_arvores": 20.0, "vao": 25.0, "V05400": 20, "V05421": 20, "V05406": 20, "V05412": 20, "V05422": 0, "V05424": 19, "V05427": 15, "V05409": 17, "V05415": 2, "V05418": 0, "V05430": 8, "V05433": 4, "criancas_0a4": 19, "em_favela": false }, "geometry": { "type": "Polygon", "coordinates": [ [ [ -46.701476, -23.690707 ], [ -46.702804, -23.690984 ], [ -46.702619, -23.691917 ], [ -46.702588, -23.69197 ], [ -46.702164, -23.692177 ], [ -46.702616, -23.692844 ], [ -46.703266, -23.693662 ], [ -46.703347, -23.693708 ], [ -46.70345, -23.693188 ], [ -46.703355, -23.692884 ], [ -46.704032, -23.689947 ], [ -46.701551, -23.689422 ], [ -46.701459, -23.690418 ], [ -46.701476, -23.690707 ] ] ] } },
{ "type": "Feature", "properties": { "CD_SETOR": "355030879000041", "faces": 45, "pavimentada": 100.0, "bueiro": 66.67, "iluminacao": 100.0, "onibus": 0.0, "ciclovia": 0.0, "calcada": 95.56, "obstaculo": 95.35, "rampa": 18.6, "rampa_faces": 17.78, "sem_calcada": 4.44, "sem_arvore": 20.0, "muitas_arvores": 57.78, "vao": 82.22, "V05400": 45, "V05421": 43, "V05406": 45, "V05412": 45, "V05422": 2, "V05424": 41, "V05427": 8, "V05409": 30, "V05415": 0, "V05418": 0, "V05430": 9, "V05433": 26, "criancas_0a4": 16, "em_favela": false }, "geometry": { "type": "Polygon", "coordinates": [ [ [ -46.708958, -23.690651 ], [ -46.709011, -23.692491 ], [ -46.708534, -23.692511 ], [ -46.708616, -23.694175 ], [ -46.709201, -23.694347 ], [ -46.709673, -23.694402 ], [ -46.712564, -23.694288 ], [ -46.71249, -23.692781 ], [ -46.711456, -23.692506 ], [ -46.711388, -23.692447 ], [ -46.711375, -23.69209 ], [ -46.709695, -23.690678 ], [ -46.709462, -23.690599 ], [ -46.708958, -23.690651 ] ] ] } },
{ "type": "Feature", "properties": { "CD_SETOR": "355030879000042", "faces": 46, "pavimentada": 100.0, "bueiro": 91.3, "iluminacao": 100.0, "onibus": 0.0, "ciclovia": 6.52, "calcada": 100.0, "obstaculo": 80.43, "rampa": 45.65, "rampa_faces": 45.65, "sem_calcada": 0.0, "sem_arvore": 19.57, "muitas_arvores": 52.17, "vao": 54.35, "V05400": 46, "V05421": 46, "V05406": 46, "V05412": 46, "V05422": 0, "V05424": 37, "V05427": 21, "V05409": 42, "V05415": 0, "V05418": 3, "V05430": 9, "V05433": 24, "criancas_0a4": 18, "em_favela": false }, "geometry": { "type": "Polygon", "coordinates": [ [ [ -46.713518, -23.690243 ], [ -46.709571, -23.690636 ], [ -46.709695, -23.690678 ], [ -46.711375, -23.69209 ], [ -46.711388, -23.692447 ], [ -46.711508, -23.692536 ], [ -46.712558, -23.692791 ], [ -46.714753, -23.692724 ], [ -46.714645, -23.689854 ], [ -46.713504, -23.690013 ], [ -46.713518, -23.690243 ] ] ] } },
{ "type": "Feature", "properties": { "CD_SETOR": "355030879000043", "faces": 19, "pavimentada": 100.0, "bueiro": 63.16, "iluminacao": 100.0, "onibus": 21.05, "ciclovia": 0.0, "calcada": 100.0, "obstaculo": 94.74, "rampa": 47.37, "rampa_faces": 47.37, "sem_calcada": 0.0, "sem_arvore": 21.05, "muitas_arvores": 15.79, "vao": 52.63, "V05400": 19, "V05421": 19, "V05406": 19, "V05412": 19, "V05422": 0, "V05424": 18, "V05427": 9, "V05409": 12, "V05415": 4, "V05418": 0, "V05430": 4, "V05433": 3, "criancas_0a4": 23, "em_favela": false }, "geometry": { "type": "Polygon", "coordinates": [ [ [ -46.69836, -23.692373 ], [ -46.698687, -23.693348 ], [ -46.699876, -23.695774 ], [ -46.701173, -23.69524 ], [ -46.701461, -23.695375 ], [ -46.701521, -23.692118 ], [ -46.699326, -23.691589 ], [ -46.698715, -23.692158 ], [ -46.69836, -23.692373 ] ] ] } },
{ "type": "Feature", "properties": { "CD_SETOR": "355030879000047", "faces": 121, "pavimentada": 100.0, "bueiro": 38.02, "iluminacao": 95.87, "onibus": 0.0, "ciclovia": 20.66, "calcada": 96.69, "obstaculo": 83.76, "rampa": 5.13, "rampa_faces": 4.96, "sem_calcada": 3.31, "sem_arvore": 3.31, "muitas_arvores": 78.51, "vao": 95.04, "V05400": 121, "V05421": 117, "V05406": 121, "V05412": 116, "V05422": 4, "V05424": 98, "V05427": 6, "V05409": 46, "V05415": 0, "V05418": 25, "V05430": 4, "V05433": 95, "criancas_0a4": 24, "em_favela": false }, "geometry": { "type": "Polygon", "coordinates": [ [ [ -46.708116, -23.701875 ], [ -46.707662, -23.702023 ], [ -46.706988, -23.702368 ], [ -46.706498, -23.702786 ], [ -46.706317, -23.703104 ], [ -46.706233, -23.703481 ], [ -46.706282, -23.704092 ], [ -46.706402, -23.704538 ], [ -46.70671, -23.705233 ], [ -46.707474, -23.705992 ], [ -46.708149, -23.70641 ], [ -46.712438, -23.708164 ], [ -46.714585, -23.703757 ], [ -46.713186, -23.703173 ], [ -46.713013, -23.703223 ], [ -46.7128, -23.703136 ], [ -46.712739, -23.70299 ], [ -46.710106, -23.701934 ], [ -46.709652, -23.701821 ], [ -46.70922, -23.701779 ], [ -46.708658, -23.701785 ], [ -46.708116, -23.701875 ] ] ] } },
{ "type": "Feature", "properties": { "CD_SETOR": "355030879000048", "faces": 24, "pavimentada": 100.0, "bueiro": 70.83, "iluminacao": 100.0, "onibus": 8.33, "ciclovia": 4.17, "calcada": 91.67, "obstaculo": 95.45, "rampa": 4.55, "rampa_faces": 4.17, "sem_calcada": 8.33, "sem_arvore": 45.83, "muitas_arvores": 16.67, "vao": 95.83, "V05400": 24, "V05421": 22, "V05406": 24, "V05412": 24, "V05422": 2, "V05424": 21, "V05427": 1, "V05409": 17, "V05415": 2, "V05418": 1, "V05430": 11, "V05433": 4, "criancas_0a4": 17, "em_favela": false }, "geometry": { "type": "Polygon", "coordinates": [ [ [ -46.713827, -23.681861 ], [ -46.712097, -23.682477 ], [ -46.711552, -23.682571 ], [ -46.711622, -23.682593 ], [ -46.711809, -23.683594 ], [ -46.71241, -23.68351 ], [ -46.712623, -23.684613 ], [ -46.713745, -23.684572 ], [ -46.713707, -23.683609 ], [ -46.713651, -23.683318 ], [ -46.714364, -23.683169 ], [ -46.714095, -23.682458 ], [ -46.713827, -23.681861 ] ] ] } },
{ "type": "Feature", "properties": { "CD_SETOR": "355030879000049", "faces": 2, "pavimentada": 100.0, "bueiro": 0.0, "iluminacao": 100.0, "onibus": 50.0, "ciclovia": 100.0, "calcada": 100.0, "obstaculo": 0.0, "rampa": 0.0, "rampa_faces": 0.0, "sem_calcada": 0.0, "sem_arvore": 0.0, "muitas_arvores": 100.0, "vao": 100.0, "V05400": 2, "V05421": 2, "V05406": 2, "V05412": 2, "V05422": 0, "V05424": 0, "V05427": 0, "V05409": 0, "V05415": 1, "V05418": 2, "V05430": 0, "V05433": 2, "criancas_0a4": 10, "em_favela": false }, "geometry": { "type": "Polygon", "coordinates": [ [ [ -46.714757, -23.6741 ], [ -46.713819, -23.674601 ], [ -46.713972, -23.67487 ], [ -46.715039, -23.67453 ], [ -46.714757, -23.6741 ] ] ] } },
{ "type": "Feature", "properties": { "CD_SETOR": "355030879000050", "faces": 23, "pavimentada": 91.3, "bueiro": 69.57, "iluminacao": 100.0, "onibus": 13.04, "ciclovia": 0.0, "calcada": 91.3, "obstaculo": 95.24, "rampa": 38.1, "rampa_faces": 34.78, "sem_calcada": 8.7, "sem_arvore": 39.13, "muitas_arvores": 26.09, "vao": 56.52, "V05400": 23, "V05421": 21, "V05406": 21, "V05412": 23, "V05422": 2, "V05424": 20, "V05427": 8, "V05409": 16, "V05415": 3, "V05418": 0, "V05430": 9, "V05433": 6, "criancas_0a4": 17, "em_favela": false }, "geometry": { "type": "Polygon", "coordinates": [ [ [ -46.715037, -23.67066 ], [ -46.716125, -23.67234 ], [ -46.718057, -23.671311 ], [ -46.71667, -23.669123 ], [ -46.715711, -23.66964 ], [ -46.716017, -23.670123 ], [ -46.715037, -23.67066 ] ] ] } },
{ "type": "Feature", "properties": { "CD_SETOR": "355030879000051", "faces": 28, "pavimentada": 100.0, "bueiro": 10.71, "iluminacao": 100.0, "onibus": 14.29, "ciclovia": 0.0, "calcada": 100.0, "obstaculo": 85.71, "rampa": 7.14, "rampa_faces": 7.14, "sem_calcada": 0.0, "sem_arvore": 46.43, "muitas_arvores": 25.0, "vao": 92.86, "V05400": 28, "V05421": 28, "V05406": 28, "V05412": 28, "V05422": 0, "V05424": 24, "V05427": 2, "V05409": 3, "V05415": 4, "V05418": 0, "V05430": 13, "V05433": 7, "criancas_0a4": 10, "em_favela": false }, "geometry": { "type": "Polygon", "coordinates": [ [ [ -46.699408, -23.685254 ], [ -46.699307, -23.68574 ], [ -46.69933, -23.686066 ], [ -46.700137, -23.686431 ], [ -46.700652, -23.686462 ], [ -46.701108, -23.686417 ], [ -46.701171, -23.686296 ], [ -46.701189, -23.685865 ], [ -46.701238, -23.685852 ], [ -46.702265, -23.686208 ], [ -46.703372, -23.6836 ], [ -46.702852, -23.683445 ], [ -46.701666, -23.684637 ], [ -46.701475, -23.684937 ], [ -46.701411, -23.68517 ], [ -46.700786, -23.684627 ], [ -46.700384, -23.684576 ], [ -46.70014, -23.684698 ], [ -46.699408, -23.685254 ] ] ] } },
{ "type": "Feature", "properties": { "CD_SETOR": "355030879000053", "faces": 2, "pavimentada": 100.0, "bueiro": 0.0, "iluminacao": 100.0, "onibus": 0.0, "ciclovia": 50.0, "calcada": 100.0, "obstaculo": 0.0, "rampa": 0.0, "rampa_faces": 0.0, "sem_calcada": 0.0, "sem_arvore": 0.0, "muitas_arvores": 100.0, "vao": 100.0, "V05400": 2, "V05421": 2, "V05406": 2, "V05412": 2, "V05422": 0, "V05424": 0, "V05427": 0, "V05409": 0, "V05415": 0, "V05418": 1, "V05430": 0, "V05433": 2, "criancas_0a4": 19, "em_favela": false }, "geometry": { "type": "Polygon", "coordinates": [ [ [ -46.713707, -23.673668 ], [ -46.713084, -23.674007 ], [ -46.713605, -23.674985 ], [ -46.713972, -23.67487 ], [ -46.713819, -23.674601 ], [ -46.714153, -23.67442 ], [ -46.713707, -23.673668 ] ] ] } },
{ "type": "Feature", "properties": { "CD_SETOR": "355030879000054", "faces": 2, "pavimentada": 100.0, "bueiro": 100.0, "iluminacao": 100.0, "onibus": 50.0, "ciclovia": 50.0, "calcada": 100.0, "obstaculo": 0.0, "rampa": 0.0, "rampa_faces": 0.0, "sem_calcada": 0.0, "sem_arvore": 0.0, "muitas_arvores": 50.0, "vao": 100.0, "V05400": 2, "V05421": 2, "V05406": 2, "V05412": 2, "V05422": 0, "V05424": 0, "V05427": 0, "V05409": 2, "V05415": 1, "V05418": 1, "V05430": 0, "V05433": 1, "criancas_0a4": 37, "em_favela": false }, "geometry": { "type": "Polygon", "coordinates": [ [ [ -46.715989, -23.673262 ], [ -46.715649, -23.673451 ], [ -46.715681, -23.67351 ], [ -46.715626, -23.673531 ], [ -46.716074, -23.674203 ], [ -46.71639, -23.674104 ], [ -46.716944, -23.673781 ], [ -46.716949, -23.673629 ], [ -46.716675, -23.673201 ], [ -46.716143, -23.673493 ], [ -46.715989, -23.673262 ] ] ] } },
{ "type": "Feature", "properties": { "CD_SETOR": "355030879000055", "faces": 76, "pavimentada": 100.0, "bueiro": 67.11, "iluminacao": 100.0, "onibus": 5.26, "ciclovia": 18.42, "calcada": 98.68, "obstaculo": 89.33, "rampa": 10.67, "rampa_faces": 10.53, "sem_calcada": 1.32, "sem_arvore": 11.84, "muitas_arvores": 75.0, "vao": 89.47, "V05400": 76, "V05421": 75, "V05406": 76, "V05412": 76, "V05422": 1, "V05424": 67, "V05427": 8, "V05409": 51, "V05415": 4, "V05418": 14, "V05430": 9, "V05433": 57, "criancas_0a4": 20, "em_favela": false }, "geometry": { "type": "Polygon", "coordinates": [ [ [ -46.71249, -23.692781 ], [ -46.712659, -23.696635 ], [ -46.713045, -23.696616 ], [ -46.713711, -23.695627 ], [ -46.713787, -23.697182 ], [ -46.712906, -23.697229 ], [ -46.712643, -23.697488 ], [ -46.713333, -23.698012 ], [ -46.712335, -23.699356 ], [ -46.713001, -23.700011 ], [ -46.712257, -23.701024 ], [ -46.712118, -23.700958 ], [ -46.712009, -23.701132 ], [ -46.712079, -23.701268 ], [ -46.711265, -23.702375 ], [ -46.712739, -23.70299 ], [ -46.7128, -23.703136 ], [ -46.713013, -23.703223 ], [ -46.713186, -23.703173 ], [ -46.714585, -23.703757 ], [ -46.714846, -23.703108 ], [ -46.71496, -23.702565 ], [ -46.715035, -23.700457 ], [ -46.714753, -23.692724 ], [ -46.71249, -23.692781 ] ] ] } },
{ "type": "Feature", "properties": { "CD_SETOR": "355030879000056", "faces": 6, "pavimentada": 100.0, "bueiro": 33.33, "iluminacao": 33.33, "onibus": 33.33, "ciclovia": 0.0, "calcada": 33.33, "obstaculo": 100.0, "rampa": 0.0, "rampa_faces": 0.0, "sem_calcada": 66.67, "sem_arvore": 83.33, "muitas_arvores": 0.0, "vao": 100.0, "V05400": 6, "V05421": 2, "V05406": 6, "V05412": 2, "V05422": 4, "V05424": 2, "V05427": 0, "V05409": 2, "V05415": 2, "V05418": 0, "V05430": 5, "V05433": 0, "criancas_0a4": 8, "em_favela": true }, "geometry": { "type": "Polygon", "coordinates": [ [ [ -46.715835, -23.661665 ], [ -46.716234, -23.662045 ], [ -46.716507, -23.661775 ], [ -46.716093, -23.661423 ], [ -46.715835, -23.661665 ] ] ] } },
{ "type": "Feature", "properties": { "CD_SETOR": "355030879000057", "faces": 25, "pavimentada": 100.0, "bueiro": 0.0, "iluminacao": 100.0, "onibus": 16.0, "ciclovia": 0.0, "calcada": 100.0, "obstaculo": 76.0, "rampa": 16.0, "rampa_faces": 16.0, "sem_calcada": 0.0, "sem_arvore": 24.0, "muitas_arvores": 36.0, "vao": 84.0, "V05400": 25, "V05421": 25, "V05406": 25, "V05412": 25, "V05422": 0, "V05424": 19, "V05427": 4, "V05409": 0, "V05415": 4, "V05418": 0, "V05430": 6, "V05433": 9, "criancas_0a4": 12, "em_favela": false }, "geometry": { "type": "Polygon", "coordinates": [ [ [ -46.707312, -23.681134 ], [ -46.708126, -23.681912 ], [ -46.708305, -23.681861 ], [ -46.708506, -23.681924 ], [ -46.708578, -23.682118 ], [ -46.708493, -23.682276 ], [ -46.709475, -23.68321 ], [ -46.710633, -23.682175 ], [ -46.708489, -23.680104 ], [ -46.707312, -23.681134 ] ] ] } },
{ "type": "Feature", "properties": { "CD_SETOR": "355030879000058", "faces": 33, "pavimentada": 100.0, "bueiro": 69.7, "iluminacao": 100.0, "onibus": 9.09, "ciclovia": 3.03, "calcada": 93.94, "obstaculo": 61.29, "rampa": 19.35, "rampa_faces": 18.18, "sem_calcada": 6.06, "sem_arvore": 15.15, "muitas_arvores": 48.48, "vao": 81.82, "V05400": 33, "V05421": 31, "V05406": 33, "V05412": 33, "V05422": 2, "V05424": 19, "V05427": 6, "V05409": 23, "V05415": 3, "V05418": 1, "V05430": 5, "V05433": 16, "criancas_0a4": 15, "em_favela": false }, "geometry": { "type": "Polygon", "coordinates": [ [ [ -46.711383, -23.680917 ], [ -46.71127, -23.680966 ], [ -46.711213, -23.681067 ], [ -46.709544, -23.681003 ], [ -46.709497, -23.681081 ], [ -46.711273, -23.682771 ], [ -46.711482, -23.682593 ], [ -46.712097, -23.682477 ], [ -46.713787, -23.681879 ], [ -46.713275, -23.680663 ], [ -46.712035, -23.681093 ], [ -46.711556, -23.68107 ], [ -46.711512, -23.680977 ], [ -46.711383, -23.680917 ] ] ] } },
{ "type": "Feature", "properties": { "CD_SETOR": "355030879000059", "faces": 20, "pavimentada": 100.0, "bueiro": 45.0, "iluminacao": 100.0, "onibus": 0.0, "ciclovia": 0.0, "calcada": 80.0, "obstaculo": 25.0, "rampa": 93.75, "rampa_faces": 75.0, "sem_calcada": 20.0, "sem_arvore": 50.0, "muitas_arvores": 20.0, "vao": 25.0, "V05400": 20, "V05421": 16, "V05406": 20, "V05412": 20, "V05422": 4, "V05424": 4, "V05427": 15, "V05409": 9, "V05415": 0, "V05418": 0, "V05430": 10, "V05433": 4, "criancas_0a4": 18, "em_favela": false }, "geometry": { "type": "Polygon", "coordinates": [ [ [ -46.714545, -23.680139 ], [ -46.71539, -23.682146 ], [ -46.715966, -23.68196 ], [ -46.71611, -23.681961 ], [ -46.716558, -23.682004 ], [ -46.716719, -23.682082 ], [ -46.717303, -23.68219 ], [ -46.716636, -23.680628 ], [ -46.716082, -23.68083 ], [ -46.715667, -23.679877 ], [ -46.714545, -23.680139 ] ] ] } },
{ "type": "Feature", "properties": { "CD_SETOR": "355030879000060", "faces": 16, "pavimentada": 100.0, "bueiro": 31.25, "iluminacao": 100.0, "onibus": 0.0, "ciclovia": 12.5, "calcada": 75.0, "obstaculo": 66.67, "rampa": 16.67, "rampa_faces": 12.5, "sem_calcada": 25.0, "sem_arvore": 43.75, "muitas_arvores": 18.75, "vao": 87.5, "V05400": 16, "V05421": 12, "V05406": 16, "V05412": 16, "V05422": 4, "V05424": 8, "V05427": 2, "V05409": 5, "V05415": 0, "V05418": 2, "V05430": 7, "V05433": 3, "criancas_0a4": 6, "em_favela": false }, "geometry": { "type": "Polygon", "coordinates": [ [ [ -46.713188, -23.680462 ], [ -46.713787, -23.681879 ], [ -46.713827, -23.681861 ], [ -46.714095, -23.682458 ], [ -46.714364, -23.683169 ], [ -46.714454, -23.683148 ], [ -46.714504, -23.683311 ], [ -46.714703, -23.683244 ], [ -46.714832, -23.682773 ], [ -46.714947, -23.682536 ], [ -46.71539, -23.682146 ], [ -46.714545, -23.680139 ], [ -46.713188, -23.680462 ] ] ] } },
{ "type": "Feature", "properties": { "CD_SETOR": "355030879000061", "faces": 29, "pavimentada": 100.0, "bueiro": 68.97, "iluminacao": 93.1, "onibus": 13.79, "ciclovia": 13.79, "calcada": 100.0, "obstaculo": 79.31, "rampa": 34.48, "rampa_faces": 34.48, "sem_calcada": 0.0, "sem_arvore": 55.17, "muitas_arvores": 17.24, "vao": 65.52, "V05400": 29, "V05421": 29, "V05406": 29, "V05412": 27, "V05422": 0, "V05424": 23, "V05427": 10, "V05409": 20, "V05415": 4, "V05418": 4, "V05430": 16, "V05433": 5, "criancas_0a4": 6, "em_favela": false }, "geometry": { "type": "Polygon", "coordinates": [ [ [ -46.711548, -23.676914 ], [ -46.71156, -23.677554 ], [ -46.711383, -23.680917 ], [ -46.711512, -23.680977 ], [ -46.711556, -23.68107 ], [ -46.712035, -23.681093 ], [ -46.713275, -23.680663 ], [ -46.712494, -23.678832 ], [ -46.712375, -23.676293 ], [ -46.712441, -23.676289 ], [ -46.712424, -23.675748 ], [ -46.712353, -23.675645 ], [ -46.712253, -23.675645 ], [ -46.711932, -23.675949 ], [ -46.711548, -23.676914 ] ] ] } },
{ "type": "Feature", "properties": { "CD_SETOR": "355030879000062", "faces": 29, "pavimentada": 100.0, "bueiro": 13.79, "iluminacao": 100.0, "onibus": 34.48, "ciclovia": 0.0, "calcada": 93.1, "obstaculo": 96.3, "rampa": 29.63, "rampa_faces": 27.59, "sem_calcada": 6.9, "sem_arvore": 17.24, "muitas_arvores": 31.03, "vao": 72.41, "V05400": 29, "V05421": 27, "V05406": 29, "V05412": 29, "V05422": 2, "V05424": 26, "V05427": 8, "V05409": 4, "V05415": 10, "V05418": 0, "V05430": 5, "V05433": 9, "criancas_0a4": 14, "em_favela": false }, "geometry": { "type": "Polygon", "coordinates": [ [ [ -46.710747, -23.677685 ], [ -46.709603, -23.678071 ], [ -46.710234, -23.678577 ], [ -46.708489, -23.680104 ], [ -46.709497, -23.681081 ], [ -46.709544, -23.681003 ], [ -46.711213, -23.681067 ], [ -46.71127, -23.680966 ], [ -46.711383, -23.680917 ], [ -46.71156, -23.677554 ], [ -46.711548, -23.676914 ], [ -46.711042, -23.677516 ], [ -46.710747, -23.677685 ] ] ] } },
{ "type": "Feature", "properties": { "CD_SETOR": "355030879000063", "faces": 7, "pavimentada": 100.0, "bueiro": 42.86, "iluminacao": 100.0, "onibus": 0.0, "ciclovia": 0.0, "calcada": 100.0, "obstaculo": 100.0, "rampa": 0.0, "rampa_faces": 0.0, "sem_calcada": 0.0, "sem_arvore": 0.0, "muitas_arvores": 71.43, "vao": 100.0, "V05400": 7, "V05421": 7, "V05406": 7, "V05412": 7, "V05422": 0, "V05424": 7, "V05427": 0, "V05409": 3, "V05415": 0, "V05418": 0, "V05430": 0, "V05433": 5, "criancas_0a4": 32, "em_favela": false }, "geometry": { "type": "Polygon", "coordinates": [ [ [ -46.707314, -23.677513 ], [ -46.706879, -23.678358 ], [ -46.706647, -23.679037 ], [ -46.707366, -23.679191 ], [ -46.70735, -23.679478 ], [ -46.7081, -23.67935 ], [ -46.708903, -23.67872 ], [ -46.709544, -23.678072 ], [ -46.710221, -23.677867 ], [ -46.709993, -23.677478 ], [ -46.709878, -23.677393 ], [ -46.70881, -23.677227 ], [ -46.708488, -23.677879 ], [ -46.708033, -23.677815 ], [ -46.707314, -23.677513 ] ] ] } },
{ "type": "Feature", "properties": { "CD_SETOR": "355030879000064", "faces": 22, "pavimentada": 100.0, "bueiro": 31.82, "iluminacao": 100.0, "onibus": 0.0, "ciclovia": 0.0, "calcada": 95.45, "obstaculo": 90.48, "rampa": 0.0, "rampa_faces": 0.0, "sem_calcada": 4.55, "sem_arvore": 27.27, "muitas_arvores": 50.0, "vao": 100.0, "V05400": 22, "V05421": 21, "V05406": 22, "V05412": 22, "V05422": 1, "V05424": 19, "V05427": 0, "V05409": 7, "V05415": 0, "V05418": 0, "V05430": 6, "V05433": 11, "criancas_0a4": 40, "em_favela": false }, "geometry": { "type": "Polygon", "coordinates": [ [ [ -46.706647, -23.679037 ], [ -46.706264, -23.679961 ], [ -46.706174, -23.680043 ], [ -46.707312, -23.681134 ], [ -46.710234, -23.678577 ], [ -46.709603, -23.678071 ], [ -46.709544, -23.678072 ], [ -46.708903, -23.67872 ], [ -46.7081, -23.67935 ], [ -46.70735, -23.679478 ], [ -46.707366, -23.679191 ], [ -46.706647, -23.679037 ] ] ] } },
{ "type": "Feature", "properties": { "CD_SETOR": "355030879000065", "faces": 34, "pavimentada": 100.0, "bueiro": 23.53, "iluminacao": 100.0, "onibus": 2.94, "ciclovia": 0.0, "calcada": 100.0, "obstaculo": 11.76, "rampa": 17.65, "rampa_faces": 17.65, "sem_calcada": 0.0, "sem_arvore": 35.29, "muitas_arvores": 50.0, "vao": 82.35, "V05400": 34, "V05421": 34, "V05406": 34, "V05412": 34, "V05422": 0, "V05424": 4, "V05427": 6, "V05409": 8, "V05415": 1, "V05418": 0, "V05430": 12, "V05433": 17, "criancas_0a4": 14, "em_favela": false }, "geometry": { "type": "Polygon", "coordinates": [ [ [ -46.706174, -23.680043 ], [ -46.705569, -23.68095 ], [ -46.705678, -23.681002 ], [ -46.705825, -23.681275 ], [ -46.706042, -23.682124 ], [ -46.706171, -23.682143 ], [ -46.707392, -23.683347 ], [ -46.708546, -23.682328 ], [ -46.708493, -23.682276 ], [ -46.708575, -23.682048 ], [ -46.708506, -23.681924 ], [ -46.708305, -23.681861 ], [ -46.708126, -23.681912 ], [ -46.706174, -23.680043 ] ] ] } },
{ "type": "Feature", "properties": { "CD_SETOR": "355030879000066", "faces": 24, "pavimentada": 100.0, "bueiro": 25.0, "iluminacao": 100.0, "onibus": 29.17, "ciclovia": 0.0, "calcada": 83.33, "obstaculo": 95.0, "rampa": 20.0, "rampa_faces": 16.67, "sem_calcada": 16.67, "sem_arvore": 45.83, "muitas_arvores": 12.5, "vao": 83.33, "V05400": 24, "V05421": 20, "V05406": 24, "V05412": 24, "V05422": 4, "V05424": 19, "V05427": 4, "V05409": 6, "V05415": 7, "V05418": 0, "V05430": 11, "V05433": 3, "criancas_0a4": 6, "em_favela": false }, "geometry": { "type": "Polygon", "coordinates": [ [ [ -46.708546, -23.682328 ], [ -46.707392, -23.683347 ], [ -46.708733, -23.684637 ], [ -46.708987, -23.68472 ], [ -46.709152, -23.684623 ], [ -46.711273, -23.682771 ], [ -46.710633, -23.682175 ], [ -46.709475, -23.68321 ], [ -46.708546, -23.682328 ] ] ] } },
{ "type": "Feature", "properties": { "CD_SETOR": "355030879000067", "faces": 35, "pavimentada": 100.0, "bueiro": 74.29, "iluminacao": 100.0, "onibus": 14.29, "ciclovia": 28.57, "calcada": 100.0, "obstaculo": 40.0, "rampa": 40.0, "rampa_faces": 40.0, "sem_calcada": 0.0, "sem_arvore": 14.29, "muitas_arvores": 42.86, "vao": 60.0, "V05400": 35, "V05421": 35, "V05406": 35, "V05412": 35, "V05422": 0, "V05424": 14, "V05427": 14, "V05409": 26, "V05415": 5, "V05418": 10, "V05430": 5, "V05433": 15, "criancas_0a4": 7, "em_favela": false }, "geometry": { "type": "Polygon", "coordinates": [ [ [ -46.712121, -23.669845 ], [ -46.712145, -23.670157 ], [ -46.712317, -23.67022 ], [ -46.713411, -23.671982 ], [ -46.712271, -23.672621 ], [ -46.712424, -23.675748 ], [ -46.712727, -23.675282 ], [ -46.713605, -23.674985 ], [ -46.713084, -23.674007 ], [ -46.713395, -23.673838 ], [ -46.713249, -23.673579 ], [ -46.71338, -23.673506 ], [ -46.713103, -23.673048 ], [ -46.713439, -23.672827 ], [ -46.713913, -23.673555 ], [ -46.714283, -23.673357 ], [ -46.715039, -23.67453 ], [ -46.716074, -23.674203 ], [ -46.715626, -23.673531 ], [ -46.715681, -23.67351 ], [ -46.715274, -23.672815 ], [ -46.715596, -23.672634 ], [ -46.716143, -23.673493 ], [ -46.716675, -23.673201 ], [ -46.713911, -23.668879 ], [ -46.712121, -23.669845 ] ] ] } },
{ "type": "Feature", "properties": { "CD_SETOR": "355030879000068", "faces": 1, "pavimentada": 100.0, "bueiro": 100.0, "iluminacao": 100.0, "onibus": 0.0, "ciclovia": 0.0, "calcada": 100.0, "obstaculo": 0.0, "rampa": 0.0, "rampa_faces": 0.0, "sem_calcada": 0.0, "sem_arvore": 0.0, "muitas_arvores": 100.0, "vao": 100.0, "V05400": 1, "V05421": 1, "V05406": 1, "V05412": 1, "V05422": 0, "V05424": 0, "V05427": 0, "V05409": 1, "V05415": 0, "V05418": 0, "V05430": 0, "V05433": 1, "criancas_0a4": 31, "em_favela": false }, "geometry": { "type": "Polygon", "coordinates": [ [ [ -46.715649, -23.673451 ], [ -46.715989, -23.673262 ], [ -46.715596, -23.672634 ], [ -46.715274, -23.672815 ], [ -46.715649, -23.673451 ] ] ] } },
{ "type": "Feature", "properties": { "CD_SETOR": "355030879000069", "faces": 2, "pavimentada": 100.0, "bueiro": 0.0, "iluminacao": 100.0, "onibus": 0.0, "ciclovia": 50.0, "calcada": 100.0, "obstaculo": 0.0, "rampa": 0.0, "rampa_faces": 0.0, "sem_calcada": 0.0, "sem_arvore": 0.0, "muitas_arvores": 100.0, "vao": 100.0, "V05400": 2, "V05421": 2, "V05406": 2, "V05412": 2, "V05422": 0, "V05424": 0, "V05427": 0, "V05409": 0, "V05415": 0, "V05418": 1, "V05430": 0, "V05433": 2, "criancas_0a4": 7, "em_favela": false }, "geometry": { "type": "Polygon", "coordinates": [ [ [ -46.714283, -23.673357 ], [ -46.713707, -23.673668 ], [ -46.714153, -23.67442 ], [ -46.714757, -23.6741 ], [ -46.714283, -23.673357 ] ] ] } },
{ "type": "Feature", "properties": { "CD_SETOR": "355030879000070", "faces": 23, "pavimentada": 100.0, "bueiro": 73.91, "iluminacao": 100.0, "onibus": 4.35, "ciclovia": 0.0, "calcada": 73.91, "obstaculo": 100.0, "rampa": 0.0, "rampa_faces": 0.0, "sem_calcada": 26.09, "sem_arvore": 17.39, "muitas_arvores": 73.91, "vao": 100.0, "V05400": 23, "V05421": 17, "V05406": 23, "V05412": 23, "V05422": 6, "V05424": 17, "V05427": 0, "V05409": 17, "V05415": 1, "V05418": 0, "V05430": 4, "V05433": 17, "criancas_0a4": 59, "em_favela": false }, "geometry": { "type": "Polygon", "coordinates": [ [ [ -46.695621, -23.687533 ], [ -46.696483, -23.688001 ], [ -46.696879, -23.687626 ], [ -46.696943, -23.687663 ], [ -46.697308, -23.687086 ], [ -46.697601, -23.687232 ], [ -46.699397, -23.684234 ], [ -46.699446, -23.684013 ], [ -46.699894, -23.683542 ], [ -46.70121, -23.683086 ], [ -46.70261, -23.682513 ], [ -46.702771, -23.682438 ], [ -46.703018, -23.682174 ], [ -46.703943, -23.682864 ], [ -46.705362, -23.681242 ], [ -46.705799, -23.680584 ], [ -46.703915, -23.679251 ], [ -46.703723, -23.679182 ], [ -46.702428, -23.678282 ], [ -46.701853, -23.678922 ], [ -46.699186, -23.681604 ], [ -46.698833, -23.682044 ], [ -46.698481, -23.682539 ], [ -46.696676, -23.685542 ], [ -46.695869, -23.687154 ], [ -46.695621, -23.687533 ] ] ] } },
{ "type": "Feature", "properties": { "CD_SETOR": "355030879000071", "faces": 15, "pavimentada": 100.0, "bueiro": 86.67, "iluminacao": 100.0, "onibus": 0.0, "ciclovia": 0.0, "calcada": 100.0, "obstaculo": 80.0, "rampa": 13.33, "rampa_faces": 13.33, "sem_calcada": 0.0, "sem_arvore": 46.67, "muitas_arvores": 26.67, "vao": 86.67, "V05400": 15, "V05421": 15, "V05406": 15, "V05412": 15, "V05422": 0, "V05424": 12, "V05427": 2, "V05409": 13, "V05415": 0, "V05418": 0, "V05430": 7, "V05433": 4, "criancas_0a4": 21, "em_favela": true }, "geometry": { "type": "Polygon", "coordinates": [ [ [ -46.696483, -23.688001 ], [ -46.696868, -23.68836 ], [ -46.697335, -23.688231 ], [ -46.697488, -23.68798 ], [ -46.697601, -23.687232 ], [ -46.697308, -23.687086 ], [ -46.696943, -23.687663 ], [ -46.696879, -23.687626 ], [ -46.696483, -23.688001 ] ] ] } },
{ "type": "Feature", "properties": { "CD_SETOR": "355030879000072", "faces": 40, "pavimentada": 97.5, "bueiro": 57.5, "iluminacao": 92.5, "onibus": 2.5, "ciclovia": 30.0, "calcada": 70.0, "obstaculo": 60.71, "rampa": 25.0, "rampa_faces": 17.5, "sem_calcada": 30.0, "sem_arvore": 47.5, "muitas_arvores": 30.0, "vao": 80.0, "V05400": 40, "V05421": 28, "V05406": 39, "V05412": 37, "V05422": 12, "V05424": 17, "V05427": 7, "V05409": 23, "V05415": 1, "V05418": 12, "V05430": 19, "V05433": 12, "criancas_0a4": 7, "em_favela": false }, "geometry": { "type": "Polygon", "coordinates": [ [ [ -46.710386, -23.665104 ], [ -46.711595, -23.665689 ], [ -46.71188, -23.665855 ], [ -46.712083, -23.666082 ], [ -46.715037, -23.67066 ], [ -46.716017, -23.670123 ], [ -46.715711, -23.66964 ], [ -46.717249, -23.66878 ], [ -46.71685, -23.668672 ], [ -46.716246, -23.66799 ], [ -46.715865, -23.667639 ], [ -46.714384, -23.666662 ], [ -46.713302, -23.666112 ], [ -46.712945, -23.665871 ], [ -46.712969, -23.665805 ], [ -46.714004, -23.664828 ], [ -46.711879, -23.662911 ], [ -46.711413, -23.663517 ], [ -46.710386, -23.665104 ] ] ] } },
{ "type": "Feature", "properties": { "CD_SETOR": "355030879000073", "faces": 33, "pavimentada": 100.0, "bueiro": 54.55, "iluminacao": 100.0, "onibus": 18.18, "ciclovia": 9.09, "calcada": 100.0, "obstaculo": 69.7, "rampa": 36.36, "rampa_faces": 36.36, "sem_calcada": 0.0, "sem_arvore": 63.64, "muitas_arvores": 15.15, "vao": 63.64, "V05400": 33, "V05421": 33, "V05406": 33, "V05412": 33, "V05422": 0, "V05424": 23, "V05427": 12, "V05409": 18, "V05415": 6, "V05418": 3, "V05430": 21, "V05433": 5, "criancas_0a4": 8, "em_favela": false }, "geometry": { "type": "Polygon", "coordinates": [ [ [ -46.710536, -23.671255 ], [ -46.711046, -23.670401 ], [ -46.713911, -23.668879 ], [ -46.712205, -23.666232 ], [ -46.71188, -23.665855 ], [ -46.711794, -23.665835 ], [ -46.711896, -23.666174 ], [ -46.711979, -23.667893 ], [ -46.709912, -23.669549 ], [ -46.709554, -23.669791 ], [ -46.709117, -23.67054 ], [ -46.710536, -23.671255 ] ] ] } },
{ "type": "Feature", "properties": { "CD_SETOR": "355030879000074", "faces": 24, "pavimentada": 100.0, "bueiro": 33.33, "iluminacao": 95.83, "onibus": 16.67, "ciclovia": 0.0, "calcada": 87.5, "obstaculo": 71.43, "rampa": 33.33, "rampa_faces": 29.17, "sem_calcada": 12.5, "sem_arvore": 12.5, "muitas_arvores": 50.0, "vao": 70.83, "V05400": 24, "V05421": 21, "V05406": 24, "V05412": 23, "V05422": 3, "V05424": 15, "V05427": 7, "V05409": 8, "V05415": 4, "V05418": 0, "V05430": 3, "V05433": 12, "criancas_0a4": 20, "em_favela": false }, "geometry": { "type": "Polygon", "coordinates": [ [ [ -46.700773, -23.686452 ], [ -46.700884, -23.687559 ], [ -46.700345, -23.687602 ], [ -46.700246, -23.687572 ], [ -46.700611, -23.688496 ], [ -46.700986, -23.688659 ], [ -46.701115, -23.688455 ], [ -46.701338, -23.688389 ], [ -46.701339, -23.688451 ], [ -46.701817, -23.688453 ], [ -46.703218, -23.688751 ], [ -46.703811, -23.68595 ], [ -46.702683, -23.685165 ], [ -46.702265, -23.686208 ], [ -46.701238, -23.685852 ], [ -46.701189, -23.685865 ], [ -46.701171, -23.686296 ], [ -46.701108, -23.686417 ], [ -46.700773, -23.686452 ] ] ] } },
{ "type": "Feature", "properties": { "CD_SETOR": "355030879000076", "faces": 13, "pavimentada": 100.0, "bueiro": 76.92, "iluminacao": 100.0, "onibus": 7.69, "ciclovia": 0.0, "calcada": 100.0, "obstaculo": 23.08, "rampa": 7.69, "rampa_faces": 7.69, "sem_calcada": 0.0, "sem_arvore": 15.38, "muitas_arvores": 30.77, "vao": 92.31, "V05400": 13, "V05421": 13, "V05406": 13, "V05412": 13, "V05422": 0, "V05424": 3, "V05427": 1, "V05409": 10, "V05415": 1, "V05418": 0, "V05430": 2, "V05433": 4, "criancas_0a4": 26, "em_favela": false }, "geometry": { "type": "Polygon", "coordinates": [ [ [ -46.720382, -23.670528 ], [ -46.72074, -23.670749 ], [ -46.72169, -23.669459 ], [ -46.7207, -23.668754 ], [ -46.720881, -23.668536 ], [ -46.720188, -23.667999 ], [ -46.719782, -23.668438 ], [ -46.719647, -23.668349 ], [ -46.719379, -23.668656 ], [ -46.720913, -23.669772 ], [ -46.720382, -23.670528 ] ] ] } },
{ "type": "Feature", "properties": { "CD_SETOR": "355030879000077", "faces": 18, "pavimentada": 100.0, "bueiro": 50.0, "iluminacao": 100.0, "onibus": 5.56, "ciclovia": 0.0, "calcada": 100.0, "obstaculo": 61.11, "rampa": 11.11, "rampa_faces": 11.11, "sem_calcada": 0.0, "sem_arvore": 66.67, "muitas_arvores": 11.11, "vao": 88.89, "V05400": 18, "V05421": 18, "V05406": 18, "V05412": 18, "V05422": 0, "V05424": 11, "V05427": 2, "V05409": 9, "V05415": 1, "V05418": 0, "V05430": 12, "V05433": 2, "criancas_0a4": 15, "em_favela": false }, "geometry": { "type": "Polygon", "coordinates": [ [ [ -46.722368, -23.668555 ], [ -46.721108, -23.670251 ], [ -46.722397, -23.671155 ], [ -46.722938, -23.671053 ], [ -46.723564, -23.671028 ], [ -46.725593, -23.671232 ], [ -46.726021, -23.671219 ], [ -46.726372, -23.671125 ], [ -46.726561, -23.670911 ], [ -46.726155, -23.670385 ], [ -46.726146, -23.670291 ], [ -46.726349, -23.670373 ], [ -46.726778, -23.670726 ], [ -46.726871, -23.670718 ], [ -46.72705, -23.670402 ], [ -46.725656, -23.669471 ], [ -46.725056, -23.668936 ], [ -46.724924, -23.668759 ], [ -46.724831, -23.668517 ], [ -46.724415, -23.667006 ], [ -46.722598, -23.666778 ], [ -46.722368, -23.668555 ] ] ] } },
{ "type": "Feature", "properties": { "CD_SETOR": "355030879000078", "faces": 30, "pavimentada": 100.0, "bueiro": 56.67, "iluminacao": 100.0, "onibus": 13.33, "ciclovia": 0.0, "calcada": 100.0, "obstaculo": 76.67, "rampa": 33.33, "rampa_faces": 33.33, "sem_calcada": 0.0, "sem_arvore": 46.67, "muitas_arvores": 26.67, "vao": 66.67, "V05400": 30, "V05421": 30, "V05406": 30, "V05412": 30, "V05422": 0, "V05424": 23, "V05427": 10, "V05409": 17, "V05415": 4, "V05418": 0, "V05430": 14, "V05433": 8, "criancas_0a4": 12, "em_favela": false }, "geometry": { "type": "Polygon", "coordinates": [ [ [ -46.716408, -23.668174 ], [ -46.71685, -23.668672 ], [ -46.717817, -23.668947 ], [ -46.720382, -23.670528 ], [ -46.720913, -23.669772 ], [ -46.719379, -23.668656 ], [ -46.719647, -23.668349 ], [ -46.719782, -23.668438 ], [ -46.720188, -23.667999 ], [ -46.720881, -23.668536 ], [ -46.7207, -23.668754 ], [ -46.72169, -23.669459 ], [ -46.722368, -23.668555 ], [ -46.722598, -23.666778 ], [ -46.71819, -23.666324 ], [ -46.716408, -23.668174 ] ] ] } },
{ "type": "Feature", "properties": { "CD_SETOR": "355030879000079", "faces": 30, "pavimentada": 100.0, "bueiro": 43.33, "iluminacao": 100.0, "onibus": 20.0, "ciclovia": 0.0, "calcada": 100.0, "obstaculo": 73.33, "rampa": 70.0, "rampa_faces": 70.0, "sem_calcada": 0.0, "sem_arvore": 60.0, "muitas_arvores": 16.67, "vao": 30.0, "V05400": 30, "V05421": 30, "V05406": 30, "V05412": 30, "V05422": 0, "V05424": 22, "V05427": 21, "V05409": 13, "V05415": 6, "V05418": 0, "V05430": 18, "V05433": 5, "criancas_0a4": 8, "em_favela": false }, "geometry": { "type": "Polygon", "coordinates": [ [ [ -46.716408, -23.668174 ], [ -46.71819, -23.666324 ], [ -46.715346, -23.666062 ], [ -46.714004, -23.664828 ], [ -46.712969, -23.665805 ], [ -46.712945, -23.665871 ], [ -46.713018, -23.66595 ], [ -46.714384, -23.666662 ], [ -46.715865, -23.667639 ], [ -46.716408, -23.668174 ] ] ] } },
{ "type": "Feature", "properties": { "CD_SETOR": "355030879000080", "faces": 39, "pavimentada": 100.0, "bueiro": 28.21, "iluminacao": 100.0, "onibus": 2.56, "ciclovia": 0.0, "calcada": 100.0, "obstaculo": 53.85, "rampa": 10.26, "rampa_faces": 10.26, "sem_calcada": 0.0, "sem_arvore": 15.38, "muitas_arvores": 38.46, "vao": 89.74, "V05400": 39, "V05421": 39, "V05406": 39, "V05412": 39, "V05422": 0, "V05424": 21, "V05427": 4, "V05409": 11, "V05415": 1, "V05418": 0, "V05430": 6, "V05433": 15, "criancas_0a4": 18, "em_favela": false }, "geometry": { "type": "Polygon", "coordinates": [ [ [ -46.701115, -23.688455 ], [ -46.700548, -23.689452 ], [ -46.700304, -23.689801 ], [ -46.699992, -23.690515 ], [ -46.699326, -23.691589 ], [ -46.701521, -23.692118 ], [ -46.701459, -23.690418 ], [ -46.701586, -23.689009 ], [ -46.701705, -23.688454 ], [ -46.701339, -23.688451 ], [ -46.701338, -23.688389 ], [ -46.701194, -23.688414 ], [ -46.701115, -23.688455 ] ] ] } },
{ "type": "Feature", "properties": { "CD_SETOR": "355030879000081", "faces": 20, "pavimentada": 100.0, "bueiro": 75.0, "iluminacao": 95.0, "onibus": 5.0, "ciclovia": 0.0, "calcada": 95.0, "obstaculo": 94.74, "rampa": 15.79, "rampa_faces": 15.0, "sem_calcada": 5.0, "sem_arvore": 30.0, "muitas_arvores": 50.0, "vao": 85.0, "V05400": 20, "V05421": 19, "V05406": 20, "V05412": 19, "V05422": 1, "V05424": 18, "V05427": 3, "V05409": 15, "V05415": 1, "V05418": 0, "V05430": 6, "V05433": 10, "criancas_0a4": 11, "em_favela": false }, "geometry": { "type": "Polygon", "coordinates": [ [ [ -46.701521, -23.692118 ], [ -46.701472, -23.694738 ], [ -46.701481, -23.695059 ], [ -46.703172, -23.694397 ], [ -46.703347, -23.693708 ], [ -46.703266, -23.693662 ], [ -46.702616, -23.692844 ], [ -46.702164, -23.692177 ], [ -46.702588, -23.69197 ], [ -46.702619, -23.691917 ], [ -46.702804, -23.690984 ], [ -46.701476, -23.690707 ], [ -46.701521, -23.692118 ] ] ] } },
{ "type": "Feature", "properties": { "CD_SETOR": "355030879000082", "faces": 23, "pavimentada": 100.0, "bueiro": 65.22, "iluminacao": 100.0, "onibus": 8.7, "ciclovia": 0.0, "calcada": 100.0, "obstaculo": 86.96, "rampa": 4.35, "rampa_faces": 4.35, "sem_calcada": 0.0, "sem_arvore": 34.78, "muitas_arvores": 13.04, "vao": 95.65, "V05400": 23, "V05421": 23, "V05406": 23, "V05412": 23, "V05422": 0, "V05424": 20, "V05427": 1, "V05409": 15, "V05415": 2, "V05418": 0, "V05430": 8, "V05433": 3, "criancas_0a4": 15, "em_favela": false }, "geometry": { "type": "Polygon", "coordinates": [ [ [ -46.701705, -23.688454 ], [ -46.701586, -23.689009 ], [ -46.701551, -23.689422 ], [ -46.704032, -23.689947 ], [ -46.703762, -23.691191 ], [ -46.704484, -23.691346 ], [ -46.70477, -23.691636 ], [ -46.705178, -23.690996 ], [ -46.70548, -23.690665 ], [ -46.706164, -23.69033 ], [ -46.70607, -23.690173 ], [ -46.706899, -23.689767 ], [ -46.706725, -23.689683 ], [ -46.706531, -23.689487 ], [ -46.706405, -23.689446 ], [ -46.701705, -23.688454 ] ] ] } },
{ "type": "Feature", "properties": { "CD_SETOR": "355030879000083", "faces": 21, "pavimentada": 100.0, "bueiro": 0.0, "iluminacao": 100.0, "onibus": 14.29, "ciclovia": 0.0, "calcada": 100.0, "obstaculo": 71.43, "rampa": 28.57, "rampa_faces": 28.57, "sem_calcada": 0.0, "sem_arvore": 19.05, "muitas_arvores": 38.1, "vao": 71.43, "V05400": 21, "V05421": 21, "V05406": 21, "V05412": 21, "V05422": 0, "V05424": 15, "V05427": 6, "V05409": 0, "V05415": 3, "V05418": 0, "V05430": 4, "V05433": 8, "criancas_0a4": 8, "em_favela": false }, "geometry": { "type": "Polygon", "coordinates": [ [ [ -46.70345, -23.693188 ], [ -46.703154, -23.694469 ], [ -46.705663, -23.693445 ], [ -46.705647, -23.693336 ], [ -46.704575, -23.69175 ], [ -46.70477, -23.691636 ], [ -46.704484, -23.691346 ], [ -46.703762, -23.691191 ], [ -46.703355, -23.692884 ], [ -46.70345, -23.693188 ] ] ] } },
{ "type": "Feature", "properties": { "CD_SETOR": "355030879000084", "faces": 26, "pavimentada": 100.0, "bueiro": 65.38, "iluminacao": 100.0, "onibus": 15.38, "ciclovia": 0.0, "calcada": 84.62, "obstaculo": 95.45, "rampa": 0.0, "rampa_faces": 0.0, "sem_calcada": 15.38, "sem_arvore": 19.23, "muitas_arvores": 57.69, "vao": 100.0, "V05400": 26, "V05421": 22, "V05406": 26, "V05412": 26, "V05422": 4, "V05424": 21, "V05427": 0, "V05409": 17, "V05415": 4, "V05418": 0, "V05430": 5, "V05433": 15, "criancas_0a4": 13, "em_favela": false }, "geometry": { "type": "Polygon", "coordinates": [ [ [ -46.707937, -23.690859 ], [ -46.707352, -23.69114 ], [ -46.707255, -23.690968 ], [ -46.706856, -23.691157 ], [ -46.707543, -23.692304 ], [ -46.707528, -23.692532 ], [ -46.707478, -23.692604 ], [ -46.707825, -23.693372 ], [ -46.708064, -23.693712 ], [ -46.708616, -23.694175 ], [ -46.708534, -23.692511 ], [ -46.709011, -23.692491 ], [ -46.708958, -23.690651 ], [ -46.708508, -23.690779 ], [ -46.708103, -23.691058 ], [ -46.707937, -23.690859 ] ] ] } },
{ "type": "Feature", "properties": { "CD_SETOR": "355030879000085", "faces": 25, "pavimentada": 100.0, "bueiro": 48.0, "iluminacao": 100.0, "onibus": 8.0, "ciclovia": 0.0, "calcada": 100.0, "obstaculo": 84.0, "rampa": 4.0, "rampa_faces": 4.0, "sem_calcada": 0.0, "sem_arvore": 20.0, "muitas_arvores": 52.0, "vao": 96.0, "V05400": 25, "V05421": 25, "V05406": 25, "V05412": 25, "V05422": 0, "V05424": 21, "V05427": 1, "V05409": 12, "V05415": 2, "V05418": 0, "V05430": 5, "V05433": 13, "criancas_0a4": 21, "em_favela": false }, "geometry": { "type": "Polygon", "coordinates": [ [ [ -46.70477, -23.691636 ], [ -46.704575, -23.69175 ], [ -46.705647, -23.693336 ], [ -46.705663, -23.693445 ], [ -46.707504, -23.692695 ], [ -46.707478, -23.692604 ], [ -46.707528, -23.692532 ], [ -46.707543, -23.692304 ], [ -46.706856, -23.691157 ], [ -46.707255, -23.690968 ], [ -46.707352, -23.69114 ], [ -46.707937, -23.690859 ], [ -46.706899, -23.689767 ], [ -46.70607, -23.690173 ], [ -46.706164, -23.69033 ], [ -46.70548, -23.690665 ], [ -46.705178, -23.690996 ], [ -46.70477, -23.691636 ] ] ] } },
{ "type": "Feature", "properties": { "CD_SETOR": "355030879000086", "faces": 23, "pavimentada": 100.0, "bueiro": 52.17, "iluminacao": 100.0, "onibus": 8.7, "ciclovia": 0.0, "calcada": 100.0, "obstaculo": 65.22, "rampa": 0.0, "rampa_faces": 0.0, "sem_calcada": 0.0, "sem_arvore": 4.35, "muitas_arvores": 52.17, "vao": 100.0, "V05400": 23, "V05421": 23, "V05406": 23, "V05412": 23, "V05422": 0, "V05424": 15, "V05427": 0, "V05409": 12, "V05415": 2, "V05418": 0, "V05430": 1, "V05433": 12, "criancas_0a4": 15, "em_favela": false }, "geometry": { "type": "Polygon", "coordinates": [ [ [ -46.707082, -23.692882 ], [ -46.703744, -23.694214 ], [ -46.705453, -23.696415 ], [ -46.705712, -23.69664 ], [ -46.706175, -23.696275 ], [ -46.706936, -23.695855 ], [ -46.708046, -23.695814 ], [ -46.707855, -23.695486 ], [ -46.70786, -23.695321 ], [ -46.707082, -23.692882 ] ] ] } },
{ "type": "Feature", "properties": { "CD_SETOR": "355030879000087", "faces": 24, "pavimentada": 100.0, "bueiro": 95.83, "iluminacao": 100.0, "onibus": 4.17, "ciclovia": 0.0, "calcada": 100.0, "obstaculo": 100.0, "rampa": 0.0, "rampa_faces": 0.0, "sem_calcada": 0.0, "sem_arvore": 4.17, "muitas_arvores": 79.17, "vao": 100.0, "V05400": 24, "V05421": 24, "V05406": 24, "V05412": 24, "V05422": 0, "V05424": 24, "V05427": 0, "V05409": 23, "V05415": 1, "V05418": 0, "V05430": 1, "V05433": 19, "criancas_0a4": 13, "em_favela": false }, "geometry": { "type": "Polygon", "coordinates": [ [ [ -46.703172, -23.694397 ], [ -46.701481, -23.695059 ], [ -46.701461, -23.695375 ], [ -46.703096, -23.69592 ], [ -46.703029, -23.697717 ], [ -46.702508, -23.699257 ], [ -46.704282, -23.699795 ], [ -46.704518, -23.69915 ], [ -46.704942, -23.698333 ], [ -46.705139, -23.697648 ], [ -46.705559, -23.696691 ], [ -46.705712, -23.69664 ], [ -46.705453, -23.696415 ], [ -46.703744, -23.694214 ], [ -46.703154, -23.694469 ], [ -46.703172, -23.694397 ] ] ] } },
{ "type": "Feature", "properties": { "CD_SETOR": "355030879000088", "faces": 58, "pavimentada": 100.0, "bueiro": 51.72, "iluminacao": 100.0, "onibus": 0.0, "ciclovia": 0.0, "calcada": 100.0, "obstaculo": 89.66, "rampa": 0.0, "rampa_faces": 0.0, "sem_calcada": 0.0, "sem_arvore": 1.72, "muitas_arvores": 87.93, "vao": 100.0, "V05400": 58, "V05421": 58, "V05406": 58, "V05412": 58, "V05422": 0, "V05424": 52, "V05427": 0, "V05409": 30, "V05415": 0, "V05418": 0, "V05430": 1, "V05433": 51, "criancas_0a4": 13, "em_favela": false }, "geometry": { "type": "Polygon", "coordinates": [ [ [ -46.707082, -23.692882 ], [ -46.70786, -23.695321 ], [ -46.707855, -23.695486 ], [ -46.708046, -23.695814 ], [ -46.70751, -23.696935 ], [ -46.707175, -23.697358 ], [ -46.70715, -23.697793 ], [ -46.707203, -23.697961 ], [ -46.707303, -23.69804 ], [ -46.710343, -23.697884 ], [ -46.710776, -23.697919 ], [ -46.711344, -23.698396 ], [ -46.712335, -23.699356 ], [ -46.713333, -23.698012 ], [ -46.712643, -23.697488 ], [ -46.712906, -23.697229 ], [ -46.713787, -23.697182 ], [ -46.713711, -23.695627 ], [ -46.713045, -23.696616 ], [ -46.712659, -23.696635 ], [ -46.712564, -23.694288 ], [ -46.709673, -23.694402 ], [ -46.709039, -23.694306 ], [ -46.708616, -23.694175 ], [ -46.708064, -23.693712 ], [ -46.707737, -23.693217 ], [ -46.707504, -23.692695 ], [ -46.707082, -23.692882 ] ] ] } },
{ "type": "Feature", "properties": { "CD_SETOR": "355030879000089", "faces": 68, "pavimentada": 100.0, "bueiro": 47.06, "iluminacao": 100.0, "onibus": 0.0, "ciclovia": 4.41, "calcada": 92.65, "obstaculo": 88.89, "rampa": 12.7, "rampa_faces": 11.76, "sem_calcada": 7.35, "sem_arvore": 1.47, "muitas_arvores": 91.18, "vao": 88.24, "V05400": 68, "V05421": 63, "V05406": 68, "V05412": 68, "V05422": 5, "V05424": 56, "V05427": 8, "V05409": 32, "V05415": 0, "V05418": 3, "V05430": 1, "V05433": 62, "criancas_0a4": 12, "em_favela": false }, "geometry": { "type": "Polygon", "coordinates": [ [ [ -46.705712, -23.69664 ], [ -46.705559, -23.696691 ], [ -46.705139, -23.697648 ], [ -46.704942, -23.698333 ], [ -46.704518, -23.69915 ], [ -46.704282, -23.699795 ], [ -46.70605, -23.700306 ], [ -46.706214, -23.700529 ], [ -46.705832, -23.701731 ], [ -46.706178, -23.701796 ], [ -46.70649, -23.701742 ], [ -46.706795, -23.701539 ], [ -46.707066, -23.701181 ], [ -46.707692, -23.701524 ], [ -46.708116, -23.701875 ], [ -46.708658, -23.701785 ], [ -46.709652, -23.701821 ], [ -46.710106, -23.701934 ], [ -46.711265, -23.702375 ], [ -46.712079, -23.701268 ], [ -46.712009, -23.701132 ], [ -46.712118, -23.700958 ], [ -46.712257, -23.701024 ], [ -46.713001, -23.700011 ], [ -46.711344, -23.698396 ], [ -46.710776, -23.697919 ], [ -46.710343, -23.697884 ], [ -46.707303, -23.69804 ], [ -46.707203, -23.697961 ], [ -46.70715, -23.697793 ], [ -46.707175, -23.697358 ], [ -46.70751, -23.696935 ], [ -46.708046, -23.695814 ], [ -46.706936, -23.695855 ], [ -46.706175, -23.696275 ], [ -46.705712, -23.69664 ] ] ] } },
{ "type": "Feature", "properties": { "CD_SETOR": "355030879000090", "faces": 51, "pavimentada": 100.0, "bueiro": 33.33, "iluminacao": 100.0, "onibus": 7.84, "ciclovia": 7.84, "calcada": 96.08, "obstaculo": 67.35, "rampa": 36.73, "rampa_faces": 35.29, "sem_calcada": 3.92, "sem_arvore": 5.88, "muitas_arvores": 58.82, "vao": 64.71, "V05400": 51, "V05421": 49, "V05406": 51, "V05412": 51, "V05422": 2, "V05424": 33, "V05427": 18, "V05409": 17, "V05415": 4, "V05418": 4, "V05430": 3, "V05433": 30, "criancas_0a4": 13, "em_favela": false }, "geometry": { "type": "Polygon", "coordinates": [ [ [ -46.699876, -23.695774 ], [ -46.70011, -23.696433 ], [ -46.701414, -23.701368 ], [ -46.701444, -23.701199 ], [ -46.701821, -23.701102 ], [ -46.702073, -23.701126 ], [ -46.702559, -23.701626 ], [ -46.702768, -23.702005 ], [ -46.703323, -23.701704 ], [ -46.704076, -23.701484 ], [ -46.704579, -23.701463 ], [ -46.704917, -23.7015 ], [ -46.705832, -23.701731 ], [ -46.706214, -23.700529 ], [ -46.70605, -23.700306 ], [ -46.702508, -23.699257 ], [ -46.703029, -23.697717 ], [ -46.703096, -23.69592 ], [ -46.701374, -23.695346 ], [ -46.701173, -23.69524 ], [ -46.699876, -23.695774 ] ] ] } },
{ "type": "Feature", "properties": { "CD_SETOR": "355030879000091", "faces": 40, "pavimentada": 100.0, "bueiro": 27.5, "iluminacao": 100.0, "onibus": 10.0, "ciclovia": 2.5, "calcada": 100.0, "obstaculo": 77.5, "rampa": 22.5, "rampa_faces": 22.5, "sem_calcada": 0.0, "sem_arvore": 2.5, "muitas_arvores": 75.0, "vao": 77.5, "V05400": 40, "V05421": 40, "V05406": 40, "V05412": 40, "V05422": 0, "V05424": 31, "V05427": 9, "V05409": 11, "V05415": 4, "V05418": 1, "V05430": 1, "V05433": 30, "criancas_0a4": 15, "em_favela": false }, "geometry": { "type": "Polygon", "coordinates": [ [ [ -46.701414, -23.701368 ], [ -46.702477, -23.705346 ], [ -46.703602, -23.705196 ], [ -46.705715, -23.70536 ], [ -46.706794, -23.705313 ], [ -46.70671, -23.705233 ], [ -46.706501, -23.704781 ], [ -46.706307, -23.704217 ], [ -46.706233, -23.703481 ], [ -46.706317, -23.703104 ], [ -46.706498, -23.702786 ], [ -46.706988, -23.702368 ], [ -46.707662, -23.702023 ], [ -46.708116, -23.701875 ], [ -46.707692, -23.701524 ], [ -46.707066, -23.701181 ], [ -46.706795, -23.701539 ], [ -46.706642, -23.701661 ], [ -46.706335, -23.701786 ], [ -46.70592, -23.701761 ], [ -46.704917, -23.7015 ], [ -46.7043, -23.701466 ], [ -46.703525, -23.701625 ], [ -46.702768, -23.702005 ], [ -46.702559, -23.701626 ], [ -46.702073, -23.701126 ], [ -46.701821, -23.701102 ], [ -46.701444, -23.701199 ], [ -46.701414, -23.701368 ] ] ] } },
{ "type": "Feature", "properties": { "CD_SETOR": "355030879000093", "faces": 15, "pavimentada": 100.0, "bueiro": 66.67, "iluminacao": 100.0, "onibus": 13.33, "ciclovia": 33.33, "calcada": 93.33, "obstaculo": 78.57, "rampa": 50.0, "rampa_faces": 46.67, "sem_calcada": 6.67, "sem_arvore": 13.33, "muitas_arvores": 46.67, "vao": 53.33, "V05400": 15, "V05421": 14, "V05406": 15, "V05412": 15, "V05422": 1, "V05424": 11, "V05427": 7, "V05409": 10, "V05415": 2, "V05418": 5, "V05430": 2, "V05433": 7, "criancas_0a4": 12, "em_favela": false }, "geometry": { "type": "Polygon", "coordinates": [ [ [ -46.713188, -23.680462 ], [ -46.715667, -23.679877 ], [ -46.716082, -23.68083 ], [ -46.716636, -23.680628 ], [ -46.716595, -23.680393 ], [ -46.716661, -23.680269 ], [ -46.716852, -23.680097 ], [ -46.7166, -23.679674 ], [ -46.716653, -23.679212 ], [ -46.716734, -23.67895 ], [ -46.716608, -23.678939 ], [ -46.716194, -23.67904 ], [ -46.715953, -23.678814 ], [ -46.715528, -23.678904 ], [ -46.715071, -23.678459 ], [ -46.71342, -23.677477 ], [ -46.713057, -23.677342 ], [ -46.712877, -23.676312 ], [ -46.712375, -23.676293 ], [ -46.712494, -23.678832 ], [ -46.713188, -23.680462 ] ] ] } },
{ "type": "Feature", "properties": { "CD_SETOR": "355030879000096", "faces": 26, "pavimentada": 57.69, "bueiro": 57.69, "iluminacao": 73.08, "onibus": 34.62, "ciclovia": 57.69, "calcada": 53.85, "obstaculo": 57.14, "rampa": 35.71, "rampa_faces": 19.23, "sem_calcada": 46.15, "sem_arvore": 0.0, "muitas_arvores": 92.31, "vao": 38.46, "V05400": 26, "V05421": 14, "V05406": 15, "V05412": 19, "V05422": 12, "V05424": 8, "V05427": 5, "V05409": 15, "V05415": 9, "V05418": 15, "V05430": 0, "V05433": 24, "criancas_0a4": 4, "em_favela": false }, "geometry": { "type": "Polygon", "coordinates": [ [ [ -46.714627, -23.686504 ], [ -46.714631, -23.686628 ], [ -46.714541, -23.686634 ], [ -46.715035, -23.700457 ], [ -46.71496, -23.702565 ], [ -46.714846, -23.703108 ], [ -46.714585, -23.703757 ], [ -46.712438, -23.708164 ], [ -46.713691, -23.708583 ], [ -46.713678, -23.708415 ], [ -46.713776, -23.708333 ], [ -46.713753, -23.708146 ], [ -46.713707, -23.708081 ], [ -46.71326, -23.707901 ], [ -46.71333, -23.707739 ], [ -46.713457, -23.707781 ], [ -46.713705, -23.707278 ], [ -46.713936, -23.707374 ], [ -46.714598, -23.706496 ], [ -46.714756, -23.706145 ], [ -46.71486, -23.705621 ], [ -46.714818, -23.705409 ], [ -46.714919, -23.70507 ], [ -46.715318, -23.704587 ], [ -46.715123, -23.704413 ], [ -46.715118, -23.704359 ], [ -46.715219, -23.704329 ], [ -46.715267, -23.704214 ], [ -46.71519, -23.704065 ], [ -46.715601, -23.704128 ], [ -46.715685, -23.703996 ], [ -46.715582, -23.703954 ], [ -46.715571, -23.703881 ], [ -46.715437, -23.703803 ], [ -46.715506, -23.703623 ], [ -46.715416, -23.703497 ], [ -46.715496, -23.703518 ], [ -46.715525, -23.703476 ], [ -46.71542, -23.703426 ], [ -46.715443, -23.703337 ], [ -46.715584, -23.70339 ], [ -46.715603, -23.703337 ], [ -46.71546, -23.703296 ], [ -46.715487, -23.703235 ], [ -46.715813, -23.70318 ], [ -46.715901, -23.703109 ], [ -46.71559, -23.702876 ], [ -46.715485, -23.7027 ], [ -46.715502, -23.702652 ], [ -46.715599, -23.702524 ], [ -46.715831, -23.702562 ], [ -46.715896, -23.702413 ], [ -46.715813, -23.702056 ], [ -46.715915, -23.701865 ], [ -46.716236, -23.701735 ], [ -46.716333, -23.701599 ], [ -46.716261, -23.70153 ], [ -46.71628, -23.701456 ], [ -46.716431, -23.701381 ], [ -46.716607, -23.700991 ], [ -46.716523, -23.700896 ], [ -46.716297, -23.700869 ], [ -46.716033, -23.700026 ], [ -46.715949, -23.699821 ], [ -46.715768, -23.699647 ], [ -46.715743, -23.699464 ], [ -46.715915, -23.69946 ], [ -46.716026, -23.699397 ], [ -46.716087, -23.699064 ], [ -46.716368, -23.69903 ], [ -46.716444, -23.698957 ], [ -46.71644, -23.698852 ], [ -46.716513, -23.698782 ], [ -46.716452, -23.698726 ], [ -46.716431, -23.698585 ], [ -46.716714, -23.698128 ], [ -46.716601, -23.697522 ], [ -46.716767, -23.697526 ], [ -46.717123, -23.697654 ], [ -46.717436, -23.697619 ], [ -46.717595, -23.697541 ], [ -46.717704, -23.697411 ], [ -46.717725, -23.697212 ], [ -46.717673, -23.697103 ], [ -46.717538, -23.696941 ], [ -46.717251, -23.696815 ], [ -46.717201, -23.696742 ], [ -46.717178, -23.696488 ], [ -46.717069, -23.696167 ], [ -46.717429, -23.696037 ], [ -46.71744, -23.69597 ], [ -46.717903, -23.695956 ], [ -46.718044, -23.695872 ], [ -46.717958, -23.695809 ], [ -46.717832, -23.695809 ], [ -46.717826, -23.695696 ], [ -46.717694, -23.695601 ], [ -46.717471, -23.695578 ], [ -46.717132, -23.695255 ], [ -46.717027, -23.69485 ], [ -46.717039, -23.694592 ], [ -46.716974, -23.694504 ], [ -46.716888, -23.694427 ], [ -46.716452, -23.694316 ], [ -46.716599, -23.694053 ], [ -46.716966, -23.694012 ], [ -46.717018, -23.693928 ], [ -46.717184, -23.693877 ], [ -46.71722, -23.693785 ], [ -46.717522, -23.693875 ], [ -46.717553, -23.693796 ], [ -46.71732, -23.693691 ], [ -46.717473, -23.693636 ], [ -46.717528, -23.693498 ], [ -46.717761, -23.693544 ], [ -46.717754, -23.693596 ], [ -46.717811, -23.693601 ], [ -46.717845, -23.693473 ], [ -46.717654, -23.693429 ], [ -46.717843, -23.693066 ], [ -46.718279, -23.692701 ], [ -46.718509, -23.692235 ], [ -46.718725, -23.692168 ], [ -46.718956, -23.69199 ], [ -46.719065, -23.691751 ], [ -46.71904, -23.691688 ], [ -46.719229, -23.691524 ], [ -46.719099, -23.691461 ], [ -46.718893, -23.691252 ], [ -46.718635, -23.69091 ], [ -46.718375, -23.69073 ], [ -46.718344, -23.690591 ], [ -46.71822, -23.690469 ], [ -46.71784, -23.690218 ], [ -46.717255, -23.690279 ], [ -46.717297, -23.690214 ], [ -46.717285, -23.690107 ], [ -46.717148, -23.690037 ], [ -46.716962, -23.689748 ], [ -46.716878, -23.689746 ], [ -46.716796, -23.689641 ], [ -46.716895, -23.689408 ], [ -46.716729, -23.689392 ], [ -46.716693, -23.68923 ], [ -46.716641, -23.689186 ], [ -46.716641, -23.689142 ], [ -46.716706, -23.689136 ], [ -46.716702, -23.689058 ], [ -46.716863, -23.689067 ], [ -46.717075, -23.688991 ], [ -46.717092, -23.688905 ], [ -46.717023, -23.688855 ], [ -46.717111, -23.688727 ], [ -46.717366, -23.688672 ], [ -46.717358, -23.688601 ], [ -46.71714, -23.688486 ], [ -46.717159, -23.688402 ], [ -46.717413, -23.688473 ], [ -46.717551, -23.688446 ], [ -46.717446, -23.688282 ], [ -46.71723, -23.6882 ], [ -46.717167, -23.687894 ], [ -46.717106, -23.687806 ], [ -46.716576, -23.687397 ], [ -46.716563, -23.687328 ], [ -46.716691, -23.687009 ], [ -46.716807, -23.686523 ], [ -46.71692, -23.686412 ], [ -46.717039, -23.686485 ], [ -46.717153, -23.686332 ], [ -46.717184, -23.686152 ], [ -46.717109, -23.686107 ], [ -46.717169, -23.68585 ], [ -46.717509, -23.685908 ], [ -46.717721, -23.685701 ], [ -46.717681, -23.685478 ], [ -46.717725, -23.685413 ], [ -46.717656, -23.685006 ], [ -46.717686, -23.684846 ], [ -46.717196, -23.684758 ], [ -46.717218, -23.684666 ], [ -46.716854, -23.684579 ], [ -46.716703, -23.685553 ], [ -46.716659, -23.685719 ], [ -46.716556, -23.685842 ], [ -46.716323, -23.686012 ], [ -46.716163, -23.686068 ], [ -46.714627, -23.686504 ] ] ] } },
{ "type": "Feature", "properties": { "CD_SETOR": "355030879000097", "faces": 26, "pavimentada": 100.0, "bueiro": 26.92, "iluminacao": 100.0, "onibus": 3.85, "ciclovia": 7.69, "calcada": 92.31, "obstaculo": 70.83, "rampa": 0.0, "rampa_faces": 0.0, "sem_calcada": 7.69, "sem_arvore": 30.77, "muitas_arvores": 26.92, "vao": 100.0, "V05400": 26, "V05421": 24, "V05406": 26, "V05412": 26, "V05422": 2, "V05424": 17, "V05427": 0, "V05409": 7, "V05415": 1, "V05418": 2, "V05430": 8, "V05433": 7, "criancas_0a4": 41, "em_favela": false }, "geometry": { "type": "Polygon", "coordinates": [ [ [ -46.714566, -23.684101 ], [ -46.714627, -23.686504 ], [ -46.716323, -23.686012 ], [ -46.716659, -23.685719 ], [ -46.716866, -23.684549 ], [ -46.715612, -23.684303 ], [ -46.715778, -23.68388 ], [ -46.715603, -23.683814 ], [ -46.715349, -23.683529 ], [ -46.715106, -23.683547 ], [ -46.715044, -23.683608 ], [ -46.715078, -23.684186 ], [ -46.714566, -23.684101 ] ] ] } },
{ "type": "Feature", "properties": { "CD_SETOR": "355030879000098", "faces": 20, "pavimentada": 100.0, "bueiro": 65.0, "iluminacao": 100.0, "onibus": 15.0, "ciclovia": 15.0, "calcada": 90.0, "obstaculo": 72.22, "rampa": 44.44, "rampa_faces": 40.0, "sem_calcada": 10.0, "sem_arvore": 15.0, "muitas_arvores": 40.0, "vao": 60.0, "V05400": 20, "V05421": 18, "V05406": 20, "V05412": 20, "V05422": 2, "V05424": 13, "V05427": 8, "V05409": 13, "V05415": 3, "V05418": 3, "V05430": 3, "V05433": 8, "criancas_0a4": 11, "em_favela": false }, "geometry": { "type": "Polygon", "coordinates": [ [ [ -46.714454, -23.683148 ], [ -46.713651, -23.683318 ], [ -46.713707, -23.683609 ], [ -46.713745, -23.684572 ], [ -46.712623, -23.684613 ], [ -46.712815, -23.685706 ], [ -46.713414, -23.685699 ], [ -46.712962, -23.686336 ], [ -46.713546, -23.686567 ], [ -46.714631, -23.686628 ], [ -46.714566, -23.684101 ], [ -46.714504, -23.683311 ], [ -46.714454, -23.683148 ] ] ] } },
{ "type": "Feature", "properties": { "CD_SETOR": "355030879000099", "faces": 1, "pavimentada": 100.0, "bueiro": 0.0, "iluminacao": 100.0, "onibus": 0.0, "ciclovia": 0.0, "calcada": 100.0, "obstaculo": 100.0, "rampa": 0.0, "rampa_faces": 0.0, "sem_calcada": 0.0, "sem_arvore": 0.0, "muitas_arvores": 100.0, "vao": 100.0, "V05400": 1, "V05421": 1, "V05406": 1, "V05412": 1, "V05422": 0, "V05424": 1, "V05427": 0, "V05409": 0, "V05415": 0, "V05418": 0, "V05430": 0, "V05433": 1, "criancas_0a4": 32, "em_favela": false }, "geometry": { "type": "Polygon", "coordinates": [ [ [ -46.713395, -23.673838 ], [ -46.713913, -23.673555 ], [ -46.713439, -23.672827 ], [ -46.713103, -23.673048 ], [ -46.71338, -23.673506 ], [ -46.713249, -23.673579 ], [ -46.713395, -23.673838 ] ] ] } },
{ "type": "Feature", "properties": { "CD_SETOR": "355030879000100", "faces": 5, "pavimentada": 100.0, "bueiro": 40.0, "iluminacao": 60.0, "onibus": 0.0, "ciclovia": 0.0, "calcada": 60.0, "obstaculo": 33.33, "rampa": 33.33, "rampa_faces": 20.0, "sem_calcada": 40.0, "sem_arvore": 100.0, "muitas_arvores": 0.0, "vao": 80.0, "V05400": 5, "V05421": 3, "V05406": 5, "V05412": 3, "V05422": 2, "V05424": 1, "V05427": 1, "V05409": 2, "V05415": 0, "V05418": 0, "V05430": 5, "V05433": 0, "criancas_0a4": 15, "em_favela": true }, "geometry": { "type": "Polygon", "coordinates": [ [ [ -46.710656, -23.685619 ], [ -46.710532, -23.685718 ], [ -46.710804, -23.685943 ], [ -46.711081, -23.686025 ], [ -46.711952, -23.685923 ], [ -46.712114, -23.685687 ], [ -46.711936, -23.685594 ], [ -46.711927, -23.685637 ], [ -46.71156, -23.685703 ], [ -46.710944, -23.685722 ], [ -46.710656, -23.685619 ] ] ] } },
{ "type": "Feature", "properties": { "CD_SETOR": "355030879000102", "faces": 18, "pavimentada": 94.44, "bueiro": 16.67, "iluminacao": 94.44, "onibus": 5.56, "ciclovia": 5.56, "calcada": 83.33, "obstaculo": 73.33, "rampa": 40.0, "rampa_faces": 33.33, "sem_calcada": 11.11, "sem_arvore": 11.11, "muitas_arvores": 61.11, "vao": 61.11, "V05400": 18, "V05421": 15, "V05406": 17, "V05412": 17, "V05422": 2, "V05424": 11, "V05427": 6, "V05409": 3, "V05415": 1, "V05418": 1, "V05430": 2, "V05433": 11, "criancas_0a4": 15, "em_favela": false }, "geometry": { "type": "Polygon", "coordinates": [ [ [ -46.715069, -23.683573 ], [ -46.714999, -23.683527 ], [ -46.71512, -23.683349 ], [ -46.715065, -23.683316 ], [ -46.715082, -23.683056 ], [ -46.715207, -23.682726 ], [ -46.71538, -23.682532 ], [ -46.715693, -23.682359 ], [ -46.715932, -23.682283 ], [ -46.716261, -23.682255 ], [ -46.717142, -23.682468 ], [ -46.717532, -23.682491 ], [ -46.71755, -23.682589 ], [ -46.717712, -23.682722 ], [ -46.717409, -23.682824 ], [ -46.716572, -23.682603 ], [ -46.716045, -23.68255 ], [ -46.715762, -23.682569 ], [ -46.715786, -23.682685 ], [ -46.715615, -23.682788 ], [ -46.715503, -23.682987 ], [ -46.715452, -23.683188 ], [ -46.715463, -23.683553 ], [ -46.715416, -23.683561 ], [ -46.715603, -23.683814 ], [ -46.715778, -23.68388 ], [ -46.715612, -23.684303 ], [ -46.716866, -23.684549 ], [ -46.716854, -23.684579 ], [ -46.717218, -23.684666 ], [ -46.717196, -23.684758 ], [ -46.717686, -23.684846 ], [ -46.717845, -23.68428 ], [ -46.717549, -23.684177 ], [ -46.717587, -23.683955 ], [ -46.717847, -23.683833 ], [ -46.718337, -23.683863 ], [ -46.718354, -23.683783 ], [ -46.718304, -23.683783 ], [ -46.718283, -23.683707 ], [ -46.718417, -23.683661 ], [ -46.718648, -23.683431 ], [ -46.71866, -23.683334 ], [ -46.719042, -23.682936 ], [ -46.719214, -23.682638 ], [ -46.719206, -23.682011 ], [ -46.717534, -23.682102 ], [ -46.717303, -23.68219 ], [ -46.716719, -23.682082 ], [ -46.716558, -23.682004 ], [ -46.715966, -23.68196 ], [ -46.71539, -23.682146 ], [ -46.714947, -23.682536 ], [ -46.714832, -23.682773 ], [ -46.714729, -23.683213 ], [ -46.714504, -23.683311 ], [ -46.714566, -23.684101 ], [ -46.715078, -23.684186 ], [ -46.715069, -23.683573 ] ] ] } },
{ "type": "Feature", "properties": { "CD_SETOR": "355030879000103", "faces": 12, "pavimentada": 100.0, "bueiro": 41.67, "iluminacao": 100.0, "onibus": 0.0, "ciclovia": 0.0, "calcada": 83.33, "obstaculo": 100.0, "rampa": 0.0, "rampa_faces": 0.0, "sem_calcada": 16.67, "sem_arvore": 50.0, "muitas_arvores": 25.0, "vao": 100.0, "V05400": 12, "V05421": 10, "V05406": 12, "V05412": 12, "V05422": 2, "V05424": 10, "V05427": 0, "V05409": 5, "V05415": 0, "V05418": 0, "V05430": 6, "V05433": 3, "criancas_0a4": 29, "em_favela": true }, "geometry": { "type": "Polygon", "coordinates": [ [ [ -46.715254, -23.683526 ], [ -46.715463, -23.683553 ], [ -46.715452, -23.683188 ], [ -46.715503, -23.682987 ], [ -46.715615, -23.682788 ], [ -46.715786, -23.682685 ], [ -46.715762, -23.682569 ], [ -46.716045, -23.68255 ], [ -46.716572, -23.682603 ], [ -46.717409, -23.682824 ], [ -46.717712, -23.682722 ], [ -46.71755, -23.682589 ], [ -46.717532, -23.682491 ], [ -46.717142, -23.682468 ], [ -46.716261, -23.682255 ], [ -46.715932, -23.682283 ], [ -46.715693, -23.682359 ], [ -46.715301, -23.682612 ], [ -46.715126, -23.682883 ], [ -46.715082, -23.683056 ], [ -46.715065, -23.683316 ], [ -46.71512, -23.683349 ], [ -46.714999, -23.683527 ], [ -46.715069, -23.683573 ], [ -46.715254, -23.683526 ] ] ] } },
{ "type": "Feature", "properties": { "CD_SETOR": "355030879000104", "faces": 11, "pavimentada": 100.0, "bueiro": 72.73, "iluminacao": 100.0, "onibus": 9.09, "ciclovia": 45.45, "calcada": 100.0, "obstaculo": 63.64, "rampa": 9.09, "rampa_faces": 9.09, "sem_calcada": 0.0, "sem_arvore": 27.27, "muitas_arvores": 72.73, "vao": 90.91, "V05400": 11, "V05421": 11, "V05406": 11, "V05412": 11, "V05422": 0, "V05424": 7, "V05427": 1, "V05409": 8, "V05415": 1, "V05418": 5, "V05430": 3, "V05433": 8, "criancas_0a4": 0, "em_favela": false }, "geometry": { "type": "Polygon", "coordinates": [ [ [ -46.716734, -23.67895 ], [ -46.717072, -23.678575 ], [ -46.717682, -23.678231 ], [ -46.71775, -23.678119 ], [ -46.718095, -23.6782 ], [ -46.717554, -23.678989 ], [ -46.717473, -23.678933 ], [ -46.717321, -23.679279 ], [ -46.717296, -23.679555 ], [ -46.717517, -23.67982 ], [ -46.717263, -23.679978 ], [ -46.717056, -23.679636 ], [ -46.716627, -23.679738 ], [ -46.716852, -23.680097 ], [ -46.716625, -23.680327 ], [ -46.71661, -23.680557 ], [ -46.717303, -23.68219 ], [ -46.717534, -23.682102 ], [ -46.719206, -23.682011 ], [ -46.719083, -23.681328 ], [ -46.719192, -23.680892 ], [ -46.7191, -23.680565 ], [ -46.719318, -23.680112 ], [ -46.719419, -23.679994 ], [ -46.719477, -23.679751 ], [ -46.719427, -23.679617 ], [ -46.719502, -23.679458 ], [ -46.719586, -23.679332 ], [ -46.719838, -23.679231 ], [ -46.719611, -23.679172 ], [ -46.719016, -23.678719 ], [ -46.719091, -23.678635 ], [ -46.71962, -23.67861 ], [ -46.720132, -23.677956 ], [ -46.720182, -23.67762 ], [ -46.719913, -23.6771 ], [ -46.719569, -23.676882 ], [ -46.719041, -23.67674 ], [ -46.719024, -23.676664 ], [ -46.718764, -23.676731 ], [ -46.718747, -23.676773 ], [ -46.718479, -23.676698 ], [ -46.718303, -23.676488 ], [ -46.718076, -23.676463 ], [ -46.717942, -23.676211 ], [ -46.717783, -23.676127 ], [ -46.717556, -23.676085 ], [ -46.717347, -23.67585 ], [ -46.71769, -23.675834 ], [ -46.718051, -23.675741 ], [ -46.718127, -23.675557 ], [ -46.71806, -23.675456 ], [ -46.718177, -23.675414 ], [ -46.718202, -23.675171 ], [ -46.718546, -23.67445 ], [ -46.718553, -23.673908 ], [ -46.714606, -23.675177 ], [ -46.7144, -23.674732 ], [ -46.712727, -23.675282 ], [ -46.712424, -23.675748 ], [ -46.712441, -23.676289 ], [ -46.712877, -23.676312 ], [ -46.713057, -23.677342 ], [ -46.71342, -23.677477 ], [ -46.715071, -23.678459 ], [ -46.715528, -23.678904 ], [ -46.715953, -23.678814 ], [ -46.716194, -23.67904 ], [ -46.716608, -23.678939 ], [ -46.716734, -23.67895 ] ] ] } },
{ "type": "Feature", "properties": { "CD_SETOR": "355030879000105", "faces": 17, "pavimentada": 100.0, "bueiro": 47.06, "iluminacao": 100.0, "onibus": 5.88, "ciclovia": 35.29, "calcada": 47.06, "obstaculo": 100.0, "rampa": 0.0, "rampa_faces": 0.0, "sem_calcada": 52.94, "sem_arvore": 58.82, "muitas_arvores": 29.41, "vao": 100.0, "V05400": 17, "V05421": 8, "V05406": 17, "V05412": 17, "V05422": 9, "V05424": 8, "V05427": 0, "V05409": 8, "V05415": 1, "V05418": 6, "V05430": 10, "V05433": 5, "criancas_0a4": 21, "em_favela": true }, "geometry": { "type": "Polygon", "coordinates": [ [ [ -46.716627, -23.679738 ], [ -46.717056, -23.679636 ], [ -46.717263, -23.679978 ], [ -46.717517, -23.67982 ], [ -46.717296, -23.679555 ], [ -46.717321, -23.679279 ], [ -46.717473, -23.678933 ], [ -46.717554, -23.678989 ], [ -46.718033, -23.678341 ], [ -46.718084, -23.678184 ], [ -46.71775, -23.678119 ], [ -46.717682, -23.678231 ], [ -46.717197, -23.678479 ], [ -46.716878, -23.678757 ], [ -46.716734, -23.67895 ], [ -46.716668, -23.67914 ], [ -46.7166, -23.679674 ], [ -46.716627, -23.679738 ] ] ] } },
{ "type": "Feature", "properties": { "CD_SETOR": "355030879000106", "faces": 26, "pavimentada": 100.0, "bueiro": 42.31, "iluminacao": 100.0, "onibus": 15.38, "ciclovia": 0.0, "calcada": 100.0, "obstaculo": 88.46, "rampa": 26.92, "rampa_faces": 26.92, "sem_calcada": 0.0, "sem_arvore": 50.0, "muitas_arvores": 15.38, "vao": 73.08, "V05400": 26, "V05421": 26, "V05406": 26, "V05412": 26, "V05422": 0, "V05424": 23, "V05427": 7, "V05409": 11, "V05415": 4, "V05418": 0, "V05430": 13, "V05433": 4, "criancas_0a4": 18, "em_favela": false }, "geometry": { "type": "Polygon", "coordinates": [ [ [ -46.697601, -23.687232 ], [ -46.697468, -23.68805 ], [ -46.697335, -23.688231 ], [ -46.696868, -23.68836 ], [ -46.697126, -23.688671 ], [ -46.697379, -23.689183 ], [ -46.69836, -23.692373 ], [ -46.698715, -23.692158 ], [ -46.699326, -23.691589 ], [ -46.699542, -23.691244 ], [ -46.699491, -23.691185 ], [ -46.699253, -23.69117 ], [ -46.69859, -23.690742 ], [ -46.698247, -23.690198 ], [ -46.69771, -23.688614 ], [ -46.698182, -23.687926 ], [ -46.698362, -23.687822 ], [ -46.698906, -23.687653 ], [ -46.699254, -23.68763 ], [ -46.699512, -23.687697 ], [ -46.699553, -23.687444 ], [ -46.699482, -23.687188 ], [ -46.700345, -23.687602 ], [ -46.700884, -23.687559 ], [ -46.700773, -23.686452 ], [ -46.700137, -23.686431 ], [ -46.69933, -23.686066 ], [ -46.699307, -23.68574 ], [ -46.699408, -23.685254 ], [ -46.698549, -23.685901 ], [ -46.698317, -23.686007 ], [ -46.697601, -23.687232 ] ] ] } },
{ "type": "Feature", "properties": { "CD_SETOR": "355030879000107", "faces": 29, "pavimentada": 100.0, "bueiro": 34.48, "iluminacao": 100.0, "onibus": 3.45, "ciclovia": 0.0, "calcada": 93.1, "obstaculo": 77.78, "rampa": 51.85, "rampa_faces": 48.28, "sem_calcada": 6.9, "sem_arvore": 3.45, "muitas_arvores": 48.28, "vao": 51.72, "V05400": 29, "V05421": 27, "V05406": 29, "V05412": 29, "V05422": 2, "V05424": 21, "V05427": 14, "V05409": 10, "V05415": 1, "V05418": 0, "V05430": 1, "V05433": 14, "criancas_0a4": 14, "em_favela": false }, "geometry": { "type": "Polygon", "coordinates": [ [ [ -46.710679, -23.68563 ], [ -46.710944, -23.685722 ], [ -46.71156, -23.685703 ], [ -46.711927, -23.685637 ], [ -46.711936, -23.685594 ], [ -46.712153, -23.685696 ], [ -46.712815, -23.685706 ], [ -46.71241, -23.68351 ], [ -46.711809, -23.683594 ], [ -46.711622, -23.682593 ], [ -46.711552, -23.682571 ], [ -46.711156, -23.68287 ], [ -46.709152, -23.684623 ], [ -46.708987, -23.68472 ], [ -46.709054, -23.684831 ], [ -46.709221, -23.684734 ], [ -46.709706, -23.684983 ], [ -46.710034, -23.685226 ], [ -46.710074, -23.68517 ], [ -46.710679, -23.68563 ] ] ] } }
]
}
